<?xml version='1.0' encoding='UTF-8'?>
<osm generator="JOSM" version="0.6">
  <!-- Original coordinates: POINT (47.612538 19.060951) -->
  <!-- Original tags: None -->
  <node action="modify" changeset="99999" id="-1" lat="47.612538" lon="19.060951" timestamp="" uid="4579407" user="KAMI" version="99999">
    <tag k="addr:city" v="Budakalász"/>
    <tag k="addr:housenumber" v="1"/>
    <tag k="addr:postcode" v="2011"/>
    <tag k="addr:street" v="Omsz park"/>
    <tag k="amenity" v="vending_machine"/>
    <tag k="branch" v="Auchan Budakalász"/>
    <tag k="brand" v="Foxpost"/>
    <tag k="email" v="info@foxpost.hu"/>
    <tag k="facebook" v="https://www.facebook.com/foxpostzrt"/>
    <tag k="import" v="osm_poi_matchmaker"/>
    <tag k="name" v="Foxpost"/>
    <tag k="opening_hours" v="Mo-Sa 06:00-22:00; Su 08:00-20:00"/>
    <tag k="operator" v="FoxPost Zrt."/>
    <tag k="payment:cash" v="no"/>
    <tag k="payment:debit_cards" v="yes"/>
    <tag k="phone" v="+36 1 999 03 69"/>
    <tag k="source" v="website"/>
    <tag k="source:date" v="2018-07-10"/>
    <tag k="vending" v="parcel_pickup;parcel_mail_in"/>
    <tag k="website" v="https://www.foxpost.hu"/>
    <tag k="youtube" v="https://www.youtube.com/channel/UC3zt91sNKPimgA32Nmcu97w"/>
  </node>
  <!-- Original coordinates: POINT (47.549376 19.072893) -->
  <!-- Original tags: None -->
  <node action="modify" changeset="99999" id="-2" lat="47.549376" lon="19.072893" timestamp="" uid="4579407" user="KAMI" version="99999">
    <tag k="addr:city" v="Budapest"/>
    <tag k="addr:housenumber" v="178"/>
    <tag k="addr:postcode" v="1138"/>
    <tag k="addr:street" v="Váci út"/>
    <tag k="amenity" v="vending_machine"/>
    <tag k="branch" v="Duna Pláza"/>
    <tag k="brand" v="Foxpost"/>
    <tag k="email" v="info@foxpost.hu"/>
    <tag k="facebook" v="https://www.facebook.com/foxpostzrt"/>
    <tag k="import" v="osm_poi_matchmaker"/>
    <tag k="name" v="Foxpost"/>
    <tag k="opening_hours" v="Mo-Th 10:00-21:00; Fr 10:00-22:45; Sa 09:30-22:45; Su 09:30-20:45"/>
    <tag k="operator" v="FoxPost Zrt."/>
    <tag k="payment:cash" v="no"/>
    <tag k="payment:debit_cards" v="yes"/>
    <tag k="phone" v="+36 1 999 03 69"/>
    <tag k="source" v="website"/>
    <tag k="source:date" v="2018-07-10"/>
    <tag k="vending" v="parcel_pickup;parcel_mail_in"/>
    <tag k="website" v="https://www.foxpost.hu"/>
    <tag k="youtube" v="https://www.youtube.com/channel/UC3zt91sNKPimgA32Nmcu97w"/>
  </node>
  <!-- Original coordinates: POINT (47.552875 19.141459) -->
  <!-- Original tags: None -->
  <node action="modify" changeset="99999" id="-3" lat="47.552875" lon="19.141459" timestamp="" uid="4579407" user="KAMI" version="99999">
    <tag k="addr:city" v="Budapest"/>
    <tag k="addr:housenumber" v="131"/>
    <tag k="addr:postcode" v="1152"/>
    <tag k="addr:street" v="Szentmihályi út"/>
    <tag k="amenity" v="vending_machine"/>
    <tag k="branch" v="Pólus Center"/>
    <tag k="brand" v="Foxpost"/>
    <tag k="email" v="info@foxpost.hu"/>
    <tag k="facebook" v="https://www.facebook.com/foxpostzrt"/>
    <tag k="import" v="osm_poi_matchmaker"/>
    <tag k="name" v="Foxpost"/>
    <tag k="opening_hours" v="Mo-Su 09:00-23:00"/>
    <tag k="operator" v="FoxPost Zrt."/>
    <tag k="payment:cash" v="no"/>
    <tag k="payment:debit_cards" v="yes"/>
    <tag k="phone" v="+36 1 999 03 69"/>
    <tag k="source" v="website"/>
    <tag k="source:date" v="2018-07-10"/>
    <tag k="vending" v="parcel_pickup;parcel_mail_in"/>
    <tag k="website" v="https://www.foxpost.hu"/>
    <tag k="youtube" v="https://www.youtube.com/channel/UC3zt91sNKPimgA32Nmcu97w"/>
  </node>
  <!-- Original coordinates: POINT (47.475154 19.049059) -->
  <!-- Original tags: None -->
  <node action="modify" changeset="99999" id="-4" lat="47.475154" lon="19.049059" timestamp="" uid="4579407" user="KAMI" version="99999">
    <tag k="addr:city" v="Budapest"/>
    <tag k="addr:housenumber" v="8-10"/>
    <tag k="addr:postcode" v="1117"/>
    <tag k="addr:street" v="Október huszonharmadika utca"/>
    <tag k="amenity" v="vending_machine"/>
    <tag k="branch" v="Allee"/>
    <tag k="brand" v="Foxpost"/>
    <tag k="email" v="info@foxpost.hu"/>
    <tag k="facebook" v="https://www.facebook.com/foxpostzrt"/>
    <tag k="import" v="osm_poi_matchmaker"/>
    <tag k="name" v="Foxpost"/>
    <tag k="opening_hours" v="Mo-Sa 07:00-22:00; Su 08:00-20:00"/>
    <tag k="operator" v="FoxPost Zrt."/>
    <tag k="payment:cash" v="no"/>
    <tag k="payment:debit_cards" v="yes"/>
    <tag k="phone" v="+36 1 999 03 69"/>
    <tag k="source" v="website"/>
    <tag k="source:date" v="2018-07-10"/>
    <tag k="vending" v="parcel_pickup;parcel_mail_in"/>
    <tag k="website" v="https://www.foxpost.hu"/>
    <tag k="youtube" v="https://www.youtube.com/channel/UC3zt91sNKPimgA32Nmcu97w"/>
  </node>
  <!-- Original coordinates: POINT (47.434853 19.042796) -->
  <!-- Original tags: None -->
  <node action="modify" changeset="99999" id="-5" lat="47.434853" lon="19.042796" timestamp="" uid="4579407" user="KAMI" version="99999">
    <tag k="addr:city" v="Budapest"/>
    <tag k="addr:postcode" v="1117"/>
    <tag k="amenity" v="vending_machine"/>
    <tag k="branch" v="Savoya"/>
    <tag k="brand" v="Foxpost"/>
    <tag k="email" v="info@foxpost.hu"/>
    <tag k="facebook" v="https://www.facebook.com/foxpostzrt"/>
    <tag k="import" v="osm_poi_matchmaker"/>
    <tag k="name" v="Foxpost"/>
    <tag k="opening_hours" v="Mo-Sa 06:00-22:00; Su 08:00-20:00"/>
    <tag k="operator" v="FoxPost Zrt."/>
    <tag k="payment:cash" v="no"/>
    <tag k="payment:debit_cards" v="yes"/>
    <tag k="phone" v="+36 1 999 03 69"/>
    <tag k="source" v="website"/>
    <tag k="source:date" v="2018-07-10"/>
    <tag k="vending" v="parcel_pickup;parcel_mail_in"/>
    <tag k="website" v="https://www.foxpost.hu"/>
    <tag k="youtube" v="https://www.youtube.com/channel/UC3zt91sNKPimgA32Nmcu97w"/>
  </node>
  <!-- Original coordinates: POINT (47.546463 19.028866) -->
  <!-- Original tags: None -->
  <node action="modify" changeset="99999" id="-6" lat="47.546463" lon="19.028866" timestamp="" uid="4579407" user="KAMI" version="99999">
    <tag k="addr:city" v="Budapest"/>
    <tag k="addr:housenumber" v="154"/>
    <tag k="addr:postcode" v="1037"/>
    <tag k="addr:street" v="Bécsi út"/>
    <tag k="amenity" v="vending_machine"/>
    <tag k="branch" v="Eurocenter"/>
    <tag k="brand" v="Foxpost"/>
    <tag k="email" v="info@foxpost.hu"/>
    <tag k="facebook" v="https://www.facebook.com/foxpostzrt"/>
    <tag k="import" v="osm_poi_matchmaker"/>
    <tag k="name" v="Foxpost"/>
    <tag k="opening_hours" v="Mo-Fr 06:00-22:45; Sa-Su 08:30-22:45"/>
    <tag k="operator" v="FoxPost Zrt."/>
    <tag k="payment:cash" v="no"/>
    <tag k="payment:debit_cards" v="yes"/>
    <tag k="phone" v="+36 1 999 03 69"/>
    <tag k="source" v="website"/>
    <tag k="source:date" v="2018-07-10"/>
    <tag k="vending" v="parcel_pickup;parcel_mail_in"/>
    <tag k="website" v="https://www.foxpost.hu"/>
    <tag k="youtube" v="https://www.youtube.com/channel/UC3zt91sNKPimgA32Nmcu97w"/>
  </node>
  <!-- Original coordinates: POINT (47.504836 19.090522) -->
  <!-- Original tags: None -->
  <node action="modify" changeset="99999" id="-7" lat="47.504836" lon="19.090522" timestamp="" uid="4579407" user="KAMI" version="99999">
    <tag k="addr:city" v="Budapest"/>
    <tag k="addr:housenumber" v="6"/>
    <tag k="addr:postcode" v="1146"/>
    <tag k="addr:street" v="Istvánmezei út"/>
    <tag k="amenity" v="vending_machine"/>
    <tag k="branch" v="Récsei Center"/>
    <tag k="brand" v="Foxpost"/>
    <tag k="email" v="info@foxpost.hu"/>
    <tag k="facebook" v="https://www.facebook.com/foxpostzrt"/>
    <tag k="import" v="osm_poi_matchmaker"/>
    <tag k="name" v="Foxpost"/>
    <tag k="opening_hours" v="Mo-Fr 09:00-20:00; Sa-Su 09:00-18:00"/>
    <tag k="operator" v="FoxPost Zrt."/>
    <tag k="payment:cash" v="no"/>
    <tag k="payment:debit_cards" v="yes"/>
    <tag k="phone" v="+36 1 999 03 69"/>
    <tag k="source" v="website"/>
    <tag k="source:date" v="2018-07-10"/>
    <tag k="vending" v="parcel_pickup;parcel_mail_in"/>
    <tag k="website" v="https://www.foxpost.hu"/>
    <tag k="youtube" v="https://www.youtube.com/channel/UC3zt91sNKPimgA32Nmcu97w"/>
  </node>
  <!-- Original coordinates: POINT (47.470018 19.084033) -->
  <!-- Original tags: None -->
  <node action="modify" changeset="99999" id="-8" lat="47.470018" lon="19.084033" timestamp="" uid="4579407" user="KAMI" version="99999">
    <tag k="addr:city" v="Budapest"/>
    <tag k="addr:housenumber" v="12-14"/>
    <tag k="addr:postcode" v="1097"/>
    <tag k="addr:street" v="Könyves Kálmán körút"/>
    <tag k="amenity" v="vending_machine"/>
    <tag k="branch" v="Lurdy"/>
    <tag k="brand" v="Foxpost"/>
    <tag k="email" v="info@foxpost.hu"/>
    <tag k="facebook" v="https://www.facebook.com/foxpostzrt"/>
    <tag k="import" v="osm_poi_matchmaker"/>
    <tag k="name" v="Foxpost"/>
    <tag k="opening_hours" v="Mo-Su 00:00-24:00"/>
    <tag k="operator" v="FoxPost Zrt."/>
    <tag k="payment:cash" v="no"/>
    <tag k="payment:debit_cards" v="yes"/>
    <tag k="phone" v="+36 1 999 03 69"/>
    <tag k="source" v="website"/>
    <tag k="source:date" v="2018-07-10"/>
    <tag k="vending" v="parcel_pickup;parcel_mail_in"/>
    <tag k="website" v="https://www.foxpost.hu"/>
    <tag k="youtube" v="https://www.youtube.com/channel/UC3zt91sNKPimgA32Nmcu97w"/>
  </node>
  <!-- Original coordinates: POINT (47.506234 19.03583) -->
  <!-- Original tags: None -->
  <node action="modify" changeset="99999" id="-9" lat="47.506234" lon="19.03583" timestamp="" uid="4579407" user="KAMI" version="99999">
    <tag k="addr:city" v="Budapest"/>
    <tag k="addr:housenumber" v="5"/>
    <tag k="addr:postcode" v="1015"/>
    <tag k="addr:street" v="Batthyány tér"/>
    <tag k="amenity" v="vending_machine"/>
    <tag k="branch" v="Batthyány téri Vásárcsarnok"/>
    <tag k="brand" v="Foxpost"/>
    <tag k="email" v="info@foxpost.hu"/>
    <tag k="facebook" v="https://www.facebook.com/foxpostzrt"/>
    <tag k="import" v="osm_poi_matchmaker"/>
    <tag k="name" v="Foxpost"/>
    <tag k="opening_hours" v="Mo-Fr 07:00-20:00; Sa 08:00-20:00; Su 08:00-17:00"/>
    <tag k="operator" v="FoxPost Zrt."/>
    <tag k="payment:cash" v="no"/>
    <tag k="payment:debit_cards" v="yes"/>
    <tag k="phone" v="+36 1 999 03 69"/>
    <tag k="source" v="website"/>
    <tag k="source:date" v="2018-07-10"/>
    <tag k="vending" v="parcel_pickup;parcel_mail_in"/>
    <tag k="website" v="https://www.foxpost.hu"/>
    <tag k="youtube" v="https://www.youtube.com/channel/UC3zt91sNKPimgA32Nmcu97w"/>
  </node>
  <!-- Original coordinates: POINT (47.51123 19.056687) -->
  <!-- Original tags: None -->
  <node action="modify" changeset="99999" id="-10" lat="47.51123" lon="19.056687" timestamp="" uid="4579407" user="KAMI" version="99999">
    <tag k="addr:city" v="Budapest"/>
    <tag k="addr:housenumber" v="1-3"/>
    <tag k="addr:postcode" v="1062"/>
    <tag k="addr:street" v="Váci út"/>
    <tag k="amenity" v="vending_machine"/>
    <tag k="branch" v="Westend"/>
    <tag k="brand" v="Foxpost"/>
    <tag k="email" v="info@foxpost.hu"/>
    <tag k="facebook" v="https://www.facebook.com/foxpostzrt"/>
    <tag k="import" v="osm_poi_matchmaker"/>
    <tag k="name" v="Foxpost"/>
    <tag k="opening_hours" v="Mo-Su 08:00-23:00"/>
    <tag k="operator" v="FoxPost Zrt."/>
    <tag k="payment:cash" v="no"/>
    <tag k="payment:debit_cards" v="yes"/>
    <tag k="phone" v="+36 1 999 03 69"/>
    <tag k="source" v="website"/>
    <tag k="source:date" v="2018-07-10"/>
    <tag k="vending" v="parcel_pickup;parcel_mail_in"/>
    <tag k="website" v="https://www.foxpost.hu"/>
    <tag k="youtube" v="https://www.youtube.com/channel/UC3zt91sNKPimgA32Nmcu97w"/>
  </node>
  <!-- Original coordinates: POINT (47.559871 19.047496) -->
  <!-- Original tags: None -->
  <node action="modify" changeset="99999" id="-11" lat="47.559871" lon="19.047496" timestamp="" uid="4579407" user="KAMI" version="99999">
    <tag k="addr:city" v="Budapest"/>
    <tag k="addr:housenumber" v="115"/>
    <tag k="addr:postcode" v="1033"/>
    <tag k="addr:street" v="Szentendrei út"/>
    <tag k="amenity" v="vending_machine"/>
    <tag k="branch" v="Auchan Aquincum"/>
    <tag k="brand" v="Foxpost"/>
    <tag k="email" v="info@foxpost.hu"/>
    <tag k="facebook" v="https://www.facebook.com/foxpostzrt"/>
    <tag k="import" v="osm_poi_matchmaker"/>
    <tag k="name" v="Foxpost"/>
    <tag k="opening_hours" v="Su 08:00-20:00"/>
    <tag k="operator" v="FoxPost Zrt."/>
    <tag k="payment:cash" v="no"/>
    <tag k="payment:debit_cards" v="yes"/>
    <tag k="phone" v="+36 1 999 03 69"/>
    <tag k="source" v="website"/>
    <tag k="source:date" v="2018-07-10"/>
    <tag k="vending" v="parcel_pickup;parcel_mail_in"/>
    <tag k="website" v="https://www.foxpost.hu"/>
    <tag k="youtube" v="https://www.youtube.com/channel/UC3zt91sNKPimgA32Nmcu97w"/>
  </node>
  <!-- Original coordinates: POINT (47.490592 19.023972) -->
  <!-- Original tags: None -->
  <node action="modify" changeset="99999" id="-12" lat="47.490592" lon="19.023972" timestamp="" uid="4579407" user="KAMI" version="99999">
    <tag k="addr:city" v="Budapest"/>
    <tag k="addr:housenumber" v="53"/>
    <tag k="addr:postcode" v="1126"/>
    <tag k="addr:street" v="Alkotás utca"/>
    <tag k="amenity" v="vending_machine"/>
    <tag k="branch" v="MOM Park"/>
    <tag k="brand" v="Foxpost"/>
    <tag k="email" v="info@foxpost.hu"/>
    <tag k="facebook" v="https://www.facebook.com/foxpostzrt"/>
    <tag k="import" v="osm_poi_matchmaker"/>
    <tag k="name" v="Foxpost"/>
    <tag k="opening_hours" v="Mo-Sa 07:00-24:00; Su 08:00-24:00"/>
    <tag k="operator" v="FoxPost Zrt."/>
    <tag k="payment:cash" v="no"/>
    <tag k="payment:debit_cards" v="yes"/>
    <tag k="phone" v="+36 1 999 03 69"/>
    <tag k="source" v="website"/>
    <tag k="source:date" v="2018-07-10"/>
    <tag k="vending" v="parcel_pickup;parcel_mail_in"/>
    <tag k="website" v="https://www.foxpost.hu"/>
    <tag k="youtube" v="https://www.youtube.com/channel/UC3zt91sNKPimgA32Nmcu97w"/>
  </node>
  <!-- Original coordinates: POINT (47.486189 19.074505) -->
  <!-- Original tags: None -->
  <node action="modify" changeset="99999" id="-13" lat="47.486189" lon="19.074505" timestamp="" uid="4579407" user="KAMI" version="99999">
    <tag k="addr:city" v="Budapest"/>
    <tag k="addr:housenumber" v="37"/>
    <tag k="addr:postcode" v="1082"/>
    <tag k="addr:street" v="Futó utca"/>
    <tag k="amenity" v="vending_machine"/>
    <tag k="branch" v="Corvin Pláza"/>
    <tag k="brand" v="Foxpost"/>
    <tag k="email" v="info@foxpost.hu"/>
    <tag k="facebook" v="https://www.facebook.com/foxpostzrt"/>
    <tag k="import" v="osm_poi_matchmaker"/>
    <tag k="name" v="Foxpost"/>
    <tag k="opening_hours" v="Mo-Sa 07:00-22:00; Su 08:00-20:00"/>
    <tag k="operator" v="FoxPost Zrt."/>
    <tag k="payment:cash" v="no"/>
    <tag k="payment:debit_cards" v="yes"/>
    <tag k="phone" v="+36 1 999 03 69"/>
    <tag k="source" v="website"/>
    <tag k="source:date" v="2018-07-10"/>
    <tag k="vending" v="parcel_pickup;parcel_mail_in"/>
    <tag k="website" v="https://www.foxpost.hu"/>
    <tag k="youtube" v="https://www.youtube.com/channel/UC3zt91sNKPimgA32Nmcu97w"/>
  </node>
  <!-- Original coordinates: POINT (47.516295 18.99992) -->
  <!-- Original tags: None -->
  <node action="modify" changeset="99999" id="-14" lat="47.516295" lon="18.99992" timestamp="" uid="4579407" user="KAMI" version="99999">
    <tag k="addr:city" v="Budapest"/>
    <tag k="addr:housenumber" v="121"/>
    <tag k="addr:postcode" v="1026"/>
    <tag k="addr:street" v="Szilágyi Erzsébet fasor"/>
    <tag k="amenity" v="vending_machine"/>
    <tag k="branch" v="Budagyöngye"/>
    <tag k="brand" v="Foxpost"/>
    <tag k="email" v="info@foxpost.hu"/>
    <tag k="facebook" v="https://www.facebook.com/foxpostzrt"/>
    <tag k="import" v="osm_poi_matchmaker"/>
    <tag k="name" v="Foxpost"/>
    <tag k="opening_hours" v="Mo-Fr 08:00-19:00; Sa 08:00-20:00; Su 10:00-15:00"/>
    <tag k="operator" v="FoxPost Zrt."/>
    <tag k="payment:cash" v="no"/>
    <tag k="payment:debit_cards" v="yes"/>
    <tag k="phone" v="+36 1 999 03 69"/>
    <tag k="source" v="website"/>
    <tag k="source:date" v="2018-07-10"/>
    <tag k="vending" v="parcel_pickup;parcel_mail_in"/>
    <tag k="website" v="https://www.foxpost.hu"/>
    <tag k="youtube" v="https://www.youtube.com/channel/UC3zt91sNKPimgA32Nmcu97w"/>
  </node>
  <!-- Original coordinates: POINT (47.508788 19.02585) -->
  <!-- Original tags: None -->
  <node action="modify" changeset="99999" id="-15" lat="47.508788" lon="19.02585" timestamp="" uid="4579407" user="KAMI" version="99999">
    <tag k="addr:city" v="Budapest"/>
    <tag k="addr:housenumber" v="12"/>
    <tag k="addr:postcode" v="1024"/>
    <tag k="addr:street" v="Lövőház utca"/>
    <tag k="amenity" v="vending_machine"/>
    <tag k="branch" v="Mammut 1. Príma"/>
    <tag k="brand" v="Foxpost"/>
    <tag k="email" v="info@foxpost.hu"/>
    <tag k="facebook" v="https://www.facebook.com/foxpostzrt"/>
    <tag k="import" v="osm_poi_matchmaker"/>
    <tag k="name" v="Foxpost"/>
    <tag k="operator" v="FoxPost Zrt."/>
    <tag k="payment:cash" v="no"/>
    <tag k="payment:debit_cards" v="yes"/>
    <tag k="phone" v="+36 1 999 03 69"/>
    <tag k="source" v="website"/>
    <tag k="source:date" v="2018-07-10"/>
    <tag k="vending" v="parcel_pickup;parcel_mail_in"/>
    <tag k="website" v="https://www.foxpost.hu"/>
    <tag k="youtube" v="https://www.youtube.com/channel/UC3zt91sNKPimgA32Nmcu97w"/>
  </node>
  <!-- Original coordinates: POINT (47.406968 19.015177) -->
  <!-- Original tags: None -->
  <node action="modify" changeset="99999" id="-16" lat="47.406968" lon="19.015177" timestamp="" uid="4579407" user="KAMI" version="99999">
    <tag k="addr:city" v="Budapest"/>
    <tag k="addr:housenumber" v="37-43"/>
    <tag k="addr:postcode" v="1223"/>
    <tag k="addr:street" v="Nagytétényi út"/>
    <tag k="amenity" v="vending_machine"/>
    <tag k="branch" v="Campona"/>
    <tag k="brand" v="Foxpost"/>
    <tag k="email" v="info@foxpost.hu"/>
    <tag k="facebook" v="https://www.facebook.com/foxpostzrt"/>
    <tag k="import" v="osm_poi_matchmaker"/>
    <tag k="name" v="Foxpost"/>
    <tag k="opening_hours" v="Mo-Sa 06:00-22:00; Su 10:00-20:00"/>
    <tag k="operator" v="FoxPost Zrt."/>
    <tag k="payment:cash" v="no"/>
    <tag k="payment:debit_cards" v="yes"/>
    <tag k="phone" v="+36 1 999 03 69"/>
    <tag k="source" v="website"/>
    <tag k="source:date" v="2018-07-10"/>
    <tag k="vending" v="parcel_pickup;parcel_mail_in"/>
    <tag k="website" v="https://www.foxpost.hu"/>
    <tag k="youtube" v="https://www.youtube.com/channel/UC3zt91sNKPimgA32Nmcu97w"/>
  </node>
  <!-- Original coordinates: POINT (47.423572 19.067318) -->
  <!-- Original tags: None -->
  <node action="modify" changeset="99999" id="-17" lat="47.423572" lon="19.067318" timestamp="" uid="4579407" user="KAMI" version="99999">
    <tag k="addr:city" v="Budapest"/>
    <tag k="addr:housenumber" v="154-170"/>
    <tag k="addr:postcode" v="1212"/>
    <tag k="addr:street" v="II Rákóczi Ferenc út"/>
    <tag k="amenity" v="vending_machine"/>
    <tag k="branch" v="Csepel Pláza"/>
    <tag k="brand" v="Foxpost"/>
    <tag k="email" v="info@foxpost.hu"/>
    <tag k="facebook" v="https://www.facebook.com/foxpostzrt"/>
    <tag k="import" v="osm_poi_matchmaker"/>
    <tag k="name" v="Foxpost"/>
    <tag k="opening_hours" v="Mo-Su 07:00-21:00"/>
    <tag k="operator" v="FoxPost Zrt."/>
    <tag k="payment:cash" v="no"/>
    <tag k="payment:debit_cards" v="yes"/>
    <tag k="phone" v="+36 1 999 03 69"/>
    <tag k="source" v="website"/>
    <tag k="source:date" v="2018-07-10"/>
    <tag k="vending" v="parcel_pickup;parcel_mail_in"/>
    <tag k="website" v="https://www.foxpost.hu"/>
    <tag k="youtube" v="https://www.youtube.com/channel/UC3zt91sNKPimgA32Nmcu97w"/>
  </node>
  <!-- Original coordinates: POINT (47.419549 19.1578) -->
  <!-- Original tags: None -->
  <node action="modify" changeset="99999" id="-18" lat="47.419549" lon="19.1578" timestamp="" uid="4579407" user="KAMI" version="99999">
    <tag k="addr:city" v="Budapest"/>
    <tag k="addr:housenumber" v="2"/>
    <tag k="addr:postcode" v="1238"/>
    <tag k="addr:street" v="Bevásárló utca"/>
    <tag k="amenity" v="vending_machine"/>
    <tag k="branch" v="Auchan Soroksár"/>
    <tag k="brand" v="Foxpost"/>
    <tag k="email" v="info@foxpost.hu"/>
    <tag k="facebook" v="https://www.facebook.com/foxpostzrt"/>
    <tag k="import" v="osm_poi_matchmaker"/>
    <tag k="name" v="Foxpost"/>
    <tag k="opening_hours" v="Su 07:00-20:00"/>
    <tag k="operator" v="FoxPost Zrt."/>
    <tag k="payment:cash" v="no"/>
    <tag k="payment:debit_cards" v="yes"/>
    <tag k="phone" v="+36 1 999 03 69"/>
    <tag k="source" v="website"/>
    <tag k="source:date" v="2018-07-10"/>
    <tag k="vending" v="parcel_pickup;parcel_mail_in"/>
    <tag k="website" v="https://www.foxpost.hu"/>
    <tag k="youtube" v="https://www.youtube.com/channel/UC3zt91sNKPimgA32Nmcu97w"/>
  </node>
  <!-- Original coordinates: POINT (47.469971 19.15697) -->
  <!-- Original tags: None -->
  <node action="modify" changeset="99999" id="-19" lat="47.469971" lon="19.15697" timestamp="" uid="4579407" user="KAMI" version="99999">
    <tag k="addr:city" v="Budapest"/>
    <tag k="addr:housenumber" v="30"/>
    <tag k="addr:postcode" v="1103"/>
    <tag k="addr:street" v="Sibrik Miklós út"/>
    <tag k="amenity" v="vending_machine"/>
    <tag k="branch" v="Family Center Kőbánya"/>
    <tag k="brand" v="Foxpost"/>
    <tag k="email" v="info@foxpost.hu"/>
    <tag k="facebook" v="https://www.facebook.com/foxpostzrt"/>
    <tag k="import" v="osm_poi_matchmaker"/>
    <tag k="name" v="Foxpost"/>
    <tag k="opening_hours" v="Su 08:30-19:30"/>
    <tag k="operator" v="FoxPost Zrt."/>
    <tag k="payment:cash" v="no"/>
    <tag k="payment:debit_cards" v="yes"/>
    <tag k="phone" v="+36 1 999 03 69"/>
    <tag k="source" v="website"/>
    <tag k="source:date" v="2018-07-10"/>
    <tag k="vending" v="parcel_pickup;parcel_mail_in"/>
    <tag k="website" v="https://www.foxpost.hu"/>
    <tag k="youtube" v="https://www.youtube.com/channel/UC3zt91sNKPimgA32Nmcu97w"/>
  </node>
  <!-- Original coordinates: POINT (47.496074 19.070374) -->
  <!-- Original tags: None -->
  <node action="modify" changeset="99999" id="-20" lat="47.496074" lon="19.070374" timestamp="" uid="4579407" user="KAMI" version="99999">
    <tag k="addr:city" v="Budapest"/>
    <tag k="addr:housenumber" v="5"/>
    <tag k="addr:postcode" v="1085"/>
    <tag k="addr:street" v="Blaha Lujza tér"/>
    <tag k="amenity" v="vending_machine"/>
    <tag k="branch" v="Europeum"/>
    <tag k="brand" v="Foxpost"/>
    <tag k="email" v="info@foxpost.hu"/>
    <tag k="facebook" v="https://www.facebook.com/foxpostzrt"/>
    <tag k="import" v="osm_poi_matchmaker"/>
    <tag k="name" v="Foxpost"/>
    <tag k="opening_hours" v="Mo-Sa 09:00-20:30; Su 09:00-18:00"/>
    <tag k="operator" v="FoxPost Zrt."/>
    <tag k="payment:cash" v="no"/>
    <tag k="payment:debit_cards" v="yes"/>
    <tag k="phone" v="+36 1 999 03 69"/>
    <tag k="source" v="website"/>
    <tag k="source:date" v="2018-07-10"/>
    <tag k="vending" v="parcel_pickup;parcel_mail_in"/>
    <tag k="website" v="https://www.foxpost.hu"/>
    <tag k="youtube" v="https://www.youtube.com/channel/UC3zt91sNKPimgA32Nmcu97w"/>
  </node>
  <!-- Original coordinates: POINT (47.502465 19.136953) -->
  <!-- Original tags: None -->
  <node action="modify" changeset="99999" id="-21" lat="47.502465" lon="19.136953" timestamp="" uid="4579407" user="KAMI" version="99999">
    <tag k="addr:city" v="Budapest"/>
    <tag k="addr:housenumber" v="25"/>
    <tag k="addr:postcode" v="1106"/>
    <tag k="addr:street" v="Örs vezér tere"/>
    <tag k="amenity" v="vending_machine"/>
    <tag k="branch" v="Árkád"/>
    <tag k="brand" v="Foxpost"/>
    <tag k="email" v="info@foxpost.hu"/>
    <tag k="facebook" v="https://www.facebook.com/foxpostzrt"/>
    <tag k="import" v="osm_poi_matchmaker"/>
    <tag k="name" v="Foxpost"/>
    <tag k="opening_hours" v="Mo,Th,Fr,Sa 06:50-22:00; Tu-We 10:00-21:00; Su 07:50-20:00"/>
    <tag k="operator" v="FoxPost Zrt."/>
    <tag k="payment:cash" v="no"/>
    <tag k="payment:debit_cards" v="yes"/>
    <tag k="phone" v="+36 1 999 03 69"/>
    <tag k="source" v="website"/>
    <tag k="source:date" v="2018-07-10"/>
    <tag k="vending" v="parcel_pickup;parcel_mail_in"/>
    <tag k="website" v="https://www.foxpost.hu"/>
    <tag k="youtube" v="https://www.youtube.com/channel/UC3zt91sNKPimgA32Nmcu97w"/>
  </node>
  <!-- Original coordinates: POINT (47.544601 18.960866) -->
  <!-- Original tags: None -->
  <node action="modify" changeset="99999" id="-22" lat="47.544601" lon="18.960866" timestamp="" uid="4579407" user="KAMI" version="99999">
    <tag k="addr:city" v="Budapest"/>
    <tag k="addr:housenumber" v="1"/>
    <tag k="addr:postcode" v="1029"/>
    <tag k="addr:street" v="Hidegkúti út"/>
    <tag k="amenity" v="vending_machine"/>
    <tag k="branch" v="HÜVI Ház"/>
    <tag k="brand" v="Foxpost"/>
    <tag k="email" v="info@foxpost.hu"/>
    <tag k="facebook" v="https://www.facebook.com/foxpostzrt"/>
    <tag k="import" v="osm_poi_matchmaker"/>
    <tag k="name" v="Foxpost"/>
    <tag k="opening_hours" v="Mo-Sa 08:00-19:00; Su 10:00-15:00"/>
    <tag k="operator" v="FoxPost Zrt."/>
    <tag k="payment:cash" v="no"/>
    <tag k="payment:debit_cards" v="yes"/>
    <tag k="phone" v="+36 1 999 03 69"/>
    <tag k="source" v="website"/>
    <tag k="source:date" v="2018-07-10"/>
    <tag k="vending" v="parcel_pickup;parcel_mail_in"/>
    <tag k="website" v="https://www.foxpost.hu"/>
    <tag k="youtube" v="https://www.youtube.com/channel/UC3zt91sNKPimgA32Nmcu97w"/>
  </node>
  <!-- Original coordinates: POINT (47.450038 18.963426) -->
  <!-- Original tags: None -->
  <node action="modify" changeset="99999" id="-23" lat="47.450038" lon="18.963426" timestamp="" uid="4579407" user="KAMI" version="99999">
    <tag k="addr:city" v="Budaörs"/>
    <tag k="addr:housenumber" v="1-3"/>
    <tag k="addr:postcode" v="2040"/>
    <tag k="addr:street" v="Kinizsi út"/>
    <tag k="amenity" v="vending_machine"/>
    <tag k="branch" v="Tesco Budaörs"/>
    <tag k="brand" v="Foxpost"/>
    <tag k="email" v="info@foxpost.hu"/>
    <tag k="facebook" v="https://www.facebook.com/foxpostzrt"/>
    <tag k="import" v="osm_poi_matchmaker"/>
    <tag k="name" v="Foxpost"/>
    <tag k="opening_hours" v="Mo-Su 00:00-24:00"/>
    <tag k="operator" v="FoxPost Zrt."/>
    <tag k="payment:cash" v="no"/>
    <tag k="payment:debit_cards" v="yes"/>
    <tag k="phone" v="+36 1 999 03 69"/>
    <tag k="source" v="website"/>
    <tag k="source:date" v="2018-07-10"/>
    <tag k="vending" v="parcel_pickup;parcel_mail_in"/>
    <tag k="website" v="https://www.foxpost.hu"/>
    <tag k="youtube" v="https://www.youtube.com/channel/UC3zt91sNKPimgA32Nmcu97w"/>
  </node>
  <!-- Original coordinates: POINT (47.455073 18.947164) -->
  <!-- Original tags: None -->
  <node action="modify" changeset="99999" id="-24" lat="47.455073" lon="18.947164" timestamp="" uid="4579407" user="KAMI" version="99999">
    <tag k="addr:city" v="Budaörs"/>
    <tag k="addr:housenumber" v="2-4"/>
    <tag k="addr:postcode" v="2040"/>
    <tag k="addr:street" v="Sport utca"/>
    <tag k="amenity" v="vending_machine"/>
    <tag k="branch" v="Auchan Budaörs"/>
    <tag k="brand" v="Foxpost"/>
    <tag k="email" v="info@foxpost.hu"/>
    <tag k="facebook" v="https://www.facebook.com/foxpostzrt"/>
    <tag k="import" v="osm_poi_matchmaker"/>
    <tag k="name" v="Foxpost"/>
    <tag k="opening_hours" v="Su 07:00-21:00"/>
    <tag k="operator" v="FoxPost Zrt."/>
    <tag k="payment:cash" v="no"/>
    <tag k="payment:debit_cards" v="yes"/>
    <tag k="phone" v="+36 1 999 03 69"/>
    <tag k="source" v="website"/>
    <tag k="source:date" v="2018-07-10"/>
    <tag k="vending" v="parcel_pickup;parcel_mail_in"/>
    <tag k="website" v="https://www.foxpost.hu"/>
    <tag k="youtube" v="https://www.youtube.com/channel/UC3zt91sNKPimgA32Nmcu97w"/>
  </node>
  <!-- Original coordinates: POINT (46.677003 21.087967) -->
  <!-- Original tags: None -->
  <node action="modify" changeset="99999" id="-25" lat="46.677003" lon="21.087967" timestamp="" uid="4579407" user="KAMI" version="99999">
    <tag k="addr:city" v="Békéscsaba"/>
    <tag k="addr:housenumber" v="37"/>
    <tag k="addr:postcode" v="5600"/>
    <tag k="addr:street" v="Andrássy út"/>
    <tag k="amenity" v="vending_machine"/>
    <tag k="branch" v="Csaba Center"/>
    <tag k="brand" v="Foxpost"/>
    <tag k="email" v="info@foxpost.hu"/>
    <tag k="facebook" v="https://www.facebook.com/foxpostzrt"/>
    <tag k="import" v="osm_poi_matchmaker"/>
    <tag k="name" v="Foxpost"/>
    <tag k="opening_hours" v="Mo-Th 07:00-01:00; Fr-Sa 07:00-02:00; Su 07:00-00:00"/>
    <tag k="operator" v="FoxPost Zrt."/>
    <tag k="payment:cash" v="no"/>
    <tag k="payment:debit_cards" v="yes"/>
    <tag k="phone" v="+36 1 999 03 69"/>
    <tag k="source" v="website"/>
    <tag k="source:date" v="2018-07-10"/>
    <tag k="vending" v="parcel_pickup;parcel_mail_in"/>
    <tag k="website" v="https://www.foxpost.hu"/>
    <tag k="youtube" v="https://www.youtube.com/channel/UC3zt91sNKPimgA32Nmcu97w"/>
  </node>
  <!-- Original coordinates: POINT (47.543893 19.246449) -->
  <!-- Original tags: None -->
  <node action="modify" changeset="99999" id="-26" lat="47.543893" lon="19.246449" timestamp="" uid="4579407" user="KAMI" version="99999">
    <tag k="addr:city" v="Csömör"/>
    <tag k="addr:housenumber" v="6"/>
    <tag k="addr:postcode" v="2141"/>
    <tag k="addr:street" v="Határ út"/>
    <tag k="amenity" v="vending_machine"/>
    <tag k="branch" v="Auchan Csömör"/>
    <tag k="brand" v="Foxpost"/>
    <tag k="email" v="info@foxpost.hu"/>
    <tag k="facebook" v="https://www.facebook.com/foxpostzrt"/>
    <tag k="import" v="osm_poi_matchmaker"/>
    <tag k="name" v="Foxpost"/>
    <tag k="opening_hours" v="Su 09:00-19:00"/>
    <tag k="operator" v="FoxPost Zrt."/>
    <tag k="payment:cash" v="no"/>
    <tag k="payment:debit_cards" v="yes"/>
    <tag k="phone" v="+36 1 999 03 69"/>
    <tag k="source" v="website"/>
    <tag k="source:date" v="2018-07-10"/>
    <tag k="vending" v="parcel_pickup;parcel_mail_in"/>
    <tag k="website" v="https://www.foxpost.hu"/>
    <tag k="youtube" v="https://www.youtube.com/channel/UC3zt91sNKPimgA32Nmcu97w"/>
  </node>
  <!-- Original coordinates: POINT (47.53481 21.625681) -->
  <!-- Original tags: None -->
  <node action="modify" changeset="99999" id="-27" lat="47.53481" lon="21.625681" timestamp="" uid="4579407" user="KAMI" version="99999">
    <tag k="addr:city" v="Debrecen"/>
    <tag k="addr:housenumber" v="18"/>
    <tag k="addr:postcode" v="4026"/>
    <tag k="addr:street" v="Péterfia utca"/>
    <tag k="amenity" v="vending_machine"/>
    <tag k="branch" v="Debrecen Pláza"/>
    <tag k="brand" v="Foxpost"/>
    <tag k="email" v="info@foxpost.hu"/>
    <tag k="facebook" v="https://www.facebook.com/foxpostzrt"/>
    <tag k="import" v="osm_poi_matchmaker"/>
    <tag k="name" v="Foxpost"/>
    <tag k="opening_hours" v="Mo-Sa 09:00-20:00; Su 10:00-19:00"/>
    <tag k="operator" v="FoxPost Zrt."/>
    <tag k="payment:cash" v="no"/>
    <tag k="payment:debit_cards" v="yes"/>
    <tag k="phone" v="+36 1 999 03 69"/>
    <tag k="source" v="website"/>
    <tag k="source:date" v="2018-07-10"/>
    <tag k="vending" v="parcel_pickup;parcel_mail_in"/>
    <tag k="website" v="https://www.foxpost.hu"/>
    <tag k="youtube" v="https://www.youtube.com/channel/UC3zt91sNKPimgA32Nmcu97w"/>
  </node>
  <!-- Original coordinates: POINT (47.539586 21.58066) -->
  <!-- Original tags: None -->
  <node action="modify" changeset="99999" id="-28" lat="47.539586" lon="21.58066" timestamp="" uid="4579407" user="KAMI" version="99999">
    <tag k="addr:city" v="Debrecen"/>
    <tag k="addr:housenumber" v="7"/>
    <tag k="addr:postcode" v="4031"/>
    <tag k="addr:street" v="Kishatár út"/>
    <tag k="amenity" v="vending_machine"/>
    <tag k="branch" v="Auchan Debrecen"/>
    <tag k="brand" v="Foxpost"/>
    <tag k="email" v="info@foxpost.hu"/>
    <tag k="facebook" v="https://www.facebook.com/foxpostzrt"/>
    <tag k="import" v="osm_poi_matchmaker"/>
    <tag k="name" v="Foxpost"/>
    <tag k="opening_hours" v="Su 08:00-20:00"/>
    <tag k="operator" v="FoxPost Zrt."/>
    <tag k="payment:cash" v="no"/>
    <tag k="payment:debit_cards" v="yes"/>
    <tag k="phone" v="+36 1 999 03 69"/>
    <tag k="source" v="website"/>
    <tag k="source:date" v="2018-07-10"/>
    <tag k="vending" v="parcel_pickup;parcel_mail_in"/>
    <tag k="website" v="https://www.foxpost.hu"/>
    <tag k="youtube" v="https://www.youtube.com/channel/UC3zt91sNKPimgA32Nmcu97w"/>
  </node>
  <!-- Original coordinates: POINT (47.620192 19.164593) -->
  <!-- Original tags: None -->
  <node action="modify" changeset="99999" id="-29" lat="47.620192" lon="19.164593" timestamp="" uid="4579407" user="KAMI" version="99999">
    <tag k="addr:city" v="Dunakeszi"/>
    <tag k="addr:housenumber" v="120"/>
    <tag k="addr:postcode" v="2120"/>
    <tag k="addr:street" v="Fóti út"/>
    <tag k="amenity" v="vending_machine"/>
    <tag k="branch" v="Tesco Dunakeszi-Fót"/>
    <tag k="brand" v="Foxpost"/>
    <tag k="email" v="info@foxpost.hu"/>
    <tag k="facebook" v="https://www.facebook.com/foxpostzrt"/>
    <tag k="import" v="osm_poi_matchmaker"/>
    <tag k="name" v="Foxpost"/>
    <tag k="opening_hours" v="Mo-Sa 06:00-22:00; Su 07:00-20:00"/>
    <tag k="operator" v="FoxPost Zrt."/>
    <tag k="payment:cash" v="no"/>
    <tag k="payment:debit_cards" v="yes"/>
    <tag k="phone" v="+36 1 999 03 69"/>
    <tag k="source" v="website"/>
    <tag k="source:date" v="2018-07-10"/>
    <tag k="vending" v="parcel_pickup;parcel_mail_in"/>
    <tag k="website" v="https://www.foxpost.hu"/>
    <tag k="youtube" v="https://www.youtube.com/channel/UC3zt91sNKPimgA32Nmcu97w"/>
  </node>
  <!-- Original coordinates: POINT (47.60628 19.111972) -->
  <!-- Original tags: None -->
  <node action="modify" changeset="99999" id="-30" lat="47.60628" lon="19.111972" timestamp="" uid="4579407" user="KAMI" version="99999">
    <tag k="addr:city" v="Dunakeszi"/>
    <tag k="addr:housenumber" v="6"/>
    <tag k="addr:postcode" v="2120"/>
    <tag k="addr:street" v="Nádas utca"/>
    <tag k="amenity" v="vending_machine"/>
    <tag k="branch" v="Auchan Dunakeszi"/>
    <tag k="brand" v="Foxpost"/>
    <tag k="email" v="info@foxpost.hu"/>
    <tag k="facebook" v="https://www.facebook.com/foxpostzrt"/>
    <tag k="import" v="osm_poi_matchmaker"/>
    <tag k="name" v="Foxpost"/>
    <tag k="opening_hours" v="Su 08:00-20:00"/>
    <tag k="operator" v="FoxPost Zrt."/>
    <tag k="payment:cash" v="no"/>
    <tag k="payment:debit_cards" v="yes"/>
    <tag k="phone" v="+36 1 999 03 69"/>
    <tag k="source" v="website"/>
    <tag k="source:date" v="2018-07-10"/>
    <tag k="vending" v="parcel_pickup;parcel_mail_in"/>
    <tag k="website" v="https://www.foxpost.hu"/>
    <tag k="youtube" v="https://www.youtube.com/channel/UC3zt91sNKPimgA32Nmcu97w"/>
  </node>
  <!-- Original coordinates: POINT (46.965569 18.915727) -->
  <!-- Original tags: None -->
  <node action="modify" changeset="99999" id="-31" lat="46.965569" lon="18.915727" timestamp="" uid="4579407" user="KAMI" version="99999">
    <tag k="addr:city" v="Dunaújváros"/>
    <tag k="addr:housenumber" v="1"/>
    <tag k="addr:postcode" v="2400"/>
    <tag k="addr:street" v="Béke körút"/>
    <tag k="amenity" v="vending_machine"/>
    <tag k="branch" v="Interspar Dunaújváros"/>
    <tag k="brand" v="Foxpost"/>
    <tag k="email" v="info@foxpost.hu"/>
    <tag k="facebook" v="https://www.facebook.com/foxpostzrt"/>
    <tag k="import" v="osm_poi_matchmaker"/>
    <tag k="name" v="Foxpost"/>
    <tag k="opening_hours" v="Mo-Sa 06:00-22:00; Su 08:00-19:00"/>
    <tag k="operator" v="FoxPost Zrt."/>
    <tag k="payment:cash" v="no"/>
    <tag k="payment:debit_cards" v="yes"/>
    <tag k="phone" v="+36 1 999 03 69"/>
    <tag k="source" v="website"/>
    <tag k="source:date" v="2018-07-10"/>
    <tag k="vending" v="parcel_pickup;parcel_mail_in"/>
    <tag k="website" v="https://www.foxpost.hu"/>
    <tag k="youtube" v="https://www.youtube.com/channel/UC3zt91sNKPimgA32Nmcu97w"/>
  </node>
  <!-- Original coordinates: POINT (47.90021 20.368172) -->
  <!-- Original tags: None -->
  <node action="modify" changeset="99999" id="-32" lat="47.90021" lon="20.368172" timestamp="" uid="4579407" user="KAMI" version="99999">
    <tag k="addr:city" v="Eger"/>
    <tag k="addr:housenumber" v="4"/>
    <tag k="addr:postcode" v="3300"/>
    <tag k="addr:street" v="Törvényház utca"/>
    <tag k="amenity" v="vending_machine"/>
    <tag k="branch" v="Agria Park"/>
    <tag k="brand" v="Foxpost"/>
    <tag k="email" v="info@foxpost.hu"/>
    <tag k="facebook" v="https://www.facebook.com/foxpostzrt"/>
    <tag k="import" v="osm_poi_matchmaker"/>
    <tag k="name" v="Foxpost"/>
    <tag k="opening_hours" v="Mo-Su 06:00-22:00"/>
    <tag k="operator" v="FoxPost Zrt."/>
    <tag k="payment:cash" v="no"/>
    <tag k="payment:debit_cards" v="yes"/>
    <tag k="phone" v="+36 1 999 03 69"/>
    <tag k="source" v="website"/>
    <tag k="source:date" v="2018-07-10"/>
    <tag k="vending" v="parcel_pickup;parcel_mail_in"/>
    <tag k="website" v="https://www.foxpost.hu"/>
    <tag k="youtube" v="https://www.youtube.com/channel/UC3zt91sNKPimgA32Nmcu97w"/>
  </node>
  <!-- Original coordinates: POINT (47.769095 19.912092) -->
  <!-- Original tags: None -->
  <node action="modify" changeset="99999" id="-33" lat="47.769095" lon="19.912092" timestamp="" uid="4579407" user="KAMI" version="99999">
    <tag k="addr:city" v="Gyöngyös"/>
    <tag k="addr:housenumber" v="2"/>
    <tag k="addr:postcode" v="3200"/>
    <tag k="addr:street" v="Vásár utca"/>
    <tag k="amenity" v="vending_machine"/>
    <tag k="branch" v="Tesco Gyöngyös"/>
    <tag k="brand" v="Foxpost"/>
    <tag k="email" v="info@foxpost.hu"/>
    <tag k="facebook" v="https://www.facebook.com/foxpostzrt"/>
    <tag k="import" v="osm_poi_matchmaker"/>
    <tag k="name" v="Foxpost"/>
    <tag k="opening_hours" v="Mo-Sa 06:00-22:00; Su 07:00-20:00"/>
    <tag k="operator" v="FoxPost Zrt."/>
    <tag k="payment:cash" v="no"/>
    <tag k="payment:debit_cards" v="yes"/>
    <tag k="phone" v="+36 1 999 03 69"/>
    <tag k="source" v="website"/>
    <tag k="source:date" v="2018-07-10"/>
    <tag k="vending" v="parcel_pickup;parcel_mail_in"/>
    <tag k="website" v="https://www.foxpost.hu"/>
    <tag k="youtube" v="https://www.youtube.com/channel/UC3zt91sNKPimgA32Nmcu97w"/>
  </node>
  <!-- Original coordinates: POINT (47.690024 17.64365) -->
  <!-- Original tags: None -->
  <node action="modify" changeset="99999" id="-34" lat="47.690024" lon="17.64365" timestamp="" uid="4579407" user="KAMI" version="99999">
    <tag k="addr:city" v="Győr"/>
    <tag k="addr:housenumber" v="1"/>
    <tag k="addr:postcode" v="9022"/>
    <tag k="addr:street" v="Budai út"/>
    <tag k="amenity" v="vending_machine"/>
    <tag k="branch" v="Árkád Győr"/>
    <tag k="brand" v="Foxpost"/>
    <tag k="email" v="info@foxpost.hu"/>
    <tag k="facebook" v="https://www.facebook.com/foxpostzrt"/>
    <tag k="import" v="osm_poi_matchmaker"/>
    <tag k="name" v="Foxpost"/>
    <tag k="opening_hours" v="Mo-Fr 08:00-21:00; Sa 07:00-21:00; Su 08:00-19:00"/>
    <tag k="operator" v="FoxPost Zrt."/>
    <tag k="payment:cash" v="no"/>
    <tag k="payment:debit_cards" v="yes"/>
    <tag k="phone" v="+36 1 999 03 69"/>
    <tag k="source" v="website"/>
    <tag k="source:date" v="2018-07-10"/>
    <tag k="vending" v="parcel_pickup;parcel_mail_in"/>
    <tag k="website" v="https://www.foxpost.hu"/>
    <tag k="youtube" v="https://www.youtube.com/channel/UC3zt91sNKPimgA32Nmcu97w"/>
  </node>
  <!-- Original coordinates: POINT (47.642146 17.61893) -->
  <!-- Original tags: None -->
  <node action="modify" changeset="99999" id="-35" lat="47.642146" lon="17.61893" timestamp="" uid="4579407" user="KAMI" version="99999">
    <tag k="addr:city" v="Győr"/>
    <tag k="addr:housenumber" v="33"/>
    <tag k="addr:postcode" v="9012"/>
    <tag k="addr:street" v="Királyszék út"/>
    <tag k="amenity" v="vending_machine"/>
    <tag k="branch" v="Tesco Győr"/>
    <tag k="brand" v="Foxpost"/>
    <tag k="email" v="info@foxpost.hu"/>
    <tag k="facebook" v="https://www.facebook.com/foxpostzrt"/>
    <tag k="import" v="osm_poi_matchmaker"/>
    <tag k="name" v="Foxpost"/>
    <tag k="opening_hours" v="Mo-Su 00:00-24:00"/>
    <tag k="operator" v="FoxPost Zrt."/>
    <tag k="payment:cash" v="no"/>
    <tag k="payment:debit_cards" v="yes"/>
    <tag k="phone" v="+36 1 999 03 69"/>
    <tag k="source" v="website"/>
    <tag k="source:date" v="2018-07-10"/>
    <tag k="vending" v="parcel_pickup;parcel_mail_in"/>
    <tag k="website" v="https://www.foxpost.hu"/>
    <tag k="youtube" v="https://www.youtube.com/channel/UC3zt91sNKPimgA32Nmcu97w"/>
  </node>
  <!-- Original coordinates: POINT (47.663306 17.632359) -->
  <!-- Original tags: None -->
  <node action="modify" changeset="99999" id="-36" lat="47.663306" lon="17.632359" timestamp="" uid="4579407" user="KAMI" version="99999">
    <tag k="addr:city" v="Győr"/>
    <tag k="addr:postcode" v="9024"/>
    <tag k="addr:street" v="Mécs László utca"/>
    <tag k="amenity" v="vending_machine"/>
    <tag k="branch" v="Tesco Mini Győr"/>
    <tag k="brand" v="Foxpost"/>
    <tag k="email" v="info@foxpost.hu"/>
    <tag k="facebook" v="https://www.facebook.com/foxpostzrt"/>
    <tag k="import" v="osm_poi_matchmaker"/>
    <tag k="name" v="Foxpost"/>
    <tag k="opening_hours" v="Mo-Sa 06:00-22:00; Su 07:00-18:00"/>
    <tag k="operator" v="FoxPost Zrt."/>
    <tag k="payment:cash" v="no"/>
    <tag k="payment:debit_cards" v="yes"/>
    <tag k="phone" v="+36 1 999 03 69"/>
    <tag k="source" v="website"/>
    <tag k="source:date" v="2018-07-10"/>
    <tag k="vending" v="parcel_pickup;parcel_mail_in"/>
    <tag k="website" v="https://www.foxpost.hu"/>
    <tag k="youtube" v="https://www.youtube.com/channel/UC3zt91sNKPimgA32Nmcu97w"/>
  </node>
  <!-- Original coordinates: POINT (47.610602 19.336154) -->
  <!-- Original tags: None -->
  <node action="modify" changeset="99999" id="-37" lat="47.610602" lon="19.336154" timestamp="" uid="4579407" user="KAMI" version="99999">
    <tag k="addr:city" v="Gödöllő"/>
    <tag k="addr:postcode" v="2100"/>
    <tag k="addr:street" v="Thegze Lajos utca"/>
    <tag k="amenity" v="vending_machine"/>
    <tag k="branch" v="Tesco Gödöllő"/>
    <tag k="brand" v="Foxpost"/>
    <tag k="email" v="info@foxpost.hu"/>
    <tag k="facebook" v="https://www.facebook.com/foxpostzrt"/>
    <tag k="import" v="osm_poi_matchmaker"/>
    <tag k="name" v="Foxpost"/>
    <tag k="opening_hours" v="Mo-Sa 05:00-22:00; Su 07:00-20:00"/>
    <tag k="operator" v="FoxPost Zrt."/>
    <tag k="payment:cash" v="no"/>
    <tag k="payment:debit_cards" v="yes"/>
    <tag k="phone" v="+36 1 999 03 69"/>
    <tag k="source" v="website"/>
    <tag k="source:date" v="2018-07-10"/>
    <tag k="vending" v="parcel_pickup;parcel_mail_in"/>
    <tag k="website" v="https://www.foxpost.hu"/>
    <tag k="youtube" v="https://www.youtube.com/channel/UC3zt91sNKPimgA32Nmcu97w"/>
  </node>
  <!-- Original coordinates: POINT (46.410408 20.323247) -->
  <!-- Original tags: None -->
  <node action="modify" changeset="99999" id="-38" lat="46.410408" lon="20.323247" timestamp="" uid="4579407" user="KAMI" version="99999">
    <tag k="addr:city" v="Hódmezővásárhely"/>
    <tag k="addr:housenumber" v="20"/>
    <tag k="addr:postcode" v="6800"/>
    <tag k="addr:street" v="Kaszap utca"/>
    <tag k="amenity" v="vending_machine"/>
    <tag k="branch" v="Interspar Hódmezővásárhely"/>
    <tag k="brand" v="Foxpost"/>
    <tag k="email" v="info@foxpost.hu"/>
    <tag k="facebook" v="https://www.facebook.com/foxpostzrt"/>
    <tag k="import" v="osm_poi_matchmaker"/>
    <tag k="name" v="Foxpost"/>
    <tag k="opening_hours" v="Mo-Sa 06:00-22:00; Su 08:00-19:00"/>
    <tag k="operator" v="FoxPost Zrt."/>
    <tag k="payment:cash" v="no"/>
    <tag k="payment:debit_cards" v="yes"/>
    <tag k="phone" v="+36 1 999 03 69"/>
    <tag k="source" v="website"/>
    <tag k="source:date" v="2018-07-10"/>
    <tag k="vending" v="parcel_pickup;parcel_mail_in"/>
    <tag k="website" v="https://www.foxpost.hu"/>
    <tag k="youtube" v="https://www.youtube.com/channel/UC3zt91sNKPimgA32Nmcu97w"/>
  </node>
  <!-- Original coordinates: POINT (46.358487 17.78409) -->
  <!-- Original tags: None -->
  <node action="modify" changeset="99999" id="-39" lat="46.358487" lon="17.78409" timestamp="" uid="4579407" user="KAMI" version="99999">
    <tag k="addr:city" v="Kaposvár"/>
    <tag k="addr:housenumber" v="13"/>
    <tag k="addr:postcode" v="7400"/>
    <tag k="addr:street" v="Berzsenyi utca"/>
    <tag k="amenity" v="vending_machine"/>
    <tag k="branch" v="Tesco Kaposvár"/>
    <tag k="brand" v="Foxpost"/>
    <tag k="email" v="info@foxpost.hu"/>
    <tag k="facebook" v="https://www.facebook.com/foxpostzrt"/>
    <tag k="import" v="osm_poi_matchmaker"/>
    <tag k="name" v="Foxpost"/>
    <tag k="opening_hours" v="Mo-Su 00:00-24:00"/>
    <tag k="operator" v="FoxPost Zrt."/>
    <tag k="payment:cash" v="no"/>
    <tag k="payment:debit_cards" v="yes"/>
    <tag k="phone" v="+36 1 999 03 69"/>
    <tag k="source" v="website"/>
    <tag k="source:date" v="2018-07-10"/>
    <tag k="vending" v="parcel_pickup;parcel_mail_in"/>
    <tag k="website" v="https://www.foxpost.hu"/>
    <tag k="youtube" v="https://www.youtube.com/channel/UC3zt91sNKPimgA32Nmcu97w"/>
  </node>
  <!-- Original coordinates: POINT (46.887605 19.636894) -->
  <!-- Original tags: None -->
  <node action="modify" changeset="99999" id="-40" lat="46.887605" lon="19.636894" timestamp="" uid="4579407" user="KAMI" version="99999">
    <tag k="addr:city" v="Kecskemét"/>
    <tag k="addr:housenumber" v="2"/>
    <tag k="addr:postcode" v="6000"/>
    <tag k="addr:street" v="Dunaföldvár út"/>
    <tag k="amenity" v="vending_machine"/>
    <tag k="branch" v="Auchan  Kecskemét"/>
    <tag k="brand" v="Foxpost"/>
    <tag k="email" v="info@foxpost.hu"/>
    <tag k="facebook" v="https://www.facebook.com/foxpostzrt"/>
    <tag k="import" v="osm_poi_matchmaker"/>
    <tag k="name" v="Foxpost"/>
    <tag k="opening_hours" v="Su 07:00-21:00"/>
    <tag k="operator" v="FoxPost Zrt."/>
    <tag k="payment:cash" v="no"/>
    <tag k="payment:debit_cards" v="yes"/>
    <tag k="phone" v="+36 1 999 03 69"/>
    <tag k="source" v="website"/>
    <tag k="source:date" v="2018-07-10"/>
    <tag k="vending" v="parcel_pickup;parcel_mail_in"/>
    <tag k="website" v="https://www.foxpost.hu"/>
    <tag k="youtube" v="https://www.youtube.com/channel/UC3zt91sNKPimgA32Nmcu97w"/>
  </node>
  <!-- Original coordinates: POINT (46.907408 19.689162) -->
  <!-- Original tags: None -->
  <node action="modify" changeset="99999" id="-41" lat="46.907408" lon="19.689162" timestamp="" uid="4579407" user="KAMI" version="99999">
    <tag k="addr:city" v="Kecskemét"/>
    <tag k="addr:housenumber" v="2"/>
    <tag k="addr:postcode" v="6000"/>
    <tag k="addr:street" v="Korona utca"/>
    <tag k="amenity" v="vending_machine"/>
    <tag k="branch" v="Malom Kecskemét"/>
    <tag k="brand" v="Foxpost"/>
    <tag k="email" v="info@foxpost.hu"/>
    <tag k="facebook" v="https://www.facebook.com/foxpostzrt"/>
    <tag k="import" v="osm_poi_matchmaker"/>
    <tag k="name" v="Foxpost"/>
    <tag k="opening_hours" v="Mo,Tu,We,Fr,Sa 07:00-22:00; Th 07:02-20:00; Su 08:00-22:00"/>
    <tag k="operator" v="FoxPost Zrt."/>
    <tag k="payment:cash" v="no"/>
    <tag k="payment:debit_cards" v="yes"/>
    <tag k="phone" v="+36 1 999 03 69"/>
    <tag k="source" v="website"/>
    <tag k="source:date" v="2018-07-10"/>
    <tag k="vending" v="parcel_pickup;parcel_mail_in"/>
    <tag k="website" v="https://www.foxpost.hu"/>
    <tag k="youtube" v="https://www.youtube.com/channel/UC3zt91sNKPimgA32Nmcu97w"/>
  </node>
  <!-- Original coordinates: POINT (47.459106 19.334796) -->
  <!-- Original tags: None -->
  <node action="modify" changeset="99999" id="-42" lat="47.459106" lon="19.334796" timestamp="" uid="4579407" user="KAMI" version="99999">
    <tag k="addr:city" v="Maglód"/>
    <tag k="addr:housenumber" v="1"/>
    <tag k="addr:postcode" v="2234"/>
    <tag k="addr:street" v="Eszterházy János utca"/>
    <tag k="amenity" v="vending_machine"/>
    <tag k="branch" v="Auchan Maglód"/>
    <tag k="brand" v="Foxpost"/>
    <tag k="email" v="info@foxpost.hu"/>
    <tag k="facebook" v="https://www.facebook.com/foxpostzrt"/>
    <tag k="import" v="osm_poi_matchmaker"/>
    <tag k="name" v="Foxpost"/>
    <tag k="opening_hours" v="Su 08:00-20:00"/>
    <tag k="operator" v="FoxPost Zrt."/>
    <tag k="payment:cash" v="no"/>
    <tag k="payment:debit_cards" v="yes"/>
    <tag k="phone" v="+36 1 999 03 69"/>
    <tag k="source" v="website"/>
    <tag k="source:date" v="2018-07-10"/>
    <tag k="vending" v="parcel_pickup;parcel_mail_in"/>
    <tag k="website" v="https://www.foxpost.hu"/>
    <tag k="youtube" v="https://www.youtube.com/channel/UC3zt91sNKPimgA32Nmcu97w"/>
  </node>
  <!-- Original coordinates: POINT (48.102658 20.790475) -->
  <!-- Original tags: None -->
  <node action="modify" changeset="99999" id="-43" lat="48.102658" lon="20.790475" timestamp="" uid="4579407" user="KAMI" version="99999">
    <tag k="addr:city" v="Miskolc"/>
    <tag k="addr:housenumber" v="2-4"/>
    <tag k="addr:postcode" v="3530"/>
    <tag k="addr:street" v="Bajcsy-Zsilinszky utca"/>
    <tag k="amenity" v="vending_machine"/>
    <tag k="branch" v="Miskolc Szinva Park"/>
    <tag k="brand" v="Foxpost"/>
    <tag k="email" v="info@foxpost.hu"/>
    <tag k="facebook" v="https://www.facebook.com/foxpostzrt"/>
    <tag k="import" v="osm_poi_matchmaker"/>
    <tag k="name" v="Foxpost"/>
    <tag k="opening_hours" v="Mo-Fr 06:00-24:00; Sa 06:00-01:00; Su 08:00-23:00"/>
    <tag k="operator" v="FoxPost Zrt."/>
    <tag k="payment:cash" v="no"/>
    <tag k="payment:debit_cards" v="yes"/>
    <tag k="phone" v="+36 1 999 03 69"/>
    <tag k="source" v="website"/>
    <tag k="source:date" v="2018-07-10"/>
    <tag k="vending" v="parcel_pickup;parcel_mail_in"/>
    <tag k="website" v="https://www.foxpost.hu"/>
    <tag k="youtube" v="https://www.youtube.com/channel/UC3zt91sNKPimgA32Nmcu97w"/>
  </node>
  <!-- Original coordinates: POINT (48.104634 20.788826) -->
  <!-- Original tags: None -->
  <node action="modify" changeset="99999" id="-44" lat="48.104634" lon="20.788826" timestamp="" uid="4579407" user="KAMI" version="99999">
    <tag k="addr:city" v="Miskolc"/>
    <tag k="addr:housenumber" v="2-6"/>
    <tag k="addr:postcode" v="3525"/>
    <tag k="addr:street" v="Szentpáli utca"/>
    <tag k="amenity" v="vending_machine"/>
    <tag k="branch" v="Miskolc Pláza"/>
    <tag k="brand" v="Foxpost"/>
    <tag k="email" v="info@foxpost.hu"/>
    <tag k="facebook" v="https://www.facebook.com/foxpostzrt"/>
    <tag k="import" v="osm_poi_matchmaker"/>
    <tag k="name" v="Foxpost"/>
    <tag k="opening_hours" v="Mo-Th 08:00-22:00; Fr-Sa 08:00-23:00; Su 09:00-22:00"/>
    <tag k="operator" v="FoxPost Zrt."/>
    <tag k="payment:cash" v="no"/>
    <tag k="payment:debit_cards" v="yes"/>
    <tag k="phone" v="+36 1 999 03 69"/>
    <tag k="source" v="website"/>
    <tag k="source:date" v="2018-07-10"/>
    <tag k="vending" v="parcel_pickup;parcel_mail_in"/>
    <tag k="website" v="https://www.foxpost.hu"/>
    <tag k="youtube" v="https://www.youtube.com/channel/UC3zt91sNKPimgA32Nmcu97w"/>
  </node>
  <!-- Original coordinates: POINT (46.453216 17.010201) -->
  <!-- Original tags: None -->
  <node action="modify" changeset="99999" id="-45" lat="46.453216" lon="17.010201" timestamp="" uid="4579407" user="KAMI" version="99999">
    <tag k="addr:city" v="Nagykanizsa"/>
    <tag k="addr:housenumber" v="4"/>
    <tag k="addr:postcode" v="8800"/>
    <tag k="addr:street" v="Táborhely utca"/>
    <tag k="amenity" v="vending_machine"/>
    <tag k="branch" v="Interspar Nagykanizsa"/>
    <tag k="brand" v="Foxpost"/>
    <tag k="email" v="info@foxpost.hu"/>
    <tag k="facebook" v="https://www.facebook.com/foxpostzrt"/>
    <tag k="import" v="osm_poi_matchmaker"/>
    <tag k="name" v="Foxpost"/>
    <tag k="opening_hours" v="Mo-Sa 06:00-22:00; Su 08:00-19:00"/>
    <tag k="operator" v="FoxPost Zrt."/>
    <tag k="payment:cash" v="no"/>
    <tag k="payment:debit_cards" v="yes"/>
    <tag k="phone" v="+36 1 999 03 69"/>
    <tag k="source" v="website"/>
    <tag k="source:date" v="2018-07-10"/>
    <tag k="vending" v="parcel_pickup;parcel_mail_in"/>
    <tag k="website" v="https://www.foxpost.hu"/>
    <tag k="youtube" v="https://www.youtube.com/channel/UC3zt91sNKPimgA32Nmcu97w"/>
  </node>
  <!-- Original coordinates: POINT (47.969359 21.73648) -->
  <!-- Original tags: None -->
  <node action="modify" changeset="99999" id="-46" lat="47.969359" lon="21.73648" timestamp="" uid="4579407" user="KAMI" version="99999">
    <tag k="addr:city" v="Nyíregyháza"/>
    <tag k="addr:housenumber" v="36"/>
    <tag k="addr:postcode" v="4400"/>
    <tag k="addr:street" v="Pazonyi út"/>
    <tag k="amenity" v="vending_machine"/>
    <tag k="branch" v="Tesco Nyíregyháza"/>
    <tag k="brand" v="Foxpost"/>
    <tag k="email" v="info@foxpost.hu"/>
    <tag k="facebook" v="https://www.facebook.com/foxpostzrt"/>
    <tag k="import" v="osm_poi_matchmaker"/>
    <tag k="name" v="Foxpost"/>
    <tag k="opening_hours" v="Mo-Sa 06:00-22:00; Su 07:00-20:00"/>
    <tag k="operator" v="FoxPost Zrt."/>
    <tag k="payment:cash" v="no"/>
    <tag k="payment:debit_cards" v="yes"/>
    <tag k="phone" v="+36 1 999 03 69"/>
    <tag k="source" v="website"/>
    <tag k="source:date" v="2018-07-10"/>
    <tag k="vending" v="parcel_pickup;parcel_mail_in"/>
    <tag k="website" v="https://www.foxpost.hu"/>
    <tag k="youtube" v="https://www.youtube.com/channel/UC3zt91sNKPimgA32Nmcu97w"/>
  </node>
  <!-- Original coordinates: POINT (47.958411 21.717807) -->
  <!-- Original tags: None -->
  <node action="modify" changeset="99999" id="-47" lat="47.958411" lon="21.717807" timestamp="" uid="4579407" user="KAMI" version="99999">
    <tag k="addr:city" v="Nyíregyháza"/>
    <tag k="addr:housenumber" v="1"/>
    <tag k="addr:postcode" v="4400"/>
    <tag k="addr:street" v="Nagy Imre tér"/>
    <tag k="amenity" v="vending_machine"/>
    <tag k="branch" v="Korzó Nyíregyháza"/>
    <tag k="brand" v="Foxpost"/>
    <tag k="email" v="info@foxpost.hu"/>
    <tag k="facebook" v="https://www.facebook.com/foxpostzrt"/>
    <tag k="import" v="osm_poi_matchmaker"/>
    <tag k="name" v="Foxpost"/>
    <tag k="opening_hours" v="Mo-Sa 06:30-20:00; Su 08:00-18:00"/>
    <tag k="operator" v="FoxPost Zrt."/>
    <tag k="payment:cash" v="no"/>
    <tag k="payment:debit_cards" v="yes"/>
    <tag k="phone" v="+36 1 999 03 69"/>
    <tag k="source" v="website"/>
    <tag k="source:date" v="2018-07-10"/>
    <tag k="vending" v="parcel_pickup;parcel_mail_in"/>
    <tag k="website" v="https://www.foxpost.hu"/>
    <tag k="youtube" v="https://www.youtube.com/channel/UC3zt91sNKPimgA32Nmcu97w"/>
  </node>
  <!-- Original coordinates: POINT (47.329142 17.458317) -->
  <!-- Original tags: None -->
  <node action="modify" changeset="99999" id="-48" lat="47.329142" lon="17.458317" timestamp="" uid="4579407" user="KAMI" version="99999">
    <tag k="addr:city" v="Pápa"/>
    <tag k="addr:housenumber" v="21"/>
    <tag k="addr:postcode" v="8500"/>
    <tag k="addr:street" v="Celli út"/>
    <tag k="amenity" v="vending_machine"/>
    <tag k="branch" v="Interspar Pápa"/>
    <tag k="brand" v="Foxpost"/>
    <tag k="email" v="info@foxpost.hu"/>
    <tag k="facebook" v="https://www.facebook.com/foxpostzrt"/>
    <tag k="import" v="osm_poi_matchmaker"/>
    <tag k="name" v="Foxpost"/>
    <tag k="opening_hours" v="Mo-Sa 06:00-22:00; Su 08:00-19:00"/>
    <tag k="operator" v="FoxPost Zrt."/>
    <tag k="payment:cash" v="no"/>
    <tag k="payment:debit_cards" v="yes"/>
    <tag k="phone" v="+36 1 999 03 69"/>
    <tag k="source" v="website"/>
    <tag k="source:date" v="2018-07-10"/>
    <tag k="vending" v="parcel_pickup;parcel_mail_in"/>
    <tag k="website" v="https://www.foxpost.hu"/>
    <tag k="youtube" v="https://www.youtube.com/channel/UC3zt91sNKPimgA32Nmcu97w"/>
  </node>
  <!-- Original coordinates: POINT (46.071864 18.22995) -->
  <!-- Original tags: None -->
  <node action="modify" changeset="99999" id="-49" lat="46.071864" lon="18.22995" timestamp="" uid="4579407" user="KAMI" version="99999">
    <tag k="addr:city" v="Pécs"/>
    <tag k="addr:housenumber" v="11"/>
    <tag k="addr:postcode" v="7622"/>
    <tag k="addr:street" v="Bajcsy Zsilinkszy utca"/>
    <tag k="amenity" v="vending_machine"/>
    <tag k="branch" v="Árkád Pécs"/>
    <tag k="brand" v="Foxpost"/>
    <tag k="email" v="info@foxpost.hu"/>
    <tag k="facebook" v="https://www.facebook.com/foxpostzrt"/>
    <tag k="import" v="osm_poi_matchmaker"/>
    <tag k="name" v="Foxpost"/>
    <tag k="opening_hours" v="Mo-Sa 07:00-21:00; Su 08:00-19:00"/>
    <tag k="operator" v="FoxPost Zrt."/>
    <tag k="payment:cash" v="no"/>
    <tag k="payment:debit_cards" v="yes"/>
    <tag k="phone" v="+36 1 999 03 69"/>
    <tag k="source" v="website"/>
    <tag k="source:date" v="2018-07-10"/>
    <tag k="vending" v="parcel_pickup;parcel_mail_in"/>
    <tag k="website" v="https://www.foxpost.hu"/>
    <tag k="youtube" v="https://www.youtube.com/channel/UC3zt91sNKPimgA32Nmcu97w"/>
  </node>
  <!-- Original coordinates: POINT (46.063535 18.184419) -->
  <!-- Original tags: None -->
  <node action="modify" changeset="99999" id="-50" lat="46.063535" lon="18.184419" timestamp="" uid="4579407" user="KAMI" version="99999">
    <tag k="addr:city" v="Pécs"/>
    <tag k="addr:housenumber" v="5"/>
    <tag k="addr:postcode" v="7634"/>
    <tag k="addr:street" v="Makay István út"/>
    <tag k="amenity" v="vending_machine"/>
    <tag k="branch" v="Tesco Pécs"/>
    <tag k="brand" v="Foxpost"/>
    <tag k="email" v="info@foxpost.hu"/>
    <tag k="facebook" v="https://www.facebook.com/foxpostzrt"/>
    <tag k="import" v="osm_poi_matchmaker"/>
    <tag k="name" v="Foxpost"/>
    <tag k="opening_hours" v="Mo-Sa 06:00-22:00; Su 07:00-20:00"/>
    <tag k="operator" v="FoxPost Zrt."/>
    <tag k="payment:cash" v="no"/>
    <tag k="payment:debit_cards" v="yes"/>
    <tag k="phone" v="+36 1 999 03 69"/>
    <tag k="source" v="website"/>
    <tag k="source:date" v="2018-07-10"/>
    <tag k="vending" v="parcel_pickup;parcel_mail_in"/>
    <tag k="website" v="https://www.foxpost.hu"/>
    <tag k="youtube" v="https://www.youtube.com/channel/UC3zt91sNKPimgA32Nmcu97w"/>
  </node>
  <!-- Original coordinates: POINT (47.598046 18.956152) -->
  <!-- Original tags: None -->
  <node action="modify" changeset="99999" id="-51" lat="47.598046" lon="18.956152" timestamp="" uid="4579407" user="KAMI" version="99999">
    <tag k="addr:city" v="Solymár"/>
    <tag k="addr:housenumber" v="2-4"/>
    <tag k="addr:postcode" v="2083"/>
    <tag k="addr:street" v="Szent Flórian utca"/>
    <tag k="amenity" v="vending_machine"/>
    <tag k="branch" v="Auchan Solymár"/>
    <tag k="brand" v="Foxpost"/>
    <tag k="email" v="info@foxpost.hu"/>
    <tag k="facebook" v="https://www.facebook.com/foxpostzrt"/>
    <tag k="import" v="osm_poi_matchmaker"/>
    <tag k="name" v="Foxpost"/>
    <tag k="opening_hours" v="Su 08:00-20:00"/>
    <tag k="operator" v="FoxPost Zrt."/>
    <tag k="payment:cash" v="no"/>
    <tag k="payment:debit_cards" v="yes"/>
    <tag k="phone" v="+36 1 999 03 69"/>
    <tag k="source" v="website"/>
    <tag k="source:date" v="2018-07-10"/>
    <tag k="vending" v="parcel_pickup;parcel_mail_in"/>
    <tag k="website" v="https://www.foxpost.hu"/>
    <tag k="youtube" v="https://www.youtube.com/channel/UC3zt91sNKPimgA32Nmcu97w"/>
  </node>
  <!-- Original coordinates: POINT (47.689585 16.581764) -->
  <!-- Original tags: None -->
  <node action="modify" changeset="99999" id="-52" lat="47.689585" lon="16.581764" timestamp="" uid="4579407" user="KAMI" version="99999">
    <tag k="addr:city" v="Sopron"/>
    <tag k="addr:housenumber" v="15-17"/>
    <tag k="addr:postcode" v="9400"/>
    <tag k="addr:street" v="Selmeczi utca"/>
    <tag k="amenity" v="vending_machine"/>
    <tag k="branch" v="Interspar Sopron"/>
    <tag k="brand" v="Foxpost"/>
    <tag k="email" v="info@foxpost.hu"/>
    <tag k="facebook" v="https://www.facebook.com/foxpostzrt"/>
    <tag k="import" v="osm_poi_matchmaker"/>
    <tag k="name" v="Foxpost"/>
    <tag k="opening_hours" v="Mo-Sa 06:00-22:00; Su 08:00-19:00"/>
    <tag k="operator" v="FoxPost Zrt."/>
    <tag k="payment:cash" v="no"/>
    <tag k="payment:debit_cards" v="yes"/>
    <tag k="phone" v="+36 1 999 03 69"/>
    <tag k="source" v="website"/>
    <tag k="source:date" v="2018-07-10"/>
    <tag k="vending" v="parcel_pickup;parcel_mail_in"/>
    <tag k="website" v="https://www.foxpost.hu"/>
    <tag k="youtube" v="https://www.youtube.com/channel/UC3zt91sNKPimgA32Nmcu97w"/>
  </node>
  <!-- Original coordinates: POINT (46.254536 20.139382) -->
  <!-- Original tags: None -->
  <node action="modify" changeset="99999" id="-53" lat="46.254536" lon="20.139382" timestamp="" uid="4579407" user="KAMI" version="99999">
    <tag k="addr:city" v="Szeged"/>
    <tag k="addr:housenumber" v="3"/>
    <tag k="addr:postcode" v="6724"/>
    <tag k="addr:street" v="Londoni krt"/>
    <tag k="amenity" v="vending_machine"/>
    <tag k="branch" v="Árkád Szeged"/>
    <tag k="brand" v="Foxpost"/>
    <tag k="email" v="info@foxpost.hu"/>
    <tag k="facebook" v="https://www.facebook.com/foxpostzrt"/>
    <tag k="import" v="osm_poi_matchmaker"/>
    <tag k="name" v="Foxpost"/>
    <tag k="opening_hours" v="Mo-Sa 06:45-22:00; Su 07:45-19:30"/>
    <tag k="operator" v="FoxPost Zrt."/>
    <tag k="payment:cash" v="no"/>
    <tag k="payment:debit_cards" v="yes"/>
    <tag k="phone" v="+36 1 999 03 69"/>
    <tag k="source" v="website"/>
    <tag k="source:date" v="2018-07-10"/>
    <tag k="vending" v="parcel_pickup;parcel_mail_in"/>
    <tag k="website" v="https://www.foxpost.hu"/>
    <tag k="youtube" v="https://www.youtube.com/channel/UC3zt91sNKPimgA32Nmcu97w"/>
  </node>
  <!-- Original coordinates: POINT (46.26786 20.138875) -->
  <!-- Original tags: None -->
  <node action="modify" changeset="99999" id="-54" lat="46.26786" lon="20.138875" timestamp="" uid="4579407" user="KAMI" version="99999">
    <tag k="addr:city" v="Szeged"/>
    <tag k="addr:housenumber" v="42"/>
    <tag k="addr:postcode" v="6724"/>
    <tag k="addr:street" v="Rókusi körút"/>
    <tag k="amenity" v="vending_machine"/>
    <tag k="branch" v="Tesco Szeged"/>
    <tag k="brand" v="Foxpost"/>
    <tag k="email" v="info@foxpost.hu"/>
    <tag k="facebook" v="https://www.facebook.com/foxpostzrt"/>
    <tag k="import" v="osm_poi_matchmaker"/>
    <tag k="name" v="Foxpost"/>
    <tag k="opening_hours" v="Mo-Su 00:00-24:00"/>
    <tag k="operator" v="FoxPost Zrt."/>
    <tag k="payment:cash" v="no"/>
    <tag k="payment:debit_cards" v="yes"/>
    <tag k="phone" v="+36 1 999 03 69"/>
    <tag k="source" v="website"/>
    <tag k="source:date" v="2018-07-10"/>
    <tag k="vending" v="parcel_pickup;parcel_mail_in"/>
    <tag k="website" v="https://www.foxpost.hu"/>
    <tag k="youtube" v="https://www.youtube.com/channel/UC3zt91sNKPimgA32Nmcu97w"/>
  </node>
  <!-- Original coordinates: POINT (47.382471 19.027133) -->
  <!-- Original tags: None -->
  <node action="modify" changeset="99999" id="-55" lat="47.382471" lon="19.027133" timestamp="" uid="4579407" user="KAMI" version="99999">
    <tag k="addr:city" v="Szigetszentmiklós"/>
    <tag k="addr:postcode" v="2310"/>
    <tag k="amenity" v="vending_machine"/>
    <tag k="branch" v="Auchan Szigetszentmiklós"/>
    <tag k="brand" v="Foxpost"/>
    <tag k="email" v="info@foxpost.hu"/>
    <tag k="facebook" v="https://www.facebook.com/foxpostzrt"/>
    <tag k="import" v="osm_poi_matchmaker"/>
    <tag k="name" v="Foxpost"/>
    <tag k="opening_hours" v="Su 08:00-20:00"/>
    <tag k="operator" v="FoxPost Zrt."/>
    <tag k="payment:cash" v="no"/>
    <tag k="payment:debit_cards" v="yes"/>
    <tag k="phone" v="+36 1 999 03 69"/>
    <tag k="source" v="website"/>
    <tag k="source:date" v="2018-07-10"/>
    <tag k="vending" v="parcel_pickup;parcel_mail_in"/>
    <tag k="website" v="https://www.foxpost.hu"/>
    <tag k="youtube" v="https://www.youtube.com/channel/UC3zt91sNKPimgA32Nmcu97w"/>
  </node>
  <!-- Original coordinates: POINT (47.179986 20.180624) -->
  <!-- Original tags: None -->
  <node action="modify" changeset="99999" id="-56" lat="47.179986" lon="20.180624" timestamp="" uid="4579407" user="KAMI" version="99999">
    <tag k="addr:city" v="Szolnok"/>
    <tag k="addr:housenumber" v="29"/>
    <tag k="addr:postcode" v="5000"/>
    <tag k="addr:street" v="Mátyás Király út"/>
    <tag k="amenity" v="vending_machine"/>
    <tag k="branch" v="Interspar Szolnok"/>
    <tag k="brand" v="Foxpost"/>
    <tag k="email" v="info@foxpost.hu"/>
    <tag k="facebook" v="https://www.facebook.com/foxpostzrt"/>
    <tag k="import" v="osm_poi_matchmaker"/>
    <tag k="name" v="Foxpost"/>
    <tag k="opening_hours" v="Mo-Sa 06:00-22:00; Su 09:00-18:00"/>
    <tag k="operator" v="FoxPost Zrt."/>
    <tag k="payment:cash" v="no"/>
    <tag k="payment:debit_cards" v="yes"/>
    <tag k="phone" v="+36 1 999 03 69"/>
    <tag k="source" v="website"/>
    <tag k="source:date" v="2018-07-10"/>
    <tag k="vending" v="parcel_pickup;parcel_mail_in"/>
    <tag k="website" v="https://www.foxpost.hu"/>
    <tag k="youtube" v="https://www.youtube.com/channel/UC3zt91sNKPimgA32Nmcu97w"/>
  </node>
  <!-- Original coordinates: POINT (47.177486 20.19187) -->
  <!-- Original tags: None -->
  <node action="modify" changeset="99999" id="-57" lat="47.177486" lon="20.19187" timestamp="" uid="4579407" user="KAMI" version="99999">
    <tag k="addr:city" v="Szolnok"/>
    <tag k="addr:housenumber" v="28"/>
    <tag k="addr:postcode" v="5000"/>
    <tag k="addr:street" v="Ady Endre út"/>
    <tag k="amenity" v="vending_machine"/>
    <tag k="branch" v="Szolnok Pláza"/>
    <tag k="brand" v="Foxpost"/>
    <tag k="email" v="info@foxpost.hu"/>
    <tag k="facebook" v="https://www.facebook.com/foxpostzrt"/>
    <tag k="import" v="osm_poi_matchmaker"/>
    <tag k="name" v="Foxpost"/>
    <tag k="opening_hours" v="Mo-Su 07:00-21:00"/>
    <tag k="operator" v="FoxPost Zrt."/>
    <tag k="payment:cash" v="no"/>
    <tag k="payment:debit_cards" v="yes"/>
    <tag k="phone" v="+36 1 999 03 69"/>
    <tag k="source" v="website"/>
    <tag k="source:date" v="2018-07-10"/>
    <tag k="vending" v="parcel_pickup;parcel_mail_in"/>
    <tag k="website" v="https://www.foxpost.hu"/>
    <tag k="youtube" v="https://www.youtube.com/channel/UC3zt91sNKPimgA32Nmcu97w"/>
  </node>
  <!-- Original coordinates: POINT (47.214363 16.619643) -->
  <!-- Original tags: None -->
  <node action="modify" changeset="99999" id="-58" lat="47.214363" lon="16.619643" timestamp="" uid="4579407" user="KAMI" version="99999">
    <tag k="addr:city" v="Szombathely"/>
    <tag k="addr:postcode" v="9700"/>
    <tag k="addr:street" v="Újvilág utca"/>
    <tag k="amenity" v="vending_machine"/>
    <tag k="branch" v="Interspar Szombathely"/>
    <tag k="brand" v="Foxpost"/>
    <tag k="email" v="info@foxpost.hu"/>
    <tag k="facebook" v="https://www.facebook.com/foxpostzrt"/>
    <tag k="import" v="osm_poi_matchmaker"/>
    <tag k="name" v="Foxpost"/>
    <tag k="opening_hours" v="Mo-Sa 06:00-22:00; Su 08:00-19:00"/>
    <tag k="operator" v="FoxPost Zrt."/>
    <tag k="payment:cash" v="no"/>
    <tag k="payment:debit_cards" v="yes"/>
    <tag k="phone" v="+36 1 999 03 69"/>
    <tag k="source" v="website"/>
    <tag k="source:date" v="2018-07-10"/>
    <tag k="vending" v="parcel_pickup;parcel_mail_in"/>
    <tag k="website" v="https://www.foxpost.hu"/>
    <tag k="youtube" v="https://www.youtube.com/channel/UC3zt91sNKPimgA32Nmcu97w"/>
  </node>
  <!-- Original coordinates: POINT (47.239469 16.650487) -->
  <!-- Original tags: None -->
  <node action="modify" changeset="99999" id="-59" lat="47.239469" lon="16.650487" timestamp="" uid="4579407" user="KAMI" version="99999">
    <tag k="addr:city" v="Szombathely"/>
    <tag k="addr:housenumber" v="70"/>
    <tag k="addr:postcode" v="9700"/>
    <tag k="addr:street" v="Külső Zanati út"/>
    <tag k="amenity" v="vending_machine"/>
    <tag k="branch" v="Tesco Szombathely"/>
    <tag k="brand" v="Foxpost"/>
    <tag k="email" v="info@foxpost.hu"/>
    <tag k="facebook" v="https://www.facebook.com/foxpostzrt"/>
    <tag k="import" v="osm_poi_matchmaker"/>
    <tag k="name" v="Foxpost"/>
    <tag k="opening_hours" v="Mo-Sa 06:00-22:00; Su 07:00-20:00"/>
    <tag k="operator" v="FoxPost Zrt."/>
    <tag k="payment:cash" v="no"/>
    <tag k="payment:debit_cards" v="yes"/>
    <tag k="phone" v="+36 1 999 03 69"/>
    <tag k="source" v="website"/>
    <tag k="source:date" v="2018-07-10"/>
    <tag k="vending" v="parcel_pickup;parcel_mail_in"/>
    <tag k="website" v="https://www.foxpost.hu"/>
    <tag k="youtube" v="https://www.youtube.com/channel/UC3zt91sNKPimgA32Nmcu97w"/>
  </node>
  <!-- Original coordinates: POINT (47.149124 18.431934) -->
  <!-- Original tags: None -->
  <node action="modify" changeset="99999" id="-60" lat="47.149124" lon="18.431934" timestamp="" uid="4579407" user="KAMI" version="99999">
    <tag k="addr:city" v="Székesfehérvár"/>
    <tag k="addr:housenumber" v="2"/>
    <tag k="addr:postcode" v="8000"/>
    <tag k="addr:street" v="Holland fasor"/>
    <tag k="amenity" v="vending_machine"/>
    <tag k="branch" v="Auchan Székesfehérvár"/>
    <tag k="brand" v="Foxpost"/>
    <tag k="email" v="info@foxpost.hu"/>
    <tag k="facebook" v="https://www.facebook.com/foxpostzrt"/>
    <tag k="import" v="osm_poi_matchmaker"/>
    <tag k="name" v="Foxpost"/>
    <tag k="opening_hours" v="Su 08:00-20:00"/>
    <tag k="operator" v="FoxPost Zrt."/>
    <tag k="payment:cash" v="no"/>
    <tag k="payment:debit_cards" v="yes"/>
    <tag k="phone" v="+36 1 999 03 69"/>
    <tag k="source" v="website"/>
    <tag k="source:date" v="2018-07-10"/>
    <tag k="vending" v="parcel_pickup;parcel_mail_in"/>
    <tag k="website" v="https://www.foxpost.hu"/>
    <tag k="youtube" v="https://www.youtube.com/channel/UC3zt91sNKPimgA32Nmcu97w"/>
  </node>
  <!-- Original coordinates: POINT (47.191766 18.424269) -->
  <!-- Original tags: None -->
  <node action="modify" changeset="99999" id="-61" lat="47.191766" lon="18.424269" timestamp="" uid="4579407" user="KAMI" version="99999">
    <tag k="addr:city" v="Székesfehérvár"/>
    <tag k="addr:housenumber" v="41"/>
    <tag k="addr:postcode" v="8000"/>
    <tag k="addr:street" v="Budai út"/>
    <tag k="amenity" v="vending_machine"/>
    <tag k="branch" v="Interspar Fehérvár (Budai út)"/>
    <tag k="brand" v="Foxpost"/>
    <tag k="email" v="info@foxpost.hu"/>
    <tag k="facebook" v="https://www.facebook.com/foxpostzrt"/>
    <tag k="import" v="osm_poi_matchmaker"/>
    <tag k="name" v="Foxpost"/>
    <tag k="opening_hours" v="Mo-Sa 06:00-22:00; Su 08:00-19:00"/>
    <tag k="operator" v="FoxPost Zrt."/>
    <tag k="payment:cash" v="no"/>
    <tag k="payment:debit_cards" v="yes"/>
    <tag k="phone" v="+36 1 999 03 69"/>
    <tag k="source" v="website"/>
    <tag k="source:date" v="2018-07-10"/>
    <tag k="vending" v="parcel_pickup;parcel_mail_in"/>
    <tag k="website" v="https://www.foxpost.hu"/>
    <tag k="youtube" v="https://www.youtube.com/channel/UC3zt91sNKPimgA32Nmcu97w"/>
  </node>
  <!-- Original coordinates: POINT (47.19027 18.404477) -->
  <!-- Original tags: None -->
  <node action="modify" changeset="99999" id="-62" lat="47.19027" lon="18.404477" timestamp="" uid="4579407" user="KAMI" version="99999">
    <tag k="addr:city" v="Székesfehérvár"/>
    <tag k="addr:housenumber" v="6"/>
    <tag k="addr:postcode" v="8000"/>
    <tag k="addr:street" v="Palotai út"/>
    <tag k="amenity" v="vending_machine"/>
    <tag k="branch" v="TESCO Fehér Palota"/>
    <tag k="brand" v="Foxpost"/>
    <tag k="email" v="info@foxpost.hu"/>
    <tag k="facebook" v="https://www.facebook.com/foxpostzrt"/>
    <tag k="import" v="osm_poi_matchmaker"/>
    <tag k="name" v="Foxpost"/>
    <tag k="opening_hours" v="Mo-Sa 06:00-22:00; Su 07:00-20:00"/>
    <tag k="operator" v="FoxPost Zrt."/>
    <tag k="payment:cash" v="no"/>
    <tag k="payment:debit_cards" v="yes"/>
    <tag k="phone" v="+36 1 999 03 69"/>
    <tag k="source" v="website"/>
    <tag k="source:date" v="2018-07-10"/>
    <tag k="vending" v="parcel_pickup;parcel_mail_in"/>
    <tag k="website" v="https://www.foxpost.hu"/>
    <tag k="youtube" v="https://www.youtube.com/channel/UC3zt91sNKPimgA32Nmcu97w"/>
  </node>
  <!-- Original coordinates: POINT (47.591265 18.388274) -->
  <!-- Original tags: None -->
  <node action="modify" changeset="99999" id="-63" lat="47.591265" lon="18.388274" timestamp="" uid="4579407" user="KAMI" version="99999">
    <tag k="addr:city" v="Tatabánya"/>
    <tag k="addr:housenumber" v="25"/>
    <tag k="addr:postcode" v="2800"/>
    <tag k="addr:street" v="Győri út"/>
    <tag k="amenity" v="vending_machine"/>
    <tag k="branch" v="Interspar Tatabánya"/>
    <tag k="brand" v="Foxpost"/>
    <tag k="email" v="info@foxpost.hu"/>
    <tag k="facebook" v="https://www.facebook.com/foxpostzrt"/>
    <tag k="import" v="osm_poi_matchmaker"/>
    <tag k="name" v="Foxpost"/>
    <tag k="opening_hours" v="Mo-Sa 06:00-22:00; Su 09:00-18:00"/>
    <tag k="operator" v="FoxPost Zrt."/>
    <tag k="payment:cash" v="no"/>
    <tag k="payment:debit_cards" v="yes"/>
    <tag k="phone" v="+36 1 999 03 69"/>
    <tag k="source" v="website"/>
    <tag k="source:date" v="2018-07-10"/>
    <tag k="vending" v="parcel_pickup;parcel_mail_in"/>
    <tag k="website" v="https://www.foxpost.hu"/>
    <tag k="youtube" v="https://www.youtube.com/channel/UC3zt91sNKPimgA32Nmcu97w"/>
  </node>
  <!-- Original coordinates: POINT (47.41754 19.253031) -->
  <!-- Original tags: None -->
  <node action="modify" changeset="99999" id="-64" lat="47.41754" lon="19.253031" timestamp="" uid="4579407" user="KAMI" version="99999">
    <tag k="addr:city" v="Vecsés"/>
    <tag k="addr:housenumber" v="246"/>
    <tag k="addr:postcode" v="2220"/>
    <tag k="addr:street" v="Fő út"/>
    <tag k="amenity" v="vending_machine"/>
    <tag k="branch" v="Tesco Vecsés"/>
    <tag k="brand" v="Foxpost"/>
    <tag k="email" v="info@foxpost.hu"/>
    <tag k="facebook" v="https://www.facebook.com/foxpostzrt"/>
    <tag k="import" v="osm_poi_matchmaker"/>
    <tag k="name" v="Foxpost"/>
    <tag k="opening_hours" v="Mo-Su 05:00-22:00"/>
    <tag k="operator" v="FoxPost Zrt."/>
    <tag k="payment:cash" v="no"/>
    <tag k="payment:debit_cards" v="yes"/>
    <tag k="phone" v="+36 1 999 03 69"/>
    <tag k="source" v="website"/>
    <tag k="source:date" v="2018-07-10"/>
    <tag k="vending" v="parcel_pickup;parcel_mail_in"/>
    <tag k="website" v="https://www.foxpost.hu"/>
    <tag k="youtube" v="https://www.youtube.com/channel/UC3zt91sNKPimgA32Nmcu97w"/>
  </node>
  <!-- Original coordinates: POINT (47.083288 17.924022) -->
  <!-- Original tags: None -->
  <node action="modify" changeset="99999" id="-65" lat="47.083288" lon="17.924022" timestamp="" uid="4579407" user="KAMI" version="99999">
    <tag k="addr:city" v="Veszprém"/>
    <tag k="addr:housenumber" v="4"/>
    <tag k="addr:postcode" v="8200"/>
    <tag k="addr:street" v="Dornyai Béla utca"/>
    <tag k="amenity" v="vending_machine"/>
    <tag k="branch" v="Interspar Veszprém"/>
    <tag k="brand" v="Foxpost"/>
    <tag k="email" v="info@foxpost.hu"/>
    <tag k="facebook" v="https://www.facebook.com/foxpostzrt"/>
    <tag k="import" v="osm_poi_matchmaker"/>
    <tag k="name" v="Foxpost"/>
    <tag k="opening_hours" v="Mo-Sa 06:00-22:00; Su 08:00-19:00"/>
    <tag k="operator" v="FoxPost Zrt."/>
    <tag k="payment:cash" v="no"/>
    <tag k="payment:debit_cards" v="yes"/>
    <tag k="phone" v="+36 1 999 03 69"/>
    <tag k="source" v="website"/>
    <tag k="source:date" v="2018-07-10"/>
    <tag k="vending" v="parcel_pickup;parcel_mail_in"/>
    <tag k="website" v="https://www.foxpost.hu"/>
    <tag k="youtube" v="https://www.youtube.com/channel/UC3zt91sNKPimgA32Nmcu97w"/>
  </node>
  <!-- Original coordinates: POINT (46.844261 16.858915) -->
  <!-- Original tags: None -->
  <node action="modify" changeset="99999" id="-66" lat="46.844261" lon="16.858915" timestamp="" uid="4579407" user="KAMI" version="99999">
    <tag k="addr:city" v="Zalaegerszeg"/>
    <tag k="addr:housenumber" v="1"/>
    <tag k="addr:postcode" v="8900"/>
    <tag k="addr:street" v="Sport utca"/>
    <tag k="amenity" v="vending_machine"/>
    <tag k="branch" v="Tesco Zalaegerszeg"/>
    <tag k="brand" v="Foxpost"/>
    <tag k="email" v="info@foxpost.hu"/>
    <tag k="facebook" v="https://www.facebook.com/foxpostzrt"/>
    <tag k="import" v="osm_poi_matchmaker"/>
    <tag k="name" v="Foxpost"/>
    <tag k="opening_hours" v="Mo-Sa 06:00-22:00; Su 07:00-20:00"/>
    <tag k="operator" v="FoxPost Zrt."/>
    <tag k="payment:cash" v="no"/>
    <tag k="payment:debit_cards" v="yes"/>
    <tag k="phone" v="+36 1 999 03 69"/>
    <tag k="source" v="website"/>
    <tag k="source:date" v="2018-07-10"/>
    <tag k="vending" v="parcel_pickup;parcel_mail_in"/>
    <tag k="website" v="https://www.foxpost.hu"/>
    <tag k="youtube" v="https://www.youtube.com/channel/UC3zt91sNKPimgA32Nmcu97w"/>
  </node>
  <!-- Original coordinates: POINT (47.37619 18.934488) -->
  <!-- Original tags: None -->
  <node action="modify" changeset="99999" id="-67" lat="47.37619" lon="18.934488" timestamp="" uid="4579407" user="KAMI" version="99999">
    <tag k="addr:city" v="Érd"/>
    <tag k="addr:housenumber" v="2"/>
    <tag k="addr:postcode" v="2030"/>
    <tag k="addr:street" v="Budafoki út"/>
    <tag k="amenity" v="vending_machine"/>
    <tag k="branch" v="Tesco Érd"/>
    <tag k="brand" v="Foxpost"/>
    <tag k="email" v="info@foxpost.hu"/>
    <tag k="facebook" v="https://www.facebook.com/foxpostzrt"/>
    <tag k="import" v="osm_poi_matchmaker"/>
    <tag k="name" v="Foxpost"/>
    <tag k="opening_hours" v="Mo-Sa 06:00-22:00; Su 07:00-22:00"/>
    <tag k="operator" v="FoxPost Zrt."/>
    <tag k="payment:cash" v="no"/>
    <tag k="payment:debit_cards" v="yes"/>
    <tag k="phone" v="+36 1 999 03 69"/>
    <tag k="source" v="website"/>
    <tag k="source:date" v="2018-07-10"/>
    <tag k="vending" v="parcel_pickup;parcel_mail_in"/>
    <tag k="website" v="https://www.foxpost.hu"/>
    <tag k="youtube" v="https://www.youtube.com/channel/UC3zt91sNKPimgA32Nmcu97w"/>
  </node>
</osm>
