<?xml version='1.0' encoding='UTF-8'?>
<osm generator="JOSM" version="0.6">
  <!-- Original coordinates: POINT (47.498495 19.091882) -->
  <!-- OSM <-> POI distance: None m-->
  <!-- Original tags:  -->
  <node action="modify" changeset="99999" id="-1" lat="47.498495" lon="19.091882" timestamp="" uid="4579407" user="KAMI" version="99999">
    <tag k="addr:city" v="Budapest"/>
    <tag k="addr:country" v="HU"/>
    <tag k="addr:housenumber" v="9"/>
    <tag k="addr:postcode" v="1087"/>
    <tag k="addr:street" v="Kerepesi út"/>
    <tag k="amenity" v="vending_machine"/>
    <tag k="branch" v="Aréna Plaza"/>
    <tag k="brand" v="Magyar Posta"/>
    <tag k="brand:wikidata" v="Q145614"/>
    <tag k="brand:wikipedia" v="hu:Magyar Posta Zrt."/>
    <tag k="email" v="ugyfelszolgalat@posta.hu"/>
    <tag k="facebook" v="https://www.facebook.com/MagyarPosta"/>
    <tag k="import" v="osm_poi_matchmaker"/>
    <tag k="instagram" v="https://www.instagram.com/magyar_posta_zrt"/>
    <tag k="name" v="Posta csekkautomata"/>
    <tag k="operator" v="Magyar Posta Zrt."/>
    <tag k="payment:cash" v="yes"/>
    <tag k="payment:debit_cards" v="yes"/>
    <tag k="phone" v="+3617678200"/>
    <tag k="ref:vatin:hu" v="10901232-2-44"/>
    <tag k="source" v="website"/>
    <tag k="source:date" v="2018-07-17"/>
    <tag k="vending" v="cheques"/>
    <tag k="website" v="https://www.posta.hu"/>
    <tag k="youtube" v="https://www.youtube.com/user/magyarpostaofficial"/>
  </node>
  <!-- Original coordinates: POINT (47.612538 19.060951) -->
  <!-- OSM <-> POI distance: None m-->
  <!-- Original tags:  -->
  <node action="modify" changeset="99999" id="-2" lat="47.612538" lon="19.060951" timestamp="" uid="4579407" user="KAMI" version="99999">
    <tag k="addr:city" v="Budakalász"/>
    <tag k="addr:country" v="HU"/>
    <tag k="addr:housenumber" v="1"/>
    <tag k="addr:postcode" v="2011"/>
    <tag k="addr:street" v="Omszk park"/>
    <tag k="amenity" v="vending_machine"/>
    <tag k="branch" v="Budakalász Auchan"/>
    <tag k="brand" v="Magyar Posta"/>
    <tag k="brand:wikidata" v="Q145614"/>
    <tag k="brand:wikipedia" v="hu:Magyar Posta Zrt."/>
    <tag k="email" v="ugyfelszolgalat@posta.hu"/>
    <tag k="facebook" v="https://www.facebook.com/MagyarPosta"/>
    <tag k="import" v="osm_poi_matchmaker"/>
    <tag k="instagram" v="https://www.instagram.com/magyar_posta_zrt"/>
    <tag k="name" v="Posta csekkautomata"/>
    <tag k="operator" v="Magyar Posta Zrt."/>
    <tag k="payment:cash" v="yes"/>
    <tag k="payment:debit_cards" v="yes"/>
    <tag k="phone" v="+3617678200"/>
    <tag k="ref:vatin:hu" v="10901232-2-44"/>
    <tag k="source" v="website"/>
    <tag k="source:date" v="2018-07-17"/>
    <tag k="vending" v="cheques"/>
    <tag k="website" v="https://www.posta.hu"/>
    <tag k="youtube" v="https://www.youtube.com/user/magyarpostaofficial"/>
  </node>
  <!-- Original coordinates: POINT (47.453969 19.142005) -->
  <!-- OSM <-> POI distance: None m-->
  <!-- Original tags:  -->
  <node action="modify" changeset="99999" id="-3" lat="47.453969" lon="19.142005" timestamp="" uid="4579407" user="KAMI" version="99999">
    <tag k="addr:city" v="Budapest"/>
    <tag k="addr:country" v="HU"/>
    <tag k="addr:housenumber" v="22"/>
    <tag k="addr:postcode" v="1196"/>
    <tag k="addr:street" v="Templom tér"/>
    <tag k="amenity" v="vending_machine"/>
    <tag k="branch" v="Budapest - Kispest 1 posta"/>
    <tag k="brand" v="Magyar Posta"/>
    <tag k="brand:wikidata" v="Q145614"/>
    <tag k="brand:wikipedia" v="hu:Magyar Posta Zrt."/>
    <tag k="email" v="ugyfelszolgalat@posta.hu"/>
    <tag k="facebook" v="https://www.facebook.com/MagyarPosta"/>
    <tag k="import" v="osm_poi_matchmaker"/>
    <tag k="instagram" v="https://www.instagram.com/magyar_posta_zrt"/>
    <tag k="name" v="Posta csekkautomata"/>
    <tag k="operator" v="Magyar Posta Zrt."/>
    <tag k="payment:cash" v="yes"/>
    <tag k="payment:debit_cards" v="yes"/>
    <tag k="phone" v="+3617678200"/>
    <tag k="ref:vatin:hu" v="10901232-2-44"/>
    <tag k="source" v="website"/>
    <tag k="source:date" v="2018-07-17"/>
    <tag k="vending" v="cheques"/>
    <tag k="website" v="https://www.posta.hu"/>
    <tag k="youtube" v="https://www.youtube.com/user/magyarpostaofficial"/>
  </node>
  <!-- Original coordinates: POINT (47.475956 19.046819) -->
  <!-- OSM <-> POI distance: None m-->
  <!-- Original tags:  -->
  <node action="modify" changeset="99999" id="-4" lat="47.475956" lon="19.046819" timestamp="" uid="4579407" user="KAMI" version="99999">
    <tag k="addr:city" v="Budapest"/>
    <tag k="addr:country" v="HU"/>
    <tag k="addr:housenumber" v="9-11"/>
    <tag k="addr:postcode" v="1114"/>
    <tag k="addr:street" v="Fehérvári út"/>
    <tag k="amenity" v="vending_machine"/>
    <tag k="branch" v="Budapest 112 posta"/>
    <tag k="brand" v="Magyar Posta"/>
    <tag k="brand:wikidata" v="Q145614"/>
    <tag k="brand:wikipedia" v="hu:Magyar Posta Zrt."/>
    <tag k="email" v="ugyfelszolgalat@posta.hu"/>
    <tag k="facebook" v="https://www.facebook.com/MagyarPosta"/>
    <tag k="import" v="osm_poi_matchmaker"/>
    <tag k="instagram" v="https://www.instagram.com/magyar_posta_zrt"/>
    <tag k="name" v="Posta csekkautomata"/>
    <tag k="operator" v="Magyar Posta Zrt."/>
    <tag k="payment:cash" v="yes"/>
    <tag k="payment:debit_cards" v="yes"/>
    <tag k="phone" v="+3617678200"/>
    <tag k="ref:vatin:hu" v="10901232-2-44"/>
    <tag k="source" v="website"/>
    <tag k="source:date" v="2018-07-17"/>
    <tag k="vending" v="cheques"/>
    <tag k="website" v="https://www.posta.hu"/>
    <tag k="youtube" v="https://www.youtube.com/user/magyarpostaofficial"/>
  </node>
  <!-- Original coordinates: POINT (47.5086441 19.0272386) -->
  <!-- OSM <-> POI distance: None m-->
  <!-- Original tags:  -->
  <node action="modify" changeset="99999" id="-5" lat="47.5086441" lon="19.0272386" timestamp="" uid="4579407" user="KAMI" version="99999">
    <tag k="addr:city" v="Budapest"/>
    <tag k="addr:country" v="HU"/>
    <tag k="addr:housenumber" v="2-6"/>
    <tag k="addr:postcode" v="1024"/>
    <tag k="addr:street" v="Lövőház utca"/>
    <tag k="amenity" v="vending_machine"/>
    <tag k="branch" v="Budapest 114-es posta (Mammut Bevásárlóközpont)"/>
    <tag k="brand" v="Magyar Posta"/>
    <tag k="brand:wikidata" v="Q145614"/>
    <tag k="brand:wikipedia" v="hu:Magyar Posta Zrt."/>
    <tag k="email" v="ugyfelszolgalat@posta.hu"/>
    <tag k="facebook" v="https://www.facebook.com/MagyarPosta"/>
    <tag k="import" v="osm_poi_matchmaker"/>
    <tag k="instagram" v="https://www.instagram.com/magyar_posta_zrt"/>
    <tag k="name" v="Posta csekkautomata"/>
    <tag k="operator" v="Magyar Posta Zrt."/>
    <tag k="payment:cash" v="yes"/>
    <tag k="payment:debit_cards" v="yes"/>
    <tag k="phone" v="+3617678200"/>
    <tag k="ref:vatin:hu" v="10901232-2-44"/>
    <tag k="source" v="website"/>
    <tag k="source:date" v="2018-07-17"/>
    <tag k="vending" v="cheques"/>
    <tag k="website" v="https://www.posta.hu"/>
    <tag k="youtube" v="https://www.youtube.com/user/magyarpostaofficial"/>
  </node>
  <!-- Original coordinates: POINT (47.54899 19.072889) -->
  <!-- OSM <-> POI distance: None m-->
  <!-- Original tags:  -->
  <node action="modify" changeset="99999" id="-6" lat="47.54899" lon="19.072889" timestamp="" uid="4579407" user="KAMI" version="99999">
    <tag k="addr:city" v="Budapest"/>
    <tag k="addr:country" v="HU"/>
    <tag k="addr:housenumber" v="178"/>
    <tag k="addr:postcode" v="1138"/>
    <tag k="addr:street" v="Váci út"/>
    <tag k="amenity" v="vending_machine"/>
    <tag k="branch" v="Budapest 131-es posta (Duna Pláza Bevásárlóközpont)"/>
    <tag k="brand" v="Magyar Posta"/>
    <tag k="brand:wikidata" v="Q145614"/>
    <tag k="brand:wikipedia" v="hu:Magyar Posta Zrt."/>
    <tag k="email" v="ugyfelszolgalat@posta.hu"/>
    <tag k="facebook" v="https://www.facebook.com/MagyarPosta"/>
    <tag k="import" v="osm_poi_matchmaker"/>
    <tag k="instagram" v="https://www.instagram.com/magyar_posta_zrt"/>
    <tag k="name" v="Posta csekkautomata"/>
    <tag k="operator" v="Magyar Posta Zrt."/>
    <tag k="payment:cash" v="yes"/>
    <tag k="payment:debit_cards" v="yes"/>
    <tag k="phone" v="+3617678200"/>
    <tag k="ref:vatin:hu" v="10901232-2-44"/>
    <tag k="source" v="website"/>
    <tag k="source:date" v="2018-07-17"/>
    <tag k="vending" v="cheques"/>
    <tag k="website" v="https://www.posta.hu"/>
    <tag k="youtube" v="https://www.youtube.com/user/magyarpostaofficial"/>
  </node>
  <!-- Original coordinates: POINT (47.509692 19.058814) -->
  <!-- OSM <-> POI distance: None m-->
  <!-- Original tags:  -->
  <node action="modify" changeset="99999" id="-7" lat="47.509692" lon="19.058814" timestamp="" uid="4579407" user="KAMI" version="99999">
    <tag k="addr:city" v="Budapest"/>
    <tag k="addr:country" v="HU"/>
    <tag k="addr:housenumber" v="51"/>
    <tag k="addr:postcode" v="1062"/>
    <tag k="addr:street" v="Teréz körút"/>
    <tag k="amenity" v="vending_machine"/>
    <tag k="branch" v="Budapest 62-es posta (Nyugati pályaudvar mellett)"/>
    <tag k="brand" v="Magyar Posta"/>
    <tag k="brand:wikidata" v="Q145614"/>
    <tag k="brand:wikipedia" v="hu:Magyar Posta Zrt."/>
    <tag k="email" v="ugyfelszolgalat@posta.hu"/>
    <tag k="facebook" v="https://www.facebook.com/MagyarPosta"/>
    <tag k="import" v="osm_poi_matchmaker"/>
    <tag k="instagram" v="https://www.instagram.com/magyar_posta_zrt"/>
    <tag k="name" v="Posta csekkautomata"/>
    <tag k="operator" v="Magyar Posta Zrt."/>
    <tag k="payment:cash" v="yes"/>
    <tag k="payment:debit_cards" v="yes"/>
    <tag k="phone" v="+3617678200"/>
    <tag k="ref:vatin:hu" v="10901232-2-44"/>
    <tag k="source" v="website"/>
    <tag k="source:date" v="2018-07-17"/>
    <tag k="vending" v="cheques"/>
    <tag k="website" v="https://www.posta.hu"/>
    <tag k="youtube" v="https://www.youtube.com/user/magyarpostaofficial"/>
  </node>
  <!-- Original coordinates: POINT (47.406968 19.015177) -->
  <!-- OSM <-> POI distance: None m-->
  <!-- Original tags:  -->
  <node action="modify" changeset="99999" id="-8" lat="47.406968" lon="19.015177" timestamp="" uid="4579407" user="KAMI" version="99999">
    <tag k="addr:city" v="Budapest"/>
    <tag k="addr:country" v="HU"/>
    <tag k="addr:housenumber" v="37-43"/>
    <tag k="addr:postcode" v="1222"/>
    <tag k="addr:street" v="Nagytétényi út"/>
    <tag k="amenity" v="vending_machine"/>
    <tag k="branch" v="Budapest Campona Bevásárlóközpont"/>
    <tag k="brand" v="Magyar Posta"/>
    <tag k="brand:wikidata" v="Q145614"/>
    <tag k="brand:wikipedia" v="hu:Magyar Posta Zrt."/>
    <tag k="email" v="ugyfelszolgalat@posta.hu"/>
    <tag k="facebook" v="https://www.facebook.com/MagyarPosta"/>
    <tag k="import" v="osm_poi_matchmaker"/>
    <tag k="instagram" v="https://www.instagram.com/magyar_posta_zrt"/>
    <tag k="name" v="Posta csekkautomata"/>
    <tag k="operator" v="Magyar Posta Zrt."/>
    <tag k="payment:cash" v="yes"/>
    <tag k="payment:debit_cards" v="yes"/>
    <tag k="phone" v="+3617678200"/>
    <tag k="ref:vatin:hu" v="10901232-2-44"/>
    <tag k="source" v="website"/>
    <tag k="source:date" v="2018-07-17"/>
    <tag k="vending" v="cheques"/>
    <tag k="website" v="https://www.posta.hu"/>
    <tag k="youtube" v="https://www.youtube.com/user/magyarpostaofficial"/>
  </node>
  <!-- Original coordinates: POINT (47.486454 19.074433) -->
  <!-- OSM <-> POI distance: None m-->
  <!-- Original tags:  -->
  <node action="modify" changeset="99999" id="-9" lat="47.486454" lon="19.074433" timestamp="" uid="4579407" user="KAMI" version="99999">
    <tag k="addr:city" v="Budapest"/>
    <tag k="addr:country" v="HU"/>
    <tag k="addr:housenumber" v="37-45"/>
    <tag k="addr:postcode" v="1083"/>
    <tag k="addr:street" v="Futó utca"/>
    <tag k="amenity" v="vending_machine"/>
    <tag k="branch" v="Budapest Corvin Plaza"/>
    <tag k="brand" v="Magyar Posta"/>
    <tag k="brand:wikidata" v="Q145614"/>
    <tag k="brand:wikipedia" v="hu:Magyar Posta Zrt."/>
    <tag k="email" v="ugyfelszolgalat@posta.hu"/>
    <tag k="facebook" v="https://www.facebook.com/MagyarPosta"/>
    <tag k="import" v="osm_poi_matchmaker"/>
    <tag k="instagram" v="https://www.instagram.com/magyar_posta_zrt"/>
    <tag k="name" v="Posta csekkautomata"/>
    <tag k="operator" v="Magyar Posta Zrt."/>
    <tag k="payment:cash" v="yes"/>
    <tag k="payment:debit_cards" v="yes"/>
    <tag k="phone" v="+3617678200"/>
    <tag k="ref:vatin:hu" v="10901232-2-44"/>
    <tag k="source" v="website"/>
    <tag k="source:date" v="2018-07-17"/>
    <tag k="vending" v="cheques"/>
    <tag k="website" v="https://www.posta.hu"/>
    <tag k="youtube" v="https://www.youtube.com/user/magyarpostaofficial"/>
  </node>
  <!-- Original coordinates: POINT (47.462974 19.145117) -->
  <!-- OSM <-> POI distance: None m-->
  <!-- Original tags:  -->
  <node action="modify" changeset="99999" id="-10" lat="47.462974" lon="19.145117" timestamp="" uid="4579407" user="KAMI" version="99999">
    <tag k="addr:city" v="Budapest"/>
    <tag k="addr:country" v="HU"/>
    <tag k="addr:housenumber" v="75"/>
    <tag k="addr:postcode" v="1191"/>
    <tag k="addr:street" v="Vak Bottyán utca"/>
    <tag k="amenity" v="vending_machine"/>
    <tag k="branch" v="Budapest KÖKI Terminál"/>
    <tag k="brand" v="Magyar Posta"/>
    <tag k="brand:wikidata" v="Q145614"/>
    <tag k="brand:wikipedia" v="hu:Magyar Posta Zrt."/>
    <tag k="email" v="ugyfelszolgalat@posta.hu"/>
    <tag k="facebook" v="https://www.facebook.com/MagyarPosta"/>
    <tag k="import" v="osm_poi_matchmaker"/>
    <tag k="instagram" v="https://www.instagram.com/magyar_posta_zrt"/>
    <tag k="name" v="Posta csekkautomata"/>
    <tag k="operator" v="Magyar Posta Zrt."/>
    <tag k="payment:cash" v="yes"/>
    <tag k="payment:debit_cards" v="yes"/>
    <tag k="phone" v="+3617678200"/>
    <tag k="ref:vatin:hu" v="10901232-2-44"/>
    <tag k="source" v="website"/>
    <tag k="source:date" v="2018-07-17"/>
    <tag k="vending" v="cheques"/>
    <tag k="website" v="https://www.posta.hu"/>
    <tag k="youtube" v="https://www.youtube.com/user/magyarpostaofficial"/>
  </node>
  <!-- Original coordinates: POINT (47.435313 19.041512) -->
  <!-- OSM <-> POI distance: None m-->
  <!-- Original tags:  -->
  <node action="modify" changeset="99999" id="-11" lat="47.435313" lon="19.041512" timestamp="" uid="4579407" user="KAMI" version="99999">
    <tag k="addr:city" v="Budapest"/>
    <tag k="addr:country" v="HU"/>
    <tag k="addr:housenumber" v="19"/>
    <tag k="addr:postcode" v="1117"/>
    <tag k="addr:street" v="Hunyadi János út"/>
    <tag k="amenity" v="vending_machine"/>
    <tag k="branch" v="Budapest Savoya Park Bevásárlóközpont"/>
    <tag k="brand" v="Magyar Posta"/>
    <tag k="brand:wikidata" v="Q145614"/>
    <tag k="brand:wikipedia" v="hu:Magyar Posta Zrt."/>
    <tag k="email" v="ugyfelszolgalat@posta.hu"/>
    <tag k="facebook" v="https://www.facebook.com/MagyarPosta"/>
    <tag k="import" v="osm_poi_matchmaker"/>
    <tag k="instagram" v="https://www.instagram.com/magyar_posta_zrt"/>
    <tag k="name" v="Posta csekkautomata"/>
    <tag k="operator" v="Magyar Posta Zrt."/>
    <tag k="payment:cash" v="yes"/>
    <tag k="payment:debit_cards" v="yes"/>
    <tag k="phone" v="+3617678200"/>
    <tag k="ref:vatin:hu" v="10901232-2-44"/>
    <tag k="source" v="website"/>
    <tag k="source:date" v="2018-07-17"/>
    <tag k="vending" v="cheques"/>
    <tag k="website" v="https://www.posta.hu"/>
    <tag k="youtube" v="https://www.youtube.com/user/magyarpostaofficial"/>
  </node>
  <!-- Original coordinates: POINT (47.5042105 19.1372221) -->
  <!-- OSM <-> POI distance: None m-->
  <!-- Original tags:  -->
  <node action="modify" changeset="99999" id="-12" lat="47.5042105" lon="19.1372221" timestamp="" uid="4579407" user="KAMI" version="99999">
    <tag k="addr:city" v="Budapest"/>
    <tag k="addr:country" v="HU"/>
    <tag k="addr:housenumber" v="24"/>
    <tag k="addr:postcode" v="1148"/>
    <tag k="addr:street" v="Örs vezér tere"/>
    <tag k="amenity" v="vending_machine"/>
    <tag k="branch" v="Budapest Sugár (Sugár Üzletközpont)"/>
    <tag k="brand" v="Magyar Posta"/>
    <tag k="brand:wikidata" v="Q145614"/>
    <tag k="brand:wikipedia" v="hu:Magyar Posta Zrt."/>
    <tag k="email" v="ugyfelszolgalat@posta.hu"/>
    <tag k="facebook" v="https://www.facebook.com/MagyarPosta"/>
    <tag k="import" v="osm_poi_matchmaker"/>
    <tag k="instagram" v="https://www.instagram.com/magyar_posta_zrt"/>
    <tag k="name" v="Posta csekkautomata"/>
    <tag k="operator" v="Magyar Posta Zrt."/>
    <tag k="payment:cash" v="yes"/>
    <tag k="payment:debit_cards" v="yes"/>
    <tag k="phone" v="+3617678200"/>
    <tag k="ref:vatin:hu" v="10901232-2-44"/>
    <tag k="source" v="website"/>
    <tag k="source:date" v="2018-07-17"/>
    <tag k="vending" v="cheques"/>
    <tag k="website" v="https://www.posta.hu"/>
    <tag k="youtube" v="https://www.youtube.com/user/magyarpostaofficial"/>
  </node>
  <!-- Original coordinates: POINT (47.4564879 18.9478244) -->
  <!-- OSM <-> POI distance: None m-->
  <!-- Original tags:  -->
  <node action="modify" changeset="99999" id="-13" lat="47.4564879" lon="18.9478244" timestamp="" uid="4579407" user="KAMI" version="99999">
    <tag k="addr:city" v="Budaörs"/>
    <tag k="addr:country" v="HU"/>
    <tag k="addr:housenumber" v="2-4"/>
    <tag k="addr:postcode" v="2040"/>
    <tag k="addr:street" v="Sport utca"/>
    <tag k="amenity" v="vending_machine"/>
    <tag k="branch" v="Budaörs Auchan"/>
    <tag k="brand" v="Magyar Posta"/>
    <tag k="brand:wikidata" v="Q145614"/>
    <tag k="brand:wikipedia" v="hu:Magyar Posta Zrt."/>
    <tag k="email" v="ugyfelszolgalat@posta.hu"/>
    <tag k="facebook" v="https://www.facebook.com/MagyarPosta"/>
    <tag k="import" v="osm_poi_matchmaker"/>
    <tag k="instagram" v="https://www.instagram.com/magyar_posta_zrt"/>
    <tag k="name" v="Posta csekkautomata"/>
    <tag k="operator" v="Magyar Posta Zrt."/>
    <tag k="payment:cash" v="yes"/>
    <tag k="payment:debit_cards" v="yes"/>
    <tag k="phone" v="+3617678200"/>
    <tag k="ref:vatin:hu" v="10901232-2-44"/>
    <tag k="source" v="website"/>
    <tag k="source:date" v="2018-07-17"/>
    <tag k="vending" v="cheques"/>
    <tag k="website" v="https://www.posta.hu"/>
    <tag k="youtube" v="https://www.youtube.com/user/magyarpostaofficial"/>
  </node>
  <!-- Original coordinates: POINT (46.735344 21.242519) -->
  <!-- OSM <-> POI distance: None m-->
  <!-- Original tags:  -->
  <node action="modify" changeset="99999" id="-14" lat="46.735344" lon="21.242519" timestamp="" uid="4579407" user="KAMI" version="99999">
    <tag k="addr:city" v="Doboz"/>
    <tag k="addr:country" v="HU"/>
    <tag k="addr:housenumber" v="4"/>
    <tag k="addr:postcode" v="5624"/>
    <tag k="addr:street" v="Nagy utca"/>
    <tag k="amenity" v="vending_machine"/>
    <tag k="branch" v="CBA Csemege Doboz"/>
    <tag k="brand" v="Magyar Posta"/>
    <tag k="brand:wikidata" v="Q145614"/>
    <tag k="brand:wikipedia" v="hu:Magyar Posta Zrt."/>
    <tag k="email" v="ugyfelszolgalat@posta.hu"/>
    <tag k="facebook" v="https://www.facebook.com/MagyarPosta"/>
    <tag k="import" v="osm_poi_matchmaker"/>
    <tag k="instagram" v="https://www.instagram.com/magyar_posta_zrt"/>
    <tag k="name" v="Posta csekkautomata"/>
    <tag k="operator" v="Magyar Posta Zrt."/>
    <tag k="payment:cash" v="yes"/>
    <tag k="payment:debit_cards" v="yes"/>
    <tag k="phone" v="+3617678200"/>
    <tag k="ref:vatin:hu" v="10901232-2-44"/>
    <tag k="source" v="website"/>
    <tag k="source:date" v="2018-07-17"/>
    <tag k="vending" v="cheques"/>
    <tag k="website" v="https://www.posta.hu"/>
    <tag k="youtube" v="https://www.youtube.com/user/magyarpostaofficial"/>
  </node>
  <!-- Original coordinates: POINT (46.215985 19.895317) -->
  <!-- OSM <-> POI distance: None m-->
  <!-- Original tags:  -->
  <node action="modify" changeset="99999" id="-15" lat="46.215985" lon="19.895317" timestamp="" uid="4579407" user="KAMI" version="99999">
    <tag k="addr:city" v="Mórahalom"/>
    <tag k="addr:country" v="HU"/>
    <tag k="addr:housenumber" v="10/A"/>
    <tag k="addr:postcode" v="6782"/>
    <tag k="addr:street" v="István király utca"/>
    <tag k="amenity" v="vending_machine"/>
    <tag k="branch" v="CBA Áruház Mórahalom"/>
    <tag k="brand" v="Magyar Posta"/>
    <tag k="brand:wikidata" v="Q145614"/>
    <tag k="brand:wikipedia" v="hu:Magyar Posta Zrt."/>
    <tag k="email" v="ugyfelszolgalat@posta.hu"/>
    <tag k="facebook" v="https://www.facebook.com/MagyarPosta"/>
    <tag k="import" v="osm_poi_matchmaker"/>
    <tag k="instagram" v="https://www.instagram.com/magyar_posta_zrt"/>
    <tag k="name" v="Posta csekkautomata"/>
    <tag k="operator" v="Magyar Posta Zrt."/>
    <tag k="payment:cash" v="yes"/>
    <tag k="payment:debit_cards" v="yes"/>
    <tag k="phone" v="+3617678200"/>
    <tag k="ref:vatin:hu" v="10901232-2-44"/>
    <tag k="source" v="website"/>
    <tag k="source:date" v="2018-07-17"/>
    <tag k="vending" v="cheques"/>
    <tag k="website" v="https://www.posta.hu"/>
    <tag k="youtube" v="https://www.youtube.com/user/magyarpostaofficial"/>
  </node>
  <!-- Original coordinates: POINT (46.698301 19.041852) -->
  <!-- OSM <-> POI distance: None m-->
  <!-- Original tags:  -->
  <node action="modify" changeset="99999" id="-16" lat="46.698301" lon="19.041852" timestamp="" uid="4579407" user="KAMI" version="99999">
    <tag k="addr:city" v="Harta"/>
    <tag k="addr:country" v="HU"/>
    <tag k="addr:housenumber" v="86"/>
    <tag k="addr:postcode" v="6326"/>
    <tag k="addr:street" v="Kékesi út"/>
    <tag k="amenity" v="vending_machine"/>
    <tag k="branch" v="CBA Élelmiszer Harta"/>
    <tag k="brand" v="Magyar Posta"/>
    <tag k="brand:wikidata" v="Q145614"/>
    <tag k="brand:wikipedia" v="hu:Magyar Posta Zrt."/>
    <tag k="email" v="ugyfelszolgalat@posta.hu"/>
    <tag k="facebook" v="https://www.facebook.com/MagyarPosta"/>
    <tag k="import" v="osm_poi_matchmaker"/>
    <tag k="instagram" v="https://www.instagram.com/magyar_posta_zrt"/>
    <tag k="name" v="Posta csekkautomata"/>
    <tag k="operator" v="Magyar Posta Zrt."/>
    <tag k="payment:cash" v="yes"/>
    <tag k="payment:debit_cards" v="yes"/>
    <tag k="phone" v="+3617678200"/>
    <tag k="ref:vatin:hu" v="10901232-2-44"/>
    <tag k="source" v="website"/>
    <tag k="source:date" v="2018-07-17"/>
    <tag k="vending" v="cheques"/>
    <tag k="website" v="https://www.posta.hu"/>
    <tag k="youtube" v="https://www.youtube.com/user/magyarpostaofficial"/>
  </node>
  <!-- Original coordinates: POINT (47.54195 21.619389) -->
  <!-- OSM <-> POI distance: None m-->
  <!-- Original tags:  -->
  <node action="modify" changeset="99999" id="-17" lat="47.54195" lon="21.619389" timestamp="" uid="4579407" user="KAMI" version="99999">
    <tag k="addr:city" v="Debrecen"/>
    <tag k="addr:country" v="HU"/>
    <tag k="addr:housenumber" v="27"/>
    <tag k="addr:postcode" v="4027"/>
    <tag k="addr:street" v="Füredi út"/>
    <tag k="amenity" v="vending_machine"/>
    <tag k="branch" v="Debrecen Malompark Bevásárlóközpont"/>
    <tag k="brand" v="Magyar Posta"/>
    <tag k="brand:wikidata" v="Q145614"/>
    <tag k="brand:wikipedia" v="hu:Magyar Posta Zrt."/>
    <tag k="email" v="ugyfelszolgalat@posta.hu"/>
    <tag k="facebook" v="https://www.facebook.com/MagyarPosta"/>
    <tag k="import" v="osm_poi_matchmaker"/>
    <tag k="instagram" v="https://www.instagram.com/magyar_posta_zrt"/>
    <tag k="name" v="Posta csekkautomata"/>
    <tag k="operator" v="Magyar Posta Zrt."/>
    <tag k="payment:cash" v="yes"/>
    <tag k="payment:debit_cards" v="yes"/>
    <tag k="phone" v="+3617678200"/>
    <tag k="ref:vatin:hu" v="10901232-2-44"/>
    <tag k="source" v="website"/>
    <tag k="source:date" v="2018-07-17"/>
    <tag k="vending" v="cheques"/>
    <tag k="website" v="https://www.posta.hu"/>
    <tag k="youtube" v="https://www.youtube.com/user/magyarpostaofficial"/>
  </node>
  <!-- Original coordinates: POINT (47.6062797 19.1119724) -->
  <!-- OSM <-> POI distance: None m-->
  <!-- Original tags:  -->
  <node action="modify" changeset="99999" id="-18" lat="47.6062797" lon="19.1119724" timestamp="" uid="4579407" user="KAMI" version="99999">
    <tag k="addr:city" v="Dunakeszi"/>
    <tag k="addr:country" v="HU"/>
    <tag k="addr:housenumber" v="6"/>
    <tag k="addr:postcode" v="2120"/>
    <tag k="addr:street" v="Nádas utca"/>
    <tag k="amenity" v="vending_machine"/>
    <tag k="branch" v="Dunakeszi Auchan"/>
    <tag k="brand" v="Magyar Posta"/>
    <tag k="brand:wikidata" v="Q145614"/>
    <tag k="brand:wikipedia" v="hu:Magyar Posta Zrt."/>
    <tag k="email" v="ugyfelszolgalat@posta.hu"/>
    <tag k="facebook" v="https://www.facebook.com/MagyarPosta"/>
    <tag k="import" v="osm_poi_matchmaker"/>
    <tag k="instagram" v="https://www.instagram.com/magyar_posta_zrt"/>
    <tag k="name" v="Posta csekkautomata"/>
    <tag k="operator" v="Magyar Posta Zrt."/>
    <tag k="payment:cash" v="yes"/>
    <tag k="payment:debit_cards" v="yes"/>
    <tag k="phone" v="+3617678200"/>
    <tag k="ref:vatin:hu" v="10901232-2-44"/>
    <tag k="source" v="website"/>
    <tag k="source:date" v="2018-07-17"/>
    <tag k="vending" v="cheques"/>
    <tag k="website" v="https://www.posta.hu"/>
    <tag k="youtube" v="https://www.youtube.com/user/magyarpostaofficial"/>
  </node>
  <!-- Original coordinates: POINT (47.67555 17.65346) -->
  <!-- OSM <-> POI distance: None m-->
  <!-- Original tags:  -->
  <node action="modify" changeset="99999" id="-19" lat="47.67555" lon="17.65346" timestamp="" uid="4579407" user="KAMI" version="99999">
    <tag k="addr:city" v="Győr"/>
    <tag k="addr:country" v="HU"/>
    <tag k="addr:housenumber" v="27"/>
    <tag k="addr:postcode" v="9023"/>
    <tag k="addr:street" v="Földes Gábor utca"/>
    <tag k="amenity" v="vending_machine"/>
    <tag k="branch" v="Győr 4 posta"/>
    <tag k="brand" v="Magyar Posta"/>
    <tag k="brand:wikidata" v="Q145614"/>
    <tag k="brand:wikipedia" v="hu:Magyar Posta Zrt."/>
    <tag k="email" v="ugyfelszolgalat@posta.hu"/>
    <tag k="facebook" v="https://www.facebook.com/MagyarPosta"/>
    <tag k="import" v="osm_poi_matchmaker"/>
    <tag k="instagram" v="https://www.instagram.com/magyar_posta_zrt"/>
    <tag k="name" v="Posta csekkautomata"/>
    <tag k="operator" v="Magyar Posta Zrt."/>
    <tag k="payment:cash" v="yes"/>
    <tag k="payment:debit_cards" v="yes"/>
    <tag k="phone" v="+3617678200"/>
    <tag k="ref:vatin:hu" v="10901232-2-44"/>
    <tag k="source" v="website"/>
    <tag k="source:date" v="2018-07-17"/>
    <tag k="vending" v="cheques"/>
    <tag k="website" v="https://www.posta.hu"/>
    <tag k="youtube" v="https://www.youtube.com/user/magyarpostaofficial"/>
  </node>
  <!-- Original coordinates: POINT (47.6861925 17.6495683) -->
  <!-- OSM <-> POI distance: None m-->
  <!-- Original tags:  -->
  <node action="modify" changeset="99999" id="-20" lat="47.6861925" lon="17.6495683" timestamp="" uid="4579407" user="KAMI" version="99999">
    <tag k="addr:city" v="Győr"/>
    <tag k="addr:country" v="HU"/>
    <tag k="addr:housenumber" v="3"/>
    <tag k="addr:postcode" v="9023"/>
    <tag k="addr:street" v="Fehérvári út"/>
    <tag k="amenity" v="vending_machine"/>
    <tag k="branch" v="Győr Interspar"/>
    <tag k="brand" v="Magyar Posta"/>
    <tag k="brand:wikidata" v="Q145614"/>
    <tag k="brand:wikipedia" v="hu:Magyar Posta Zrt."/>
    <tag k="email" v="ugyfelszolgalat@posta.hu"/>
    <tag k="facebook" v="https://www.facebook.com/MagyarPosta"/>
    <tag k="import" v="osm_poi_matchmaker"/>
    <tag k="instagram" v="https://www.instagram.com/magyar_posta_zrt"/>
    <tag k="name" v="Posta csekkautomata"/>
    <tag k="operator" v="Magyar Posta Zrt."/>
    <tag k="payment:cash" v="yes"/>
    <tag k="payment:debit_cards" v="yes"/>
    <tag k="phone" v="+3617678200"/>
    <tag k="ref:vatin:hu" v="10901232-2-44"/>
    <tag k="source" v="website"/>
    <tag k="source:date" v="2018-07-17"/>
    <tag k="vending" v="cheques"/>
    <tag k="website" v="https://www.posta.hu"/>
    <tag k="youtube" v="https://www.youtube.com/user/magyarpostaofficial"/>
  </node>
  <!-- Original coordinates: POINT (46.8886243 19.6333994) -->
  <!-- OSM <-> POI distance: None m-->
  <!-- Original tags:  -->
  <node action="modify" changeset="99999" id="-21" lat="46.8886243" lon="19.6333994" timestamp="" uid="4579407" user="KAMI" version="99999">
    <tag k="addr:city" v="Kecskemét"/>
    <tag k="addr:country" v="HU"/>
    <tag k="addr:housenumber" v="2"/>
    <tag k="addr:postcode" v="6000"/>
    <tag k="addr:street" v="Dunaföldvári utca"/>
    <tag k="amenity" v="vending_machine"/>
    <tag k="branch" v="Kecskemét Auchan"/>
    <tag k="brand" v="Magyar Posta"/>
    <tag k="brand:wikidata" v="Q145614"/>
    <tag k="brand:wikipedia" v="hu:Magyar Posta Zrt."/>
    <tag k="email" v="ugyfelszolgalat@posta.hu"/>
    <tag k="facebook" v="https://www.facebook.com/MagyarPosta"/>
    <tag k="import" v="osm_poi_matchmaker"/>
    <tag k="instagram" v="https://www.instagram.com/magyar_posta_zrt"/>
    <tag k="name" v="Posta csekkautomata"/>
    <tag k="operator" v="Magyar Posta Zrt."/>
    <tag k="payment:cash" v="yes"/>
    <tag k="payment:debit_cards" v="yes"/>
    <tag k="phone" v="+3617678200"/>
    <tag k="ref:vatin:hu" v="10901232-2-44"/>
    <tag k="source" v="website"/>
    <tag k="source:date" v="2018-07-17"/>
    <tag k="vending" v="cheques"/>
    <tag k="website" v="https://www.posta.hu"/>
    <tag k="youtube" v="https://www.youtube.com/user/magyarpostaofficial"/>
  </node>
  <!-- Original coordinates: POINT (46.907437 19.68932) -->
  <!-- OSM <-> POI distance: None m-->
  <!-- Original tags:  -->
  <node action="modify" changeset="99999" id="-22" lat="46.907437" lon="19.68932" timestamp="" uid="4579407" user="KAMI" version="99999">
    <tag k="addr:city" v="Kecskemét"/>
    <tag k="addr:country" v="HU"/>
    <tag k="addr:housenumber" v="2"/>
    <tag k="addr:postcode" v="6000"/>
    <tag k="addr:street" v="Korona utca"/>
    <tag k="amenity" v="vending_machine"/>
    <tag k="branch" v="Kecskemét Malom Központ"/>
    <tag k="brand" v="Magyar Posta"/>
    <tag k="brand:wikidata" v="Q145614"/>
    <tag k="brand:wikipedia" v="hu:Magyar Posta Zrt."/>
    <tag k="email" v="ugyfelszolgalat@posta.hu"/>
    <tag k="facebook" v="https://www.facebook.com/MagyarPosta"/>
    <tag k="import" v="osm_poi_matchmaker"/>
    <tag k="instagram" v="https://www.instagram.com/magyar_posta_zrt"/>
    <tag k="name" v="Posta csekkautomata"/>
    <tag k="operator" v="Magyar Posta Zrt."/>
    <tag k="payment:cash" v="yes"/>
    <tag k="payment:debit_cards" v="yes"/>
    <tag k="phone" v="+3617678200"/>
    <tag k="ref:vatin:hu" v="10901232-2-44"/>
    <tag k="source" v="website"/>
    <tag k="source:date" v="2018-07-17"/>
    <tag k="vending" v="cheques"/>
    <tag k="website" v="https://www.posta.hu"/>
    <tag k="youtube" v="https://www.youtube.com/user/magyarpostaofficial"/>
  </node>
  <!-- Original coordinates: POINT (48.1062712 20.8367315) -->
  <!-- OSM <-> POI distance: None m-->
  <!-- Original tags:  -->
  <node action="modify" changeset="99999" id="-23" lat="48.1062712" lon="20.8367315" timestamp="" uid="4579407" user="KAMI" version="99999">
    <tag k="addr:city" v="Miskolc"/>
    <tag k="addr:country" v="HU"/>
    <tag k="addr:housenumber" v="87"/>
    <tag k="addr:postcode" v="3527"/>
    <tag k="addr:street" v="József Attila utca"/>
    <tag k="amenity" v="vending_machine"/>
    <tag k="branch" v="Miskolc Auchan"/>
    <tag k="brand" v="Magyar Posta"/>
    <tag k="brand:wikidata" v="Q145614"/>
    <tag k="brand:wikipedia" v="hu:Magyar Posta Zrt."/>
    <tag k="email" v="ugyfelszolgalat@posta.hu"/>
    <tag k="facebook" v="https://www.facebook.com/MagyarPosta"/>
    <tag k="import" v="osm_poi_matchmaker"/>
    <tag k="instagram" v="https://www.instagram.com/magyar_posta_zrt"/>
    <tag k="name" v="Posta csekkautomata"/>
    <tag k="operator" v="Magyar Posta Zrt."/>
    <tag k="payment:cash" v="yes"/>
    <tag k="payment:debit_cards" v="yes"/>
    <tag k="phone" v="+3617678200"/>
    <tag k="ref:vatin:hu" v="10901232-2-44"/>
    <tag k="source" v="website"/>
    <tag k="source:date" v="2018-07-17"/>
    <tag k="vending" v="cheques"/>
    <tag k="website" v="https://www.posta.hu"/>
    <tag k="youtube" v="https://www.youtube.com/user/magyarpostaofficial"/>
  </node>
  <!-- Original coordinates: POINT (48.102513 20.792466) -->
  <!-- OSM <-> POI distance: None m-->
  <!-- Original tags:  -->
  <node action="modify" changeset="99999" id="-24" lat="48.102513" lon="20.792466" timestamp="" uid="4579407" user="KAMI" version="99999">
    <tag k="addr:city" v="Miskolc"/>
    <tag k="addr:country" v="HU"/>
    <tag k="addr:housenumber" v="2-4"/>
    <tag k="addr:postcode" v="3527"/>
    <tag k="addr:street" v="Bajcsy Zsilinszky Endre út"/>
    <tag k="amenity" v="vending_machine"/>
    <tag k="branch" v="Miskolc Szinvapark Bevásárlóközpont"/>
    <tag k="brand" v="Magyar Posta"/>
    <tag k="brand:wikidata" v="Q145614"/>
    <tag k="brand:wikipedia" v="hu:Magyar Posta Zrt."/>
    <tag k="email" v="ugyfelszolgalat@posta.hu"/>
    <tag k="facebook" v="https://www.facebook.com/MagyarPosta"/>
    <tag k="import" v="osm_poi_matchmaker"/>
    <tag k="instagram" v="https://www.instagram.com/magyar_posta_zrt"/>
    <tag k="name" v="Posta csekkautomata"/>
    <tag k="operator" v="Magyar Posta Zrt."/>
    <tag k="payment:cash" v="yes"/>
    <tag k="payment:debit_cards" v="yes"/>
    <tag k="phone" v="+3617678200"/>
    <tag k="ref:vatin:hu" v="10901232-2-44"/>
    <tag k="source" v="website"/>
    <tag k="source:date" v="2018-07-17"/>
    <tag k="vending" v="cheques"/>
    <tag k="website" v="https://www.posta.hu"/>
    <tag k="youtube" v="https://www.youtube.com/user/magyarpostaofficial"/>
  </node>
  <!-- Original coordinates: POINT (46.286642 20.086777) -->
  <!-- OSM <-> POI distance: None m-->
  <!-- Original tags:  -->
  <node action="modify" changeset="99999" id="-25" lat="46.286642" lon="20.086777" timestamp="" uid="4579407" user="KAMI" version="99999">
    <tag k="addr:city" v="Szeged"/>
    <tag k="addr:country" v="HU"/>
    <tag k="addr:housenumber" v="7"/>
    <tag k="addr:postcode" v="6728"/>
    <tag k="addr:street" v="Back Bernát utca"/>
    <tag k="amenity" v="vending_machine"/>
    <tag k="branch" v="Príma 5"/>
    <tag k="brand" v="Magyar Posta"/>
    <tag k="brand:wikidata" v="Q145614"/>
    <tag k="brand:wikipedia" v="hu:Magyar Posta Zrt."/>
    <tag k="email" v="ugyfelszolgalat@posta.hu"/>
    <tag k="facebook" v="https://www.facebook.com/MagyarPosta"/>
    <tag k="import" v="osm_poi_matchmaker"/>
    <tag k="instagram" v="https://www.instagram.com/magyar_posta_zrt"/>
    <tag k="name" v="Posta csekkautomata"/>
    <tag k="operator" v="Magyar Posta Zrt."/>
    <tag k="payment:cash" v="yes"/>
    <tag k="payment:debit_cards" v="yes"/>
    <tag k="phone" v="+3617678200"/>
    <tag k="ref:vatin:hu" v="10901232-2-44"/>
    <tag k="source" v="website"/>
    <tag k="source:date" v="2018-07-17"/>
    <tag k="vending" v="cheques"/>
    <tag k="website" v="https://www.posta.hu"/>
    <tag k="youtube" v="https://www.youtube.com/user/magyarpostaofficial"/>
  </node>
  <!-- Original coordinates: POINT (47.509139 19.06875) -->
  <!-- OSM <-> POI distance: None m-->
  <!-- Original tags:  -->
  <node action="modify" changeset="99999" id="-26" lat="47.509139" lon="19.06875" timestamp="" uid="4579407" user="KAMI" version="99999">
    <tag k="addr:city" v="Budapest"/>
    <tag k="addr:country" v="HU"/>
    <tag k="addr:housenumber" v="86"/>
    <tag k="addr:postcode" v="1062"/>
    <tag k="addr:street" v="Andrássy út"/>
    <tag k="amenity" v="vending_machine"/>
    <tag k="branch" v="Príma Andrássy Csemege"/>
    <tag k="brand" v="Magyar Posta"/>
    <tag k="brand:wikidata" v="Q145614"/>
    <tag k="brand:wikipedia" v="hu:Magyar Posta Zrt."/>
    <tag k="email" v="ugyfelszolgalat@posta.hu"/>
    <tag k="facebook" v="https://www.facebook.com/MagyarPosta"/>
    <tag k="import" v="osm_poi_matchmaker"/>
    <tag k="instagram" v="https://www.instagram.com/magyar_posta_zrt"/>
    <tag k="name" v="Posta csekkautomata"/>
    <tag k="operator" v="Magyar Posta Zrt."/>
    <tag k="payment:cash" v="yes"/>
    <tag k="payment:debit_cards" v="yes"/>
    <tag k="phone" v="+3617678200"/>
    <tag k="ref:vatin:hu" v="10901232-2-44"/>
    <tag k="source" v="website"/>
    <tag k="source:date" v="2018-07-17"/>
    <tag k="vending" v="cheques"/>
    <tag k="website" v="https://www.posta.hu"/>
    <tag k="youtube" v="https://www.youtube.com/user/magyarpostaofficial"/>
  </node>
  <!-- Original coordinates: POINT (47.502265 19.053048) -->
  <!-- OSM <-> POI distance: None m-->
  <!-- Original tags:  -->
  <node action="modify" changeset="99999" id="-27" lat="47.502265" lon="19.053048" timestamp="" uid="4579407" user="KAMI" version="99999">
    <tag k="addr:city" v="Budapest"/>
    <tag k="addr:country" v="HU"/>
    <tag k="addr:housenumber" v="27-29"/>
    <tag k="addr:postcode" v="1051"/>
    <tag k="addr:street" v="Arany János utca"/>
    <tag k="amenity" v="vending_machine"/>
    <tag k="branch" v="Príma Arany-Herceg Élelmiszer"/>
    <tag k="brand" v="Magyar Posta"/>
    <tag k="brand:wikidata" v="Q145614"/>
    <tag k="brand:wikipedia" v="hu:Magyar Posta Zrt."/>
    <tag k="email" v="ugyfelszolgalat@posta.hu"/>
    <tag k="facebook" v="https://www.facebook.com/MagyarPosta"/>
    <tag k="import" v="osm_poi_matchmaker"/>
    <tag k="instagram" v="https://www.instagram.com/magyar_posta_zrt"/>
    <tag k="name" v="Posta csekkautomata"/>
    <tag k="operator" v="Magyar Posta Zrt."/>
    <tag k="payment:cash" v="yes"/>
    <tag k="payment:debit_cards" v="yes"/>
    <tag k="phone" v="+3617678200"/>
    <tag k="ref:vatin:hu" v="10901232-2-44"/>
    <tag k="source" v="website"/>
    <tag k="source:date" v="2018-07-17"/>
    <tag k="vending" v="cheques"/>
    <tag k="website" v="https://www.posta.hu"/>
    <tag k="youtube" v="https://www.youtube.com/user/magyarpostaofficial"/>
  </node>
  <!-- Original coordinates: POINT (47.507039 19.031344) -->
  <!-- OSM <-> POI distance: None m-->
  <!-- Original tags:  -->
  <node action="modify" changeset="99999" id="-28" lat="47.507039" lon="19.031344" timestamp="" uid="4579407" user="KAMI" version="99999">
    <tag k="addr:city" v="Budapest"/>
    <tag k="addr:country" v="HU"/>
    <tag k="addr:housenumber" v="28-30"/>
    <tag k="addr:postcode" v="1015"/>
    <tag k="addr:street" v="Batthyány utca"/>
    <tag k="amenity" v="vending_machine"/>
    <tag k="branch" v="Príma Batthyány Csemege"/>
    <tag k="brand" v="Magyar Posta"/>
    <tag k="brand:wikidata" v="Q145614"/>
    <tag k="brand:wikipedia" v="hu:Magyar Posta Zrt."/>
    <tag k="email" v="ugyfelszolgalat@posta.hu"/>
    <tag k="facebook" v="https://www.facebook.com/MagyarPosta"/>
    <tag k="import" v="osm_poi_matchmaker"/>
    <tag k="instagram" v="https://www.instagram.com/magyar_posta_zrt"/>
    <tag k="name" v="Posta csekkautomata"/>
    <tag k="operator" v="Magyar Posta Zrt."/>
    <tag k="payment:cash" v="yes"/>
    <tag k="payment:debit_cards" v="yes"/>
    <tag k="phone" v="+3617678200"/>
    <tag k="ref:vatin:hu" v="10901232-2-44"/>
    <tag k="source" v="website"/>
    <tag k="source:date" v="2018-07-17"/>
    <tag k="vending" v="cheques"/>
    <tag k="website" v="https://www.posta.hu"/>
    <tag k="youtube" v="https://www.youtube.com/user/magyarpostaofficial"/>
  </node>
  <!-- Original coordinates: POINT (47.473849 18.837661) -->
  <!-- OSM <-> POI distance: None m-->
  <!-- Original tags:  -->
  <node action="modify" changeset="99999" id="-29" lat="47.473849" lon="18.837661" timestamp="" uid="4579407" user="KAMI" version="99999">
    <tag k="addr:city" v="Biatorbágy"/>
    <tag k="addr:country" v="HU"/>
    <tag k="addr:housenumber" v="2"/>
    <tag k="addr:postcode" v="2051"/>
    <tag k="addr:street" v="Csodaszarvas utca"/>
    <tag k="amenity" v="vending_machine"/>
    <tag k="branch" v="Príma Biatorbágy"/>
    <tag k="brand" v="Magyar Posta"/>
    <tag k="brand:wikidata" v="Q145614"/>
    <tag k="brand:wikipedia" v="hu:Magyar Posta Zrt."/>
    <tag k="email" v="ugyfelszolgalat@posta.hu"/>
    <tag k="facebook" v="https://www.facebook.com/MagyarPosta"/>
    <tag k="import" v="osm_poi_matchmaker"/>
    <tag k="instagram" v="https://www.instagram.com/magyar_posta_zrt"/>
    <tag k="name" v="Posta csekkautomata"/>
    <tag k="operator" v="Magyar Posta Zrt."/>
    <tag k="payment:cash" v="yes"/>
    <tag k="payment:debit_cards" v="yes"/>
    <tag k="phone" v="+3617678200"/>
    <tag k="ref:vatin:hu" v="10901232-2-44"/>
    <tag k="source" v="website"/>
    <tag k="source:date" v="2018-07-17"/>
    <tag k="vending" v="cheques"/>
    <tag k="website" v="https://www.posta.hu"/>
    <tag k="youtube" v="https://www.youtube.com/user/magyarpostaofficial"/>
  </node>
  <!-- Original coordinates: POINT (47.596192 19.061877) -->
  <!-- OSM <-> POI distance: None m-->
  <!-- Original tags:  -->
  <node action="modify" changeset="99999" id="-30" lat="47.596192" lon="19.061877" timestamp="" uid="4579407" user="KAMI" version="99999">
    <tag k="addr:city" v="Budapest"/>
    <tag k="addr:country" v="HU"/>
    <tag k="addr:housenumber" v="3"/>
    <tag k="addr:postcode" v="1039"/>
    <tag k="addr:street" v="Boglár utca"/>
    <tag k="amenity" v="vending_machine"/>
    <tag k="branch" v="Príma Boglár utca"/>
    <tag k="brand" v="Magyar Posta"/>
    <tag k="brand:wikidata" v="Q145614"/>
    <tag k="brand:wikipedia" v="hu:Magyar Posta Zrt."/>
    <tag k="email" v="ugyfelszolgalat@posta.hu"/>
    <tag k="facebook" v="https://www.facebook.com/MagyarPosta"/>
    <tag k="import" v="osm_poi_matchmaker"/>
    <tag k="instagram" v="https://www.instagram.com/magyar_posta_zrt"/>
    <tag k="name" v="Posta csekkautomata"/>
    <tag k="operator" v="Magyar Posta Zrt."/>
    <tag k="payment:cash" v="yes"/>
    <tag k="payment:debit_cards" v="yes"/>
    <tag k="phone" v="+3617678200"/>
    <tag k="ref:vatin:hu" v="10901232-2-44"/>
    <tag k="source" v="website"/>
    <tag k="source:date" v="2018-07-17"/>
    <tag k="vending" v="cheques"/>
    <tag k="website" v="https://www.posta.hu"/>
    <tag k="youtube" v="https://www.youtube.com/user/magyarpostaofficial"/>
  </node>
  <!-- Original coordinates: POINT (47.528857 19.037558) -->
  <!-- OSM <-> POI distance: None m-->
  <!-- Original tags:  -->
  <node action="modify" changeset="99999" id="-31" lat="47.528857" lon="19.037558" timestamp="" uid="4579407" user="KAMI" version="99999">
    <tag k="addr:city" v="Budapest"/>
    <tag k="addr:country" v="HU"/>
    <tag k="addr:housenumber" v="38-44"/>
    <tag k="addr:postcode" v="1036"/>
    <tag k="addr:street" v="Bécsi út"/>
    <tag k="amenity" v="vending_machine"/>
    <tag k="branch" v="Príma Buda Gourmet Príma"/>
    <tag k="brand" v="Magyar Posta"/>
    <tag k="brand:wikidata" v="Q145614"/>
    <tag k="brand:wikipedia" v="hu:Magyar Posta Zrt."/>
    <tag k="email" v="ugyfelszolgalat@posta.hu"/>
    <tag k="facebook" v="https://www.facebook.com/MagyarPosta"/>
    <tag k="import" v="osm_poi_matchmaker"/>
    <tag k="instagram" v="https://www.instagram.com/magyar_posta_zrt"/>
    <tag k="name" v="Posta csekkautomata"/>
    <tag k="operator" v="Magyar Posta Zrt."/>
    <tag k="payment:cash" v="yes"/>
    <tag k="payment:debit_cards" v="yes"/>
    <tag k="phone" v="+3617678200"/>
    <tag k="ref:vatin:hu" v="10901232-2-44"/>
    <tag k="source" v="website"/>
    <tag k="source:date" v="2018-07-17"/>
    <tag k="vending" v="cheques"/>
    <tag k="website" v="https://www.posta.hu"/>
    <tag k="youtube" v="https://www.youtube.com/user/magyarpostaofficial"/>
  </node>
  <!-- Original coordinates: POINT (47.507297 18.920336) -->
  <!-- OSM <-> POI distance: None m-->
  <!-- Original tags:  -->
  <node action="modify" changeset="99999" id="-32" lat="47.507297" lon="18.920336" timestamp="" uid="4579407" user="KAMI" version="99999">
    <tag k="addr:city" v="Budakeszi"/>
    <tag k="addr:country" v="HU"/>
    <tag k="addr:housenumber" v="1/A"/>
    <tag k="addr:postcode" v="2092"/>
    <tag k="addr:street" v="Dózsa György tér"/>
    <tag k="amenity" v="vending_machine"/>
    <tag k="branch" v="Príma Budakeszi"/>
    <tag k="brand" v="Magyar Posta"/>
    <tag k="brand:wikidata" v="Q145614"/>
    <tag k="brand:wikipedia" v="hu:Magyar Posta Zrt."/>
    <tag k="email" v="ugyfelszolgalat@posta.hu"/>
    <tag k="facebook" v="https://www.facebook.com/MagyarPosta"/>
    <tag k="import" v="osm_poi_matchmaker"/>
    <tag k="instagram" v="https://www.instagram.com/magyar_posta_zrt"/>
    <tag k="name" v="Posta csekkautomata"/>
    <tag k="operator" v="Magyar Posta Zrt."/>
    <tag k="payment:cash" v="yes"/>
    <tag k="payment:debit_cards" v="yes"/>
    <tag k="phone" v="+3617678200"/>
    <tag k="ref:vatin:hu" v="10901232-2-44"/>
    <tag k="source" v="website"/>
    <tag k="source:date" v="2018-07-17"/>
    <tag k="vending" v="cheques"/>
    <tag k="website" v="https://www.posta.hu"/>
    <tag k="youtube" v="https://www.youtube.com/user/magyarpostaofficial"/>
  </node>
  <!-- Original coordinates: POINT (47.461121 18.95696) -->
  <!-- OSM <-> POI distance: None m-->
  <!-- Original tags:  -->
  <node action="modify" changeset="99999" id="-33" lat="47.461121" lon="18.95696" timestamp="" uid="4579407" user="KAMI" version="99999">
    <tag k="addr:city" v="Budaörs"/>
    <tag k="addr:country" v="HU"/>
    <tag k="addr:housenumber" v="52-54"/>
    <tag k="addr:postcode" v="2040"/>
    <tag k="addr:street" v="Szabadság út"/>
    <tag k="amenity" v="vending_machine"/>
    <tag k="branch" v="Príma Budaörs"/>
    <tag k="brand" v="Magyar Posta"/>
    <tag k="brand:wikidata" v="Q145614"/>
    <tag k="brand:wikipedia" v="hu:Magyar Posta Zrt."/>
    <tag k="email" v="ugyfelszolgalat@posta.hu"/>
    <tag k="facebook" v="https://www.facebook.com/MagyarPosta"/>
    <tag k="import" v="osm_poi_matchmaker"/>
    <tag k="instagram" v="https://www.instagram.com/magyar_posta_zrt"/>
    <tag k="name" v="Posta csekkautomata"/>
    <tag k="operator" v="Magyar Posta Zrt."/>
    <tag k="payment:cash" v="yes"/>
    <tag k="payment:debit_cards" v="yes"/>
    <tag k="phone" v="+3617678200"/>
    <tag k="ref:vatin:hu" v="10901232-2-44"/>
    <tag k="source" v="website"/>
    <tag k="source:date" v="2018-07-17"/>
    <tag k="vending" v="cheques"/>
    <tag k="website" v="https://www.posta.hu"/>
    <tag k="youtube" v="https://www.youtube.com/user/magyarpostaofficial"/>
  </node>
  <!-- Original coordinates: POINT (47.520382 18.987391) -->
  <!-- OSM <-> POI distance: None m-->
  <!-- Original tags:  -->
  <node action="modify" changeset="99999" id="-34" lat="47.520382" lon="18.987391" timestamp="" uid="4579407" user="KAMI" version="99999">
    <tag k="addr:city" v="Budapest"/>
    <tag k="addr:country" v="HU"/>
    <tag k="addr:housenumber" v="26"/>
    <tag k="addr:postcode" v="1021"/>
    <tag k="addr:street" v="Budenz út"/>
    <tag k="amenity" v="vending_machine"/>
    <tag k="branch" v="Príma Budenz Csemege"/>
    <tag k="brand" v="Magyar Posta"/>
    <tag k="brand:wikidata" v="Q145614"/>
    <tag k="brand:wikipedia" v="hu:Magyar Posta Zrt."/>
    <tag k="email" v="ugyfelszolgalat@posta.hu"/>
    <tag k="facebook" v="https://www.facebook.com/MagyarPosta"/>
    <tag k="import" v="osm_poi_matchmaker"/>
    <tag k="instagram" v="https://www.instagram.com/magyar_posta_zrt"/>
    <tag k="name" v="Posta csekkautomata"/>
    <tag k="operator" v="Magyar Posta Zrt."/>
    <tag k="payment:cash" v="yes"/>
    <tag k="payment:debit_cards" v="yes"/>
    <tag k="phone" v="+3617678200"/>
    <tag k="ref:vatin:hu" v="10901232-2-44"/>
    <tag k="source" v="website"/>
    <tag k="source:date" v="2018-07-17"/>
    <tag k="vending" v="cheques"/>
    <tag k="website" v="https://www.posta.hu"/>
    <tag k="youtube" v="https://www.youtube.com/user/magyarpostaofficial"/>
  </node>
  <!-- Original coordinates: POINT (47.516859 19.18401) -->
  <!-- OSM <-> POI distance: None m-->
  <!-- Original tags:  -->
  <node action="modify" changeset="99999" id="-35" lat="47.516859" lon="19.18401" timestamp="" uid="4579407" user="KAMI" version="99999">
    <tag k="addr:city" v="Budapest"/>
    <tag k="addr:country" v="HU"/>
    <tag k="addr:housenumber" v="16-24"/>
    <tag k="addr:postcode" v="1165"/>
    <tag k="addr:street" v="Centenárium sétány"/>
    <tag k="amenity" v="vending_machine"/>
    <tag k="branch" v="Príma Centenárium"/>
    <tag k="brand" v="Magyar Posta"/>
    <tag k="brand:wikidata" v="Q145614"/>
    <tag k="brand:wikipedia" v="hu:Magyar Posta Zrt."/>
    <tag k="email" v="ugyfelszolgalat@posta.hu"/>
    <tag k="facebook" v="https://www.facebook.com/MagyarPosta"/>
    <tag k="import" v="osm_poi_matchmaker"/>
    <tag k="instagram" v="https://www.instagram.com/magyar_posta_zrt"/>
    <tag k="name" v="Posta csekkautomata"/>
    <tag k="operator" v="Magyar Posta Zrt."/>
    <tag k="payment:cash" v="yes"/>
    <tag k="payment:debit_cards" v="yes"/>
    <tag k="phone" v="+3617678200"/>
    <tag k="ref:vatin:hu" v="10901232-2-44"/>
    <tag k="source" v="website"/>
    <tag k="source:date" v="2018-07-17"/>
    <tag k="vending" v="cheques"/>
    <tag k="website" v="https://www.posta.hu"/>
    <tag k="youtube" v="https://www.youtube.com/user/magyarpostaofficial"/>
  </node>
  <!-- Original coordinates: POINT (47.490277 19.055386) -->
  <!-- OSM <-> POI distance: None m-->
  <!-- Original tags:  -->
  <node action="modify" changeset="99999" id="-36" lat="47.490277" lon="19.055386" timestamp="" uid="4579407" user="KAMI" version="99999">
    <tag k="addr:city" v="Budapest"/>
    <tag k="addr:country" v="HU"/>
    <tag k="addr:housenumber" v="54"/>
    <tag k="addr:postcode" v="1056"/>
    <tag k="addr:street" v="Váci utca"/>
    <tag k="amenity" v="vending_machine"/>
    <tag k="branch" v="Príma Corso Gourmet Áruház"/>
    <tag k="brand" v="Magyar Posta"/>
    <tag k="brand:wikidata" v="Q145614"/>
    <tag k="brand:wikipedia" v="hu:Magyar Posta Zrt."/>
    <tag k="email" v="ugyfelszolgalat@posta.hu"/>
    <tag k="facebook" v="https://www.facebook.com/MagyarPosta"/>
    <tag k="import" v="osm_poi_matchmaker"/>
    <tag k="instagram" v="https://www.instagram.com/magyar_posta_zrt"/>
    <tag k="name" v="Posta csekkautomata"/>
    <tag k="operator" v="Magyar Posta Zrt."/>
    <tag k="payment:cash" v="yes"/>
    <tag k="payment:debit_cards" v="yes"/>
    <tag k="phone" v="+3617678200"/>
    <tag k="ref:vatin:hu" v="10901232-2-44"/>
    <tag k="source" v="website"/>
    <tag k="source:date" v="2018-07-17"/>
    <tag k="vending" v="cheques"/>
    <tag k="website" v="https://www.posta.hu"/>
    <tag k="youtube" v="https://www.youtube.com/user/magyarpostaofficial"/>
  </node>
  <!-- Original coordinates: POINT (47.630872 17.599239) -->
  <!-- OSM <-> POI distance: None m-->
  <!-- Original tags:  -->
  <node action="modify" changeset="99999" id="-37" lat="47.630872" lon="17.599239" timestamp="" uid="4579407" user="KAMI" version="99999">
    <tag k="addr:city" v="Győr"/>
    <tag k="addr:country" v="HU"/>
    <tag k="addr:housenumber" v="19"/>
    <tag k="addr:postcode" v="9012"/>
    <tag k="addr:street" v="Új-Élet utca"/>
    <tag k="amenity" v="vending_machine"/>
    <tag k="branch" v="Príma Delikát Csemege"/>
    <tag k="brand" v="Magyar Posta"/>
    <tag k="brand:wikidata" v="Q145614"/>
    <tag k="brand:wikipedia" v="hu:Magyar Posta Zrt."/>
    <tag k="email" v="ugyfelszolgalat@posta.hu"/>
    <tag k="facebook" v="https://www.facebook.com/MagyarPosta"/>
    <tag k="import" v="osm_poi_matchmaker"/>
    <tag k="instagram" v="https://www.instagram.com/magyar_posta_zrt"/>
    <tag k="name" v="Posta csekkautomata"/>
    <tag k="operator" v="Magyar Posta Zrt."/>
    <tag k="payment:cash" v="yes"/>
    <tag k="payment:debit_cards" v="yes"/>
    <tag k="phone" v="+3617678200"/>
    <tag k="ref:vatin:hu" v="10901232-2-44"/>
    <tag k="source" v="website"/>
    <tag k="source:date" v="2018-07-17"/>
    <tag k="vending" v="cheques"/>
    <tag k="website" v="https://www.posta.hu"/>
    <tag k="youtube" v="https://www.youtube.com/user/magyarpostaofficial"/>
  </node>
  <!-- Original coordinates: POINT (47.791115 19.134327) -->
  <!-- OSM <-> POI distance: None m-->
  <!-- Original tags:  -->
  <node action="modify" changeset="99999" id="-38" lat="47.791115" lon="19.134327" timestamp="" uid="4579407" user="KAMI" version="99999">
    <tag k="addr:city" v="Vác"/>
    <tag k="addr:country" v="HU"/>
    <tag k="addr:housenumber" v="31"/>
    <tag k="addr:postcode" v="2600"/>
    <tag k="addr:street" v="Deákvári főtér"/>
    <tag k="amenity" v="vending_machine"/>
    <tag k="branch" v="Príma Deákvár Főtéri Csemege"/>
    <tag k="brand" v="Magyar Posta"/>
    <tag k="brand:wikidata" v="Q145614"/>
    <tag k="brand:wikipedia" v="hu:Magyar Posta Zrt."/>
    <tag k="email" v="ugyfelszolgalat@posta.hu"/>
    <tag k="facebook" v="https://www.facebook.com/MagyarPosta"/>
    <tag k="import" v="osm_poi_matchmaker"/>
    <tag k="instagram" v="https://www.instagram.com/magyar_posta_zrt"/>
    <tag k="name" v="Posta csekkautomata"/>
    <tag k="operator" v="Magyar Posta Zrt."/>
    <tag k="payment:cash" v="yes"/>
    <tag k="payment:debit_cards" v="yes"/>
    <tag k="phone" v="+3617678200"/>
    <tag k="ref:vatin:hu" v="10901232-2-44"/>
    <tag k="source" v="website"/>
    <tag k="source:date" v="2018-07-17"/>
    <tag k="vending" v="cheques"/>
    <tag k="website" v="https://www.posta.hu"/>
    <tag k="youtube" v="https://www.youtube.com/user/magyarpostaofficial"/>
  </node>
  <!-- Original coordinates: POINT (47.828305 19.013393) -->
  <!-- OSM <-> POI distance: None m-->
  <!-- Original tags:  -->
  <node action="modify" changeset="99999" id="-39" lat="47.828305" lon="19.013393" timestamp="" uid="4579407" user="KAMI" version="99999">
    <tag k="addr:city" v="Kismaros"/>
    <tag k="addr:country" v="HU"/>
    <tag k="addr:housenumber" v="3"/>
    <tag k="addr:postcode" v="2623"/>
    <tag k="addr:street" v="Szokolyai utca"/>
    <tag k="amenity" v="vending_machine"/>
    <tag k="branch" v="Príma Dunakanyar Áruház"/>
    <tag k="brand" v="Magyar Posta"/>
    <tag k="brand:wikidata" v="Q145614"/>
    <tag k="brand:wikipedia" v="hu:Magyar Posta Zrt."/>
    <tag k="email" v="ugyfelszolgalat@posta.hu"/>
    <tag k="facebook" v="https://www.facebook.com/MagyarPosta"/>
    <tag k="import" v="osm_poi_matchmaker"/>
    <tag k="instagram" v="https://www.instagram.com/magyar_posta_zrt"/>
    <tag k="name" v="Posta csekkautomata"/>
    <tag k="operator" v="Magyar Posta Zrt."/>
    <tag k="payment:cash" v="yes"/>
    <tag k="payment:debit_cards" v="yes"/>
    <tag k="phone" v="+3617678200"/>
    <tag k="ref:vatin:hu" v="10901232-2-44"/>
    <tag k="source" v="website"/>
    <tag k="source:date" v="2018-07-17"/>
    <tag k="vending" v="cheques"/>
    <tag k="website" v="https://www.posta.hu"/>
    <tag k="youtube" v="https://www.youtube.com/user/magyarpostaofficial"/>
  </node>
  <!-- Original coordinates: POINT (47.498934 19.026078) -->
  <!-- OSM <-> POI distance: None m-->
  <!-- Original tags:  -->
  <node action="modify" changeset="99999" id="-40" lat="47.498934" lon="19.026078" timestamp="" uid="4579407" user="KAMI" version="99999">
    <tag k="addr:city" v="Budapest"/>
    <tag k="addr:country" v="HU"/>
    <tag k="addr:housenumber" v="37"/>
    <tag k="addr:postcode" v="1013"/>
    <tag k="addr:street" v="Krisztina körút"/>
    <tag k="amenity" v="vending_machine"/>
    <tag k="branch" v="Príma Déli ABC Nagyáruház"/>
    <tag k="brand" v="Magyar Posta"/>
    <tag k="brand:wikidata" v="Q145614"/>
    <tag k="brand:wikipedia" v="hu:Magyar Posta Zrt."/>
    <tag k="email" v="ugyfelszolgalat@posta.hu"/>
    <tag k="facebook" v="https://www.facebook.com/MagyarPosta"/>
    <tag k="import" v="osm_poi_matchmaker"/>
    <tag k="instagram" v="https://www.instagram.com/magyar_posta_zrt"/>
    <tag k="name" v="Posta csekkautomata"/>
    <tag k="operator" v="Magyar Posta Zrt."/>
    <tag k="payment:cash" v="yes"/>
    <tag k="payment:debit_cards" v="yes"/>
    <tag k="phone" v="+3617678200"/>
    <tag k="ref:vatin:hu" v="10901232-2-44"/>
    <tag k="source" v="website"/>
    <tag k="source:date" v="2018-07-17"/>
    <tag k="vending" v="cheques"/>
    <tag k="website" v="https://www.posta.hu"/>
    <tag k="youtube" v="https://www.youtube.com/user/magyarpostaofficial"/>
  </node>
  <!-- Original coordinates: POINT (47.524393 19.133096) -->
  <!-- OSM <-> POI distance: None m-->
  <!-- Original tags:  -->
  <node action="modify" changeset="99999" id="-41" lat="47.524393" lon="19.133096" timestamp="" uid="4579407" user="KAMI" version="99999">
    <tag k="addr:city" v="Budapest"/>
    <tag k="addr:country" v="HU"/>
    <tag k="addr:housenumber" v="135"/>
    <tag k="addr:postcode" v="1141"/>
    <tag k="addr:street" v="Egressy út"/>
    <tag k="amenity" v="vending_machine"/>
    <tag k="branch" v="Príma Egressy út"/>
    <tag k="brand" v="Magyar Posta"/>
    <tag k="brand:wikidata" v="Q145614"/>
    <tag k="brand:wikipedia" v="hu:Magyar Posta Zrt."/>
    <tag k="email" v="ugyfelszolgalat@posta.hu"/>
    <tag k="facebook" v="https://www.facebook.com/MagyarPosta"/>
    <tag k="import" v="osm_poi_matchmaker"/>
    <tag k="instagram" v="https://www.instagram.com/magyar_posta_zrt"/>
    <tag k="name" v="Posta csekkautomata"/>
    <tag k="operator" v="Magyar Posta Zrt."/>
    <tag k="payment:cash" v="yes"/>
    <tag k="payment:debit_cards" v="yes"/>
    <tag k="phone" v="+3617678200"/>
    <tag k="ref:vatin:hu" v="10901232-2-44"/>
    <tag k="source" v="website"/>
    <tag k="source:date" v="2018-07-17"/>
    <tag k="vending" v="cheques"/>
    <tag k="website" v="https://www.posta.hu"/>
    <tag k="youtube" v="https://www.youtube.com/user/magyarpostaofficial"/>
  </node>
  <!-- Original coordinates: POINT (47.437721 19.102145) -->
  <!-- OSM <-> POI distance: None m-->
  <!-- Original tags:  -->
  <node action="modify" changeset="99999" id="-42" lat="47.437721" lon="19.102145" timestamp="" uid="4579407" user="KAMI" version="99999">
    <tag k="addr:city" v="Budapest"/>
    <tag k="addr:country" v="HU"/>
    <tag k="addr:housenumber" v="33"/>
    <tag k="addr:postcode" v="1203"/>
    <tag k="addr:street" v="Kossuth Lajos utca"/>
    <tag k="amenity" v="vending_machine"/>
    <tag k="branch" v="Príma Erzsébet Áruház"/>
    <tag k="brand" v="Magyar Posta"/>
    <tag k="brand:wikidata" v="Q145614"/>
    <tag k="brand:wikipedia" v="hu:Magyar Posta Zrt."/>
    <tag k="email" v="ugyfelszolgalat@posta.hu"/>
    <tag k="facebook" v="https://www.facebook.com/MagyarPosta"/>
    <tag k="import" v="osm_poi_matchmaker"/>
    <tag k="instagram" v="https://www.instagram.com/magyar_posta_zrt"/>
    <tag k="name" v="Posta csekkautomata"/>
    <tag k="operator" v="Magyar Posta Zrt."/>
    <tag k="payment:cash" v="yes"/>
    <tag k="payment:debit_cards" v="yes"/>
    <tag k="phone" v="+3617678200"/>
    <tag k="ref:vatin:hu" v="10901232-2-44"/>
    <tag k="source" v="website"/>
    <tag k="source:date" v="2018-07-17"/>
    <tag k="vending" v="cheques"/>
    <tag k="website" v="https://www.posta.hu"/>
    <tag k="youtube" v="https://www.youtube.com/user/magyarpostaofficial"/>
  </node>
  <!-- Original coordinates: POINT (47.44383 19.037198) -->
  <!-- OSM <-> POI distance: None m-->
  <!-- Original tags:  -->
  <node action="modify" changeset="99999" id="-43" lat="47.44383" lon="19.037198" timestamp="" uid="4579407" user="KAMI" version="99999">
    <tag k="addr:city" v="Budapest"/>
    <tag k="addr:country" v="HU"/>
    <tag k="addr:housenumber" v="192"/>
    <tag k="addr:postcode" v="1119"/>
    <tag k="addr:street" v="Fehérvári út"/>
    <tag k="amenity" v="vending_machine"/>
    <tag k="branch" v="Príma Fehérvári út"/>
    <tag k="brand" v="Magyar Posta"/>
    <tag k="brand:wikidata" v="Q145614"/>
    <tag k="brand:wikipedia" v="hu:Magyar Posta Zrt."/>
    <tag k="email" v="ugyfelszolgalat@posta.hu"/>
    <tag k="facebook" v="https://www.facebook.com/MagyarPosta"/>
    <tag k="import" v="osm_poi_matchmaker"/>
    <tag k="instagram" v="https://www.instagram.com/magyar_posta_zrt"/>
    <tag k="name" v="Posta csekkautomata"/>
    <tag k="operator" v="Magyar Posta Zrt."/>
    <tag k="payment:cash" v="yes"/>
    <tag k="payment:debit_cards" v="yes"/>
    <tag k="phone" v="+3617678200"/>
    <tag k="ref:vatin:hu" v="10901232-2-44"/>
    <tag k="source" v="website"/>
    <tag k="source:date" v="2018-07-17"/>
    <tag k="vending" v="cheques"/>
    <tag k="website" v="https://www.posta.hu"/>
    <tag k="youtube" v="https://www.youtube.com/user/magyarpostaofficial"/>
  </node>
  <!-- Original coordinates: POINT (47.507416 19.126098) -->
  <!-- OSM <-> POI distance: None m-->
  <!-- Original tags:  -->
  <node action="modify" changeset="99999" id="-44" lat="47.507416" lon="19.126098" timestamp="" uid="4579407" user="KAMI" version="99999">
    <tag k="addr:city" v="Budapest"/>
    <tag k="addr:country" v="HU"/>
    <tag k="addr:housenumber" v="45-51"/>
    <tag k="addr:postcode" v="1148"/>
    <tag k="addr:street" v="Fogarasi út"/>
    <tag k="amenity" v="vending_machine"/>
    <tag k="branch" v="Príma Fogarasi út"/>
    <tag k="brand" v="Magyar Posta"/>
    <tag k="brand:wikidata" v="Q145614"/>
    <tag k="brand:wikipedia" v="hu:Magyar Posta Zrt."/>
    <tag k="email" v="ugyfelszolgalat@posta.hu"/>
    <tag k="facebook" v="https://www.facebook.com/MagyarPosta"/>
    <tag k="import" v="osm_poi_matchmaker"/>
    <tag k="instagram" v="https://www.instagram.com/magyar_posta_zrt"/>
    <tag k="name" v="Posta csekkautomata"/>
    <tag k="operator" v="Magyar Posta Zrt."/>
    <tag k="payment:cash" v="yes"/>
    <tag k="payment:debit_cards" v="yes"/>
    <tag k="phone" v="+3617678200"/>
    <tag k="ref:vatin:hu" v="10901232-2-44"/>
    <tag k="source" v="website"/>
    <tag k="source:date" v="2018-07-17"/>
    <tag k="vending" v="cheques"/>
    <tag k="website" v="https://www.posta.hu"/>
    <tag k="youtube" v="https://www.youtube.com/user/magyarpostaofficial"/>
  </node>
  <!-- Original coordinates: POINT (47.769745 19.142473) -->
  <!-- OSM <-> POI distance: None m-->
  <!-- Original tags:  -->
  <node action="modify" changeset="99999" id="-45" lat="47.769745" lon="19.142473" timestamp="" uid="4579407" user="KAMI" version="99999">
    <tag k="addr:city" v="Vác"/>
    <tag k="addr:country" v="HU"/>
    <tag k="addr:housenumber" v="1"/>
    <tag k="addr:postcode" v="2600"/>
    <tag k="addr:street" v="Kölcsey Ferenc utca"/>
    <tag k="amenity" v="vending_machine"/>
    <tag k="branch" v="Príma Földváry Csemege"/>
    <tag k="brand" v="Magyar Posta"/>
    <tag k="brand:wikidata" v="Q145614"/>
    <tag k="brand:wikipedia" v="hu:Magyar Posta Zrt."/>
    <tag k="email" v="ugyfelszolgalat@posta.hu"/>
    <tag k="facebook" v="https://www.facebook.com/MagyarPosta"/>
    <tag k="import" v="osm_poi_matchmaker"/>
    <tag k="instagram" v="https://www.instagram.com/magyar_posta_zrt"/>
    <tag k="name" v="Posta csekkautomata"/>
    <tag k="operator" v="Magyar Posta Zrt."/>
    <tag k="payment:cash" v="yes"/>
    <tag k="payment:debit_cards" v="yes"/>
    <tag k="phone" v="+3617678200"/>
    <tag k="ref:vatin:hu" v="10901232-2-44"/>
    <tag k="source" v="website"/>
    <tag k="source:date" v="2018-07-17"/>
    <tag k="vending" v="cheques"/>
    <tag k="website" v="https://www.posta.hu"/>
    <tag k="youtube" v="https://www.youtube.com/user/magyarpostaofficial"/>
  </node>
  <!-- Original coordinates: POINT (47.473187 18.993191) -->
  <!-- OSM <-> POI distance: None m-->
  <!-- Original tags:  -->
  <node action="modify" changeset="99999" id="-46" lat="47.473187" lon="18.993191" timestamp="" uid="4579407" user="KAMI" version="99999">
    <tag k="addr:city" v="Budapest"/>
    <tag k="addr:country" v="HU"/>
    <tag k="addr:housenumber" v="8"/>
    <tag k="addr:postcode" v="1118"/>
    <tag k="addr:street" v="Gazdagréti tér"/>
    <tag k="amenity" v="vending_machine"/>
    <tag k="branch" v="Príma Gazdagrét"/>
    <tag k="brand" v="Magyar Posta"/>
    <tag k="brand:wikidata" v="Q145614"/>
    <tag k="brand:wikipedia" v="hu:Magyar Posta Zrt."/>
    <tag k="email" v="ugyfelszolgalat@posta.hu"/>
    <tag k="facebook" v="https://www.facebook.com/MagyarPosta"/>
    <tag k="import" v="osm_poi_matchmaker"/>
    <tag k="instagram" v="https://www.instagram.com/magyar_posta_zrt"/>
    <tag k="name" v="Posta csekkautomata"/>
    <tag k="operator" v="Magyar Posta Zrt."/>
    <tag k="payment:cash" v="yes"/>
    <tag k="payment:debit_cards" v="yes"/>
    <tag k="phone" v="+3617678200"/>
    <tag k="ref:vatin:hu" v="10901232-2-44"/>
    <tag k="source" v="website"/>
    <tag k="source:date" v="2018-07-17"/>
    <tag k="vending" v="cheques"/>
    <tag k="website" v="https://www.posta.hu"/>
    <tag k="youtube" v="https://www.youtube.com/user/magyarpostaofficial"/>
  </node>
  <!-- Original coordinates: POINT (47.54307 19.035105) -->
  <!-- OSM <-> POI distance: None m-->
  <!-- Original tags:  -->
  <node action="modify" changeset="99999" id="-47" lat="47.54307" lon="19.035105" timestamp="" uid="4579407" user="KAMI" version="99999">
    <tag k="addr:city" v="Budapest"/>
    <tag k="addr:country" v="HU"/>
    <tag k="addr:housenumber" v="2"/>
    <tag k="addr:postcode" v="1032"/>
    <tag k="addr:street" v="Gyenes utca"/>
    <tag k="amenity" v="vending_machine"/>
    <tag k="branch" v="Príma Gyenes utca"/>
    <tag k="brand" v="Magyar Posta"/>
    <tag k="brand:wikidata" v="Q145614"/>
    <tag k="brand:wikipedia" v="hu:Magyar Posta Zrt."/>
    <tag k="email" v="ugyfelszolgalat@posta.hu"/>
    <tag k="facebook" v="https://www.facebook.com/MagyarPosta"/>
    <tag k="import" v="osm_poi_matchmaker"/>
    <tag k="instagram" v="https://www.instagram.com/magyar_posta_zrt"/>
    <tag k="name" v="Posta csekkautomata"/>
    <tag k="operator" v="Magyar Posta Zrt."/>
    <tag k="payment:cash" v="yes"/>
    <tag k="payment:debit_cards" v="yes"/>
    <tag k="phone" v="+3617678200"/>
    <tag k="ref:vatin:hu" v="10901232-2-44"/>
    <tag k="source" v="website"/>
    <tag k="source:date" v="2018-07-17"/>
    <tag k="vending" v="cheques"/>
    <tag k="website" v="https://www.posta.hu"/>
    <tag k="youtube" v="https://www.youtube.com/user/magyarpostaofficial"/>
  </node>
  <!-- Original coordinates: POINT (47.611996 18.383128) -->
  <!-- OSM <-> POI distance: None m-->
  <!-- Original tags:  -->
  <node action="modify" changeset="99999" id="-48" lat="47.611996" lon="18.383128" timestamp="" uid="4579407" user="KAMI" version="99999">
    <tag k="addr:city" v="Vértesszőlős"/>
    <tag k="addr:country" v="HU"/>
    <tag k="addr:housenumber" v="1-3"/>
    <tag k="addr:postcode" v="2837"/>
    <tag k="addr:street" v="Határ utca"/>
    <tag k="amenity" v="vending_machine"/>
    <tag k="branch" v="Príma Halmschláger"/>
    <tag k="brand" v="Magyar Posta"/>
    <tag k="brand:wikidata" v="Q145614"/>
    <tag k="brand:wikipedia" v="hu:Magyar Posta Zrt."/>
    <tag k="email" v="ugyfelszolgalat@posta.hu"/>
    <tag k="facebook" v="https://www.facebook.com/MagyarPosta"/>
    <tag k="import" v="osm_poi_matchmaker"/>
    <tag k="instagram" v="https://www.instagram.com/magyar_posta_zrt"/>
    <tag k="name" v="Posta csekkautomata"/>
    <tag k="operator" v="Magyar Posta Zrt."/>
    <tag k="payment:cash" v="yes"/>
    <tag k="payment:debit_cards" v="yes"/>
    <tag k="phone" v="+3617678200"/>
    <tag k="ref:vatin:hu" v="10901232-2-44"/>
    <tag k="source" v="website"/>
    <tag k="source:date" v="2018-07-17"/>
    <tag k="vending" v="cheques"/>
    <tag k="website" v="https://www.posta.hu"/>
    <tag k="youtube" v="https://www.youtube.com/user/magyarpostaofficial"/>
  </node>
  <!-- Original coordinates: POINT (47.438715 19.166409) -->
  <!-- OSM <-> POI distance: None m-->
  <!-- Original tags:  -->
  <node action="modify" changeset="99999" id="-49" lat="47.438715" lon="19.166409" timestamp="" uid="4579407" user="KAMI" version="99999">
    <tag k="addr:city" v="Budapest"/>
    <tag k="addr:country" v="HU"/>
    <tag k="addr:housenumber" v="11-15"/>
    <tag k="addr:postcode" v="1181"/>
    <tag k="addr:street" v="Kondor Béla sétány"/>
    <tag k="amenity" v="vending_machine"/>
    <tag k="branch" v="Príma Havanna"/>
    <tag k="brand" v="Magyar Posta"/>
    <tag k="brand:wikidata" v="Q145614"/>
    <tag k="brand:wikipedia" v="hu:Magyar Posta Zrt."/>
    <tag k="email" v="ugyfelszolgalat@posta.hu"/>
    <tag k="facebook" v="https://www.facebook.com/MagyarPosta"/>
    <tag k="import" v="osm_poi_matchmaker"/>
    <tag k="instagram" v="https://www.instagram.com/magyar_posta_zrt"/>
    <tag k="name" v="Posta csekkautomata"/>
    <tag k="operator" v="Magyar Posta Zrt."/>
    <tag k="payment:cash" v="yes"/>
    <tag k="payment:debit_cards" v="yes"/>
    <tag k="phone" v="+3617678200"/>
    <tag k="ref:vatin:hu" v="10901232-2-44"/>
    <tag k="source" v="website"/>
    <tag k="source:date" v="2018-07-17"/>
    <tag k="vending" v="cheques"/>
    <tag k="website" v="https://www.posta.hu"/>
    <tag k="youtube" v="https://www.youtube.com/user/magyarpostaofficial"/>
  </node>
  <!-- Original coordinates: POINT (47.491399 19.011569) -->
  <!-- OSM <-> POI distance: None m-->
  <!-- Original tags:  -->
  <node action="modify" changeset="99999" id="-50" lat="47.491399" lon="19.011569" timestamp="" uid="4579407" user="KAMI" version="99999">
    <tag k="addr:city" v="Budapest"/>
    <tag k="addr:country" v="HU"/>
    <tag k="addr:housenumber" v="11"/>
    <tag k="addr:postcode" v="1124"/>
    <tag k="addr:street" v="Apor Vilmos tér"/>
    <tag k="amenity" v="vending_machine"/>
    <tag k="branch" v="Príma Hegyvidék Bevásárlóközpont"/>
    <tag k="brand" v="Magyar Posta"/>
    <tag k="brand:wikidata" v="Q145614"/>
    <tag k="brand:wikipedia" v="hu:Magyar Posta Zrt."/>
    <tag k="email" v="ugyfelszolgalat@posta.hu"/>
    <tag k="facebook" v="https://www.facebook.com/MagyarPosta"/>
    <tag k="import" v="osm_poi_matchmaker"/>
    <tag k="instagram" v="https://www.instagram.com/magyar_posta_zrt"/>
    <tag k="name" v="Posta csekkautomata"/>
    <tag k="operator" v="Magyar Posta Zrt."/>
    <tag k="payment:cash" v="yes"/>
    <tag k="payment:debit_cards" v="yes"/>
    <tag k="phone" v="+3617678200"/>
    <tag k="ref:vatin:hu" v="10901232-2-44"/>
    <tag k="source" v="website"/>
    <tag k="source:date" v="2018-07-17"/>
    <tag k="vending" v="cheques"/>
    <tag k="website" v="https://www.posta.hu"/>
    <tag k="youtube" v="https://www.youtube.com/user/magyarpostaofficial"/>
  </node>
  <!-- Original coordinates: POINT (47.520303 19.05341) -->
  <!-- OSM <-> POI distance: None m-->
  <!-- Original tags:  -->
  <node action="modify" changeset="99999" id="-51" lat="47.520303" lon="19.05341" timestamp="" uid="4579407" user="KAMI" version="99999">
    <tag k="addr:city" v="Budapest"/>
    <tag k="addr:country" v="HU"/>
    <tag k="addr:housenumber" v="3"/>
    <tag k="addr:postcode" v="1133"/>
    <tag k="addr:street" v="Ipoly utca"/>
    <tag k="amenity" v="vending_machine"/>
    <tag k="branch" v="Príma Ipoly"/>
    <tag k="brand" v="Magyar Posta"/>
    <tag k="brand:wikidata" v="Q145614"/>
    <tag k="brand:wikipedia" v="hu:Magyar Posta Zrt."/>
    <tag k="email" v="ugyfelszolgalat@posta.hu"/>
    <tag k="facebook" v="https://www.facebook.com/MagyarPosta"/>
    <tag k="import" v="osm_poi_matchmaker"/>
    <tag k="instagram" v="https://www.instagram.com/magyar_posta_zrt"/>
    <tag k="name" v="Posta csekkautomata"/>
    <tag k="operator" v="Magyar Posta Zrt."/>
    <tag k="payment:cash" v="yes"/>
    <tag k="payment:debit_cards" v="yes"/>
    <tag k="phone" v="+3617678200"/>
    <tag k="ref:vatin:hu" v="10901232-2-44"/>
    <tag k="source" v="website"/>
    <tag k="source:date" v="2018-07-17"/>
    <tag k="vending" v="cheques"/>
    <tag k="website" v="https://www.posta.hu"/>
    <tag k="youtube" v="https://www.youtube.com/user/magyarpostaofficial"/>
  </node>
  <!-- Original coordinates: POINT (47.510694 19.19083) -->
  <!-- OSM <-> POI distance: None m-->
  <!-- Original tags:  -->
  <node action="modify" changeset="99999" id="-52" lat="47.510694" lon="19.19083" timestamp="" uid="4579407" user="KAMI" version="99999">
    <tag k="addr:city" v="Budapest"/>
    <tag k="addr:country" v="HU"/>
    <tag k="addr:housenumber" v="2"/>
    <tag k="addr:postcode" v="1165"/>
    <tag k="addr:street" v="Jókai Mór utca"/>
    <tag k="amenity" v="vending_machine"/>
    <tag k="branch" v="Príma Jókai utca"/>
    <tag k="brand" v="Magyar Posta"/>
    <tag k="brand:wikidata" v="Q145614"/>
    <tag k="brand:wikipedia" v="hu:Magyar Posta Zrt."/>
    <tag k="email" v="ugyfelszolgalat@posta.hu"/>
    <tag k="facebook" v="https://www.facebook.com/MagyarPosta"/>
    <tag k="import" v="osm_poi_matchmaker"/>
    <tag k="instagram" v="https://www.instagram.com/magyar_posta_zrt"/>
    <tag k="name" v="Posta csekkautomata"/>
    <tag k="operator" v="Magyar Posta Zrt."/>
    <tag k="payment:cash" v="yes"/>
    <tag k="payment:debit_cards" v="yes"/>
    <tag k="phone" v="+3617678200"/>
    <tag k="ref:vatin:hu" v="10901232-2-44"/>
    <tag k="source" v="website"/>
    <tag k="source:date" v="2018-07-17"/>
    <tag k="vending" v="cheques"/>
    <tag k="website" v="https://www.posta.hu"/>
    <tag k="youtube" v="https://www.youtube.com/user/magyarpostaofficial"/>
  </node>
  <!-- Original coordinates: POINT (47.479402 19.153369) -->
  <!-- OSM <-> POI distance: None m-->
  <!-- Original tags:  -->
  <node action="modify" changeset="99999" id="-53" lat="47.479402" lon="19.153369" timestamp="" uid="4579407" user="KAMI" version="99999">
    <tag k="addr:city" v="Budapest"/>
    <tag k="addr:country" v="HU"/>
    <tag k="addr:housenumber" v="122"/>
    <tag k="addr:postcode" v="1104"/>
    <tag k="addr:street" v="Kada utca"/>
    <tag k="amenity" v="vending_machine"/>
    <tag k="branch" v="Príma Kada"/>
    <tag k="brand" v="Magyar Posta"/>
    <tag k="brand:wikidata" v="Q145614"/>
    <tag k="brand:wikipedia" v="hu:Magyar Posta Zrt."/>
    <tag k="email" v="ugyfelszolgalat@posta.hu"/>
    <tag k="facebook" v="https://www.facebook.com/MagyarPosta"/>
    <tag k="import" v="osm_poi_matchmaker"/>
    <tag k="instagram" v="https://www.instagram.com/magyar_posta_zrt"/>
    <tag k="name" v="Posta csekkautomata"/>
    <tag k="operator" v="Magyar Posta Zrt."/>
    <tag k="payment:cash" v="yes"/>
    <tag k="payment:debit_cards" v="yes"/>
    <tag k="phone" v="+3617678200"/>
    <tag k="ref:vatin:hu" v="10901232-2-44"/>
    <tag k="source" v="website"/>
    <tag k="source:date" v="2018-07-17"/>
    <tag k="vending" v="cheques"/>
    <tag k="website" v="https://www.posta.hu"/>
    <tag k="youtube" v="https://www.youtube.com/user/magyarpostaofficial"/>
  </node>
  <!-- Original coordinates: POINT (47.791118 19.116974) -->
  <!-- OSM <-> POI distance: None m-->
  <!-- Original tags:  -->
  <node action="modify" changeset="99999" id="-54" lat="47.791118" lon="19.116974" timestamp="" uid="4579407" user="KAMI" version="99999">
    <tag k="addr:city" v="Vác"/>
    <tag k="addr:country" v="HU"/>
    <tag k="addr:housenumber" v="87"/>
    <tag k="addr:postcode" v="2600"/>
    <tag k="addr:street" v="Árpád út"/>
    <tag k="amenity" v="vending_machine"/>
    <tag k="branch" v="Príma Kis-Vácz Csemege"/>
    <tag k="brand" v="Magyar Posta"/>
    <tag k="brand:wikidata" v="Q145614"/>
    <tag k="brand:wikipedia" v="hu:Magyar Posta Zrt."/>
    <tag k="email" v="ugyfelszolgalat@posta.hu"/>
    <tag k="facebook" v="https://www.facebook.com/MagyarPosta"/>
    <tag k="import" v="osm_poi_matchmaker"/>
    <tag k="instagram" v="https://www.instagram.com/magyar_posta_zrt"/>
    <tag k="name" v="Posta csekkautomata"/>
    <tag k="operator" v="Magyar Posta Zrt."/>
    <tag k="payment:cash" v="yes"/>
    <tag k="payment:debit_cards" v="yes"/>
    <tag k="phone" v="+3617678200"/>
    <tag k="ref:vatin:hu" v="10901232-2-44"/>
    <tag k="source" v="website"/>
    <tag k="source:date" v="2018-07-17"/>
    <tag k="vending" v="cheques"/>
    <tag k="website" v="https://www.posta.hu"/>
    <tag k="youtube" v="https://www.youtube.com/user/magyarpostaofficial"/>
  </node>
  <!-- Original coordinates: POINT (47.524087 17.518436) -->
  <!-- OSM <-> POI distance: None m-->
  <!-- Original tags:  -->
  <node action="modify" changeset="99999" id="-55" lat="47.524087" lon="17.518436" timestamp="" uid="4579407" user="KAMI" version="99999">
    <tag k="addr:city" v="Tét"/>
    <tag k="addr:conscriptionnumber" v="1225/14"/>
    <tag k="addr:country" v="HU"/>
    <tag k="addr:postcode" v="9100"/>
    <tag k="addr:street" v="Debrecen utca"/>
    <tag k="amenity" v="vending_machine"/>
    <tag k="branch" v="Príma Kismegyer-Delikát"/>
    <tag k="brand" v="Magyar Posta"/>
    <tag k="brand:wikidata" v="Q145614"/>
    <tag k="brand:wikipedia" v="hu:Magyar Posta Zrt."/>
    <tag k="email" v="ugyfelszolgalat@posta.hu"/>
    <tag k="facebook" v="https://www.facebook.com/MagyarPosta"/>
    <tag k="import" v="osm_poi_matchmaker"/>
    <tag k="instagram" v="https://www.instagram.com/magyar_posta_zrt"/>
    <tag k="name" v="Posta csekkautomata"/>
    <tag k="operator" v="Magyar Posta Zrt."/>
    <tag k="payment:cash" v="yes"/>
    <tag k="payment:debit_cards" v="yes"/>
    <tag k="phone" v="+3617678200"/>
    <tag k="ref:vatin:hu" v="10901232-2-44"/>
    <tag k="source" v="website"/>
    <tag k="source:date" v="2018-07-17"/>
    <tag k="vending" v="cheques"/>
    <tag k="website" v="https://www.posta.hu"/>
    <tag k="youtube" v="https://www.youtube.com/user/magyarpostaofficial"/>
  </node>
  <!-- Original coordinates: POINT (47.378853 18.921381) -->
  <!-- OSM <-> POI distance: None m-->
  <!-- Original tags:  -->
  <node action="modify" changeset="99999" id="-56" lat="47.378853" lon="18.921381" timestamp="" uid="4579407" user="KAMI" version="99999">
    <tag k="addr:city" v="Érd"/>
    <tag k="addr:country" v="HU"/>
    <tag k="addr:housenumber" v="1"/>
    <tag k="addr:postcode" v="2030"/>
    <tag k="addr:street" v="Kálvin tér"/>
    <tag k="amenity" v="vending_machine"/>
    <tag k="branch" v="Príma Kálvin tér"/>
    <tag k="brand" v="Magyar Posta"/>
    <tag k="brand:wikidata" v="Q145614"/>
    <tag k="brand:wikipedia" v="hu:Magyar Posta Zrt."/>
    <tag k="email" v="ugyfelszolgalat@posta.hu"/>
    <tag k="facebook" v="https://www.facebook.com/MagyarPosta"/>
    <tag k="import" v="osm_poi_matchmaker"/>
    <tag k="instagram" v="https://www.instagram.com/magyar_posta_zrt"/>
    <tag k="name" v="Posta csekkautomata"/>
    <tag k="operator" v="Magyar Posta Zrt."/>
    <tag k="payment:cash" v="yes"/>
    <tag k="payment:debit_cards" v="yes"/>
    <tag k="phone" v="+3617678200"/>
    <tag k="ref:vatin:hu" v="10901232-2-44"/>
    <tag k="source" v="website"/>
    <tag k="source:date" v="2018-07-17"/>
    <tag k="vending" v="cheques"/>
    <tag k="website" v="https://www.posta.hu"/>
    <tag k="youtube" v="https://www.youtube.com/user/magyarpostaofficial"/>
  </node>
  <!-- Original coordinates: POINT (47.467477 19.016517) -->
  <!-- OSM <-> POI distance: None m-->
  <!-- Original tags:  -->
  <node action="modify" changeset="99999" id="-57" lat="47.467477" lon="19.016517" timestamp="" uid="4579407" user="KAMI" version="99999">
    <tag k="addr:city" v="Budapest"/>
    <tag k="addr:country" v="HU"/>
    <tag k="addr:housenumber" v="115"/>
    <tag k="addr:postcode" v="1116"/>
    <tag k="addr:street" v="Budaörsi út"/>
    <tag k="amenity" v="vending_machine"/>
    <tag k="branch" v="Príma Kányakapu Csemege"/>
    <tag k="brand" v="Magyar Posta"/>
    <tag k="brand:wikidata" v="Q145614"/>
    <tag k="brand:wikipedia" v="hu:Magyar Posta Zrt."/>
    <tag k="email" v="ugyfelszolgalat@posta.hu"/>
    <tag k="facebook" v="https://www.facebook.com/MagyarPosta"/>
    <tag k="import" v="osm_poi_matchmaker"/>
    <tag k="instagram" v="https://www.instagram.com/magyar_posta_zrt"/>
    <tag k="name" v="Posta csekkautomata"/>
    <tag k="operator" v="Magyar Posta Zrt."/>
    <tag k="payment:cash" v="yes"/>
    <tag k="payment:debit_cards" v="yes"/>
    <tag k="phone" v="+3617678200"/>
    <tag k="ref:vatin:hu" v="10901232-2-44"/>
    <tag k="source" v="website"/>
    <tag k="source:date" v="2018-07-17"/>
    <tag k="vending" v="cheques"/>
    <tag k="website" v="https://www.posta.hu"/>
    <tag k="youtube" v="https://www.youtube.com/user/magyarpostaofficial"/>
  </node>
  <!-- Original coordinates: POINT (47.525536 19.057309) -->
  <!-- OSM <-> POI distance: None m-->
  <!-- Original tags:  -->
  <node action="modify" changeset="99999" id="-58" lat="47.525536" lon="19.057309" timestamp="" uid="4579407" user="KAMI" version="99999">
    <tag k="addr:city" v="Budapest"/>
    <tag k="addr:country" v="HU"/>
    <tag k="addr:housenumber" v="22"/>
    <tag k="addr:postcode" v="1133"/>
    <tag k="addr:street" v="Dráva utca"/>
    <tag k="amenity" v="vending_machine"/>
    <tag k="branch" v="Príma Kárpát Csemege"/>
    <tag k="brand" v="Magyar Posta"/>
    <tag k="brand:wikidata" v="Q145614"/>
    <tag k="brand:wikipedia" v="hu:Magyar Posta Zrt."/>
    <tag k="email" v="ugyfelszolgalat@posta.hu"/>
    <tag k="facebook" v="https://www.facebook.com/MagyarPosta"/>
    <tag k="import" v="osm_poi_matchmaker"/>
    <tag k="instagram" v="https://www.instagram.com/magyar_posta_zrt"/>
    <tag k="name" v="Posta csekkautomata"/>
    <tag k="operator" v="Magyar Posta Zrt."/>
    <tag k="payment:cash" v="yes"/>
    <tag k="payment:debit_cards" v="yes"/>
    <tag k="phone" v="+3617678200"/>
    <tag k="ref:vatin:hu" v="10901232-2-44"/>
    <tag k="source" v="website"/>
    <tag k="source:date" v="2018-07-17"/>
    <tag k="vending" v="cheques"/>
    <tag k="website" v="https://www.posta.hu"/>
    <tag k="youtube" v="https://www.youtube.com/user/magyarpostaofficial"/>
  </node>
  <!-- Original coordinates: POINT (47.540479 19.141032) -->
  <!-- OSM <-> POI distance: None m-->
  <!-- Original tags:  -->
  <node action="modify" changeset="99999" id="-59" lat="47.540479" lon="19.141032" timestamp="" uid="4579407" user="KAMI" version="99999">
    <tag k="addr:city" v="Budapest"/>
    <tag k="addr:country" v="HU"/>
    <tag k="addr:housenumber" v="2"/>
    <tag k="addr:postcode" v="1157"/>
    <tag k="addr:street" v="Legénybíró utca"/>
    <tag k="amenity" v="vending_machine"/>
    <tag k="branch" v="Príma Legénybíró utca"/>
    <tag k="brand" v="Magyar Posta"/>
    <tag k="brand:wikidata" v="Q145614"/>
    <tag k="brand:wikipedia" v="hu:Magyar Posta Zrt."/>
    <tag k="email" v="ugyfelszolgalat@posta.hu"/>
    <tag k="facebook" v="https://www.facebook.com/MagyarPosta"/>
    <tag k="import" v="osm_poi_matchmaker"/>
    <tag k="instagram" v="https://www.instagram.com/magyar_posta_zrt"/>
    <tag k="name" v="Posta csekkautomata"/>
    <tag k="operator" v="Magyar Posta Zrt."/>
    <tag k="payment:cash" v="yes"/>
    <tag k="payment:debit_cards" v="yes"/>
    <tag k="phone" v="+3617678200"/>
    <tag k="ref:vatin:hu" v="10901232-2-44"/>
    <tag k="source" v="website"/>
    <tag k="source:date" v="2018-07-17"/>
    <tag k="vending" v="cheques"/>
    <tag k="website" v="https://www.posta.hu"/>
    <tag k="youtube" v="https://www.youtube.com/user/magyarpostaofficial"/>
  </node>
  <!-- Original coordinates: POINT (47.518604 19.061026) -->
  <!-- OSM <-> POI distance: None m-->
  <!-- Original tags:  -->
  <node action="modify" changeset="99999" id="-60" lat="47.518604" lon="19.061026" timestamp="" uid="4579407" user="KAMI" version="99999">
    <tag k="addr:city" v="Budapest"/>
    <tag k="addr:country" v="HU"/>
    <tag k="addr:housenumber" v="9-15"/>
    <tag k="addr:postcode" v="1135"/>
    <tag k="addr:street" v="Váci út"/>
    <tag k="amenity" v="vending_machine"/>
    <tag k="branch" v="Príma Lehel Csarnok"/>
    <tag k="brand" v="Magyar Posta"/>
    <tag k="brand:wikidata" v="Q145614"/>
    <tag k="brand:wikipedia" v="hu:Magyar Posta Zrt."/>
    <tag k="email" v="ugyfelszolgalat@posta.hu"/>
    <tag k="facebook" v="https://www.facebook.com/MagyarPosta"/>
    <tag k="import" v="osm_poi_matchmaker"/>
    <tag k="instagram" v="https://www.instagram.com/magyar_posta_zrt"/>
    <tag k="name" v="Posta csekkautomata"/>
    <tag k="operator" v="Magyar Posta Zrt."/>
    <tag k="payment:cash" v="yes"/>
    <tag k="payment:debit_cards" v="yes"/>
    <tag k="phone" v="+3617678200"/>
    <tag k="ref:vatin:hu" v="10901232-2-44"/>
    <tag k="source" v="website"/>
    <tag k="source:date" v="2018-07-17"/>
    <tag k="vending" v="cheques"/>
    <tag k="website" v="https://www.posta.hu"/>
    <tag k="youtube" v="https://www.youtube.com/user/magyarpostaofficial"/>
  </node>
  <!-- Original coordinates: POINT (47.483666 19.129328) -->
  <!-- OSM <-> POI distance: None m-->
  <!-- Original tags:  -->
  <node action="modify" changeset="99999" id="-61" lat="47.483666" lon="19.129328" timestamp="" uid="4579407" user="KAMI" version="99999">
    <tag k="addr:city" v="Budapest"/>
    <tag k="addr:country" v="HU"/>
    <tag k="addr:housenumber" v="2"/>
    <tag k="addr:postcode" v="1102"/>
    <tag k="addr:street" v="Kőrösi Csoma sétány"/>
    <tag k="amenity" v="vending_machine"/>
    <tag k="branch" v="Príma Liget Élelmiszer Áruház"/>
    <tag k="brand" v="Magyar Posta"/>
    <tag k="brand:wikidata" v="Q145614"/>
    <tag k="brand:wikipedia" v="hu:Magyar Posta Zrt."/>
    <tag k="email" v="ugyfelszolgalat@posta.hu"/>
    <tag k="facebook" v="https://www.facebook.com/MagyarPosta"/>
    <tag k="import" v="osm_poi_matchmaker"/>
    <tag k="instagram" v="https://www.instagram.com/magyar_posta_zrt"/>
    <tag k="name" v="Posta csekkautomata"/>
    <tag k="operator" v="Magyar Posta Zrt."/>
    <tag k="payment:cash" v="yes"/>
    <tag k="payment:debit_cards" v="yes"/>
    <tag k="phone" v="+3617678200"/>
    <tag k="ref:vatin:hu" v="10901232-2-44"/>
    <tag k="source" v="website"/>
    <tag k="source:date" v="2018-07-17"/>
    <tag k="vending" v="cheques"/>
    <tag k="website" v="https://www.posta.hu"/>
    <tag k="youtube" v="https://www.youtube.com/user/magyarpostaofficial"/>
  </node>
  <!-- Original coordinates: POINT (47.514816 19.038008) -->
  <!-- OSM <-> POI distance: None m-->
  <!-- Original tags:  -->
  <node action="modify" changeset="99999" id="-62" lat="47.514816" lon="19.038008" timestamp="" uid="4579407" user="KAMI" version="99999">
    <tag k="addr:city" v="Budapest"/>
    <tag k="addr:country" v="HU"/>
    <tag k="addr:housenumber" v="1"/>
    <tag k="addr:postcode" v="1027"/>
    <tag k="addr:street" v="Margit körút"/>
    <tag k="amenity" v="vending_machine"/>
    <tag k="branch" v="Príma Margit hídfő"/>
    <tag k="brand" v="Magyar Posta"/>
    <tag k="brand:wikidata" v="Q145614"/>
    <tag k="brand:wikipedia" v="hu:Magyar Posta Zrt."/>
    <tag k="email" v="ugyfelszolgalat@posta.hu"/>
    <tag k="facebook" v="https://www.facebook.com/MagyarPosta"/>
    <tag k="import" v="osm_poi_matchmaker"/>
    <tag k="instagram" v="https://www.instagram.com/magyar_posta_zrt"/>
    <tag k="name" v="Posta csekkautomata"/>
    <tag k="operator" v="Magyar Posta Zrt."/>
    <tag k="payment:cash" v="yes"/>
    <tag k="payment:debit_cards" v="yes"/>
    <tag k="phone" v="+3617678200"/>
    <tag k="ref:vatin:hu" v="10901232-2-44"/>
    <tag k="source" v="website"/>
    <tag k="source:date" v="2018-07-17"/>
    <tag k="vending" v="cheques"/>
    <tag k="website" v="https://www.posta.hu"/>
    <tag k="youtube" v="https://www.youtube.com/user/magyarpostaofficial"/>
  </node>
  <!-- Original coordinates: POINT (47.546329 19.043789) -->
  <!-- OSM <-> POI distance: None m-->
  <!-- Original tags:  -->
  <node action="modify" changeset="99999" id="-63" lat="47.546329" lon="19.043789" timestamp="" uid="4579407" user="KAMI" version="99999">
    <tag k="addr:city" v="Budapest"/>
    <tag k="addr:country" v="HU"/>
    <tag k="addr:housenumber" v="8"/>
    <tag k="addr:postcode" v="1033"/>
    <tag k="addr:street" v="Miklós utca"/>
    <tag k="amenity" v="vending_machine"/>
    <tag k="branch" v="Príma Miklós utca"/>
    <tag k="brand" v="Magyar Posta"/>
    <tag k="brand:wikidata" v="Q145614"/>
    <tag k="brand:wikipedia" v="hu:Magyar Posta Zrt."/>
    <tag k="email" v="ugyfelszolgalat@posta.hu"/>
    <tag k="facebook" v="https://www.facebook.com/MagyarPosta"/>
    <tag k="import" v="osm_poi_matchmaker"/>
    <tag k="instagram" v="https://www.instagram.com/magyar_posta_zrt"/>
    <tag k="name" v="Posta csekkautomata"/>
    <tag k="operator" v="Magyar Posta Zrt."/>
    <tag k="payment:cash" v="yes"/>
    <tag k="payment:debit_cards" v="yes"/>
    <tag k="phone" v="+3617678200"/>
    <tag k="ref:vatin:hu" v="10901232-2-44"/>
    <tag k="source" v="website"/>
    <tag k="source:date" v="2018-07-17"/>
    <tag k="vending" v="cheques"/>
    <tag k="website" v="https://www.posta.hu"/>
    <tag k="youtube" v="https://www.youtube.com/user/magyarpostaofficial"/>
  </node>
  <!-- Original coordinates: POINT (47.559662 19.089959) -->
  <!-- OSM <-> POI distance: None m-->
  <!-- Original tags:  -->
  <node action="modify" changeset="99999" id="-64" lat="47.559662" lon="19.089959" timestamp="" uid="4579407" user="KAMI" version="99999">
    <tag k="addr:city" v="Budapest"/>
    <tag k="addr:country" v="HU"/>
    <tag k="addr:housenumber" v="26"/>
    <tag k="addr:postcode" v="1042"/>
    <tag k="addr:street" v="Munkásotthon utca"/>
    <tag k="amenity" v="vending_machine"/>
    <tag k="branch" v="Príma Munkásotthon"/>
    <tag k="brand" v="Magyar Posta"/>
    <tag k="brand:wikidata" v="Q145614"/>
    <tag k="brand:wikipedia" v="hu:Magyar Posta Zrt."/>
    <tag k="email" v="ugyfelszolgalat@posta.hu"/>
    <tag k="facebook" v="https://www.facebook.com/MagyarPosta"/>
    <tag k="import" v="osm_poi_matchmaker"/>
    <tag k="instagram" v="https://www.instagram.com/magyar_posta_zrt"/>
    <tag k="name" v="Posta csekkautomata"/>
    <tag k="operator" v="Magyar Posta Zrt."/>
    <tag k="payment:cash" v="yes"/>
    <tag k="payment:debit_cards" v="yes"/>
    <tag k="phone" v="+3617678200"/>
    <tag k="ref:vatin:hu" v="10901232-2-44"/>
    <tag k="source" v="website"/>
    <tag k="source:date" v="2018-07-17"/>
    <tag k="vending" v="cheques"/>
    <tag k="website" v="https://www.posta.hu"/>
    <tag k="youtube" v="https://www.youtube.com/user/magyarpostaofficial"/>
  </node>
  <!-- Original coordinates: POINT (47.530012 19.009954) -->
  <!-- OSM <-> POI distance: None m-->
  <!-- Original tags:  -->
  <node action="modify" changeset="99999" id="-65" lat="47.530012" lon="19.009954" timestamp="" uid="4579407" user="KAMI" version="99999">
    <tag k="addr:city" v="Budapest"/>
    <tag k="addr:country" v="HU"/>
    <tag k="addr:housenumber" v="58"/>
    <tag k="addr:postcode" v="1025"/>
    <tag k="addr:street" v="Csatárka út"/>
    <tag k="amenity" v="vending_machine"/>
    <tag k="branch" v="Príma Mágnáskert Csemege"/>
    <tag k="brand" v="Magyar Posta"/>
    <tag k="brand:wikidata" v="Q145614"/>
    <tag k="brand:wikipedia" v="hu:Magyar Posta Zrt."/>
    <tag k="email" v="ugyfelszolgalat@posta.hu"/>
    <tag k="facebook" v="https://www.facebook.com/MagyarPosta"/>
    <tag k="import" v="osm_poi_matchmaker"/>
    <tag k="instagram" v="https://www.instagram.com/magyar_posta_zrt"/>
    <tag k="name" v="Posta csekkautomata"/>
    <tag k="operator" v="Magyar Posta Zrt."/>
    <tag k="payment:cash" v="yes"/>
    <tag k="payment:debit_cards" v="yes"/>
    <tag k="phone" v="+3617678200"/>
    <tag k="ref:vatin:hu" v="10901232-2-44"/>
    <tag k="source" v="website"/>
    <tag k="source:date" v="2018-07-17"/>
    <tag k="vending" v="cheques"/>
    <tag k="website" v="https://www.posta.hu"/>
    <tag k="youtube" v="https://www.youtube.com/user/magyarpostaofficial"/>
  </node>
  <!-- Original coordinates: POINT (47.790555 18.959448) -->
  <!-- OSM <-> POI distance: None m-->
  <!-- Original tags:  -->
  <node action="modify" changeset="99999" id="-66" lat="47.790555" lon="18.959448" timestamp="" uid="4579407" user="KAMI" version="99999">
    <tag k="addr:city" v="Nagymaros"/>
    <tag k="addr:country" v="HU"/>
    <tag k="addr:housenumber" v="21"/>
    <tag k="addr:postcode" v="2626"/>
    <tag k="addr:street" v="Magyar utca"/>
    <tag k="amenity" v="vending_machine"/>
    <tag k="branch" v="Príma Nagymaros Élelmiszer Áruház"/>
    <tag k="brand" v="Magyar Posta"/>
    <tag k="brand:wikidata" v="Q145614"/>
    <tag k="brand:wikipedia" v="hu:Magyar Posta Zrt."/>
    <tag k="email" v="ugyfelszolgalat@posta.hu"/>
    <tag k="facebook" v="https://www.facebook.com/MagyarPosta"/>
    <tag k="import" v="osm_poi_matchmaker"/>
    <tag k="instagram" v="https://www.instagram.com/magyar_posta_zrt"/>
    <tag k="name" v="Posta csekkautomata"/>
    <tag k="operator" v="Magyar Posta Zrt."/>
    <tag k="payment:cash" v="yes"/>
    <tag k="payment:debit_cards" v="yes"/>
    <tag k="phone" v="+3617678200"/>
    <tag k="ref:vatin:hu" v="10901232-2-44"/>
    <tag k="source" v="website"/>
    <tag k="source:date" v="2018-07-17"/>
    <tag k="vending" v="cheques"/>
    <tag k="website" v="https://www.posta.hu"/>
    <tag k="youtube" v="https://www.youtube.com/user/magyarpostaofficial"/>
  </node>
  <!-- Original coordinates: POINT (46.23646 20.172412) -->
  <!-- OSM <-> POI distance: None m-->
  <!-- Original tags:  -->
  <node action="modify" changeset="99999" id="-67" lat="46.23646" lon="20.172412" timestamp="" uid="4579407" user="KAMI" version="99999">
    <tag k="addr:city" v="Szeged"/>
    <tag k="addr:country" v="HU"/>
    <tag k="addr:housenumber" v="80"/>
    <tag k="addr:postcode" v="6726"/>
    <tag k="addr:street" v="Szőregi út"/>
    <tag k="amenity" v="vending_machine"/>
    <tag k="branch" v="Príma Nova"/>
    <tag k="brand" v="Magyar Posta"/>
    <tag k="brand:wikidata" v="Q145614"/>
    <tag k="brand:wikipedia" v="hu:Magyar Posta Zrt."/>
    <tag k="email" v="ugyfelszolgalat@posta.hu"/>
    <tag k="facebook" v="https://www.facebook.com/MagyarPosta"/>
    <tag k="import" v="osm_poi_matchmaker"/>
    <tag k="instagram" v="https://www.instagram.com/magyar_posta_zrt"/>
    <tag k="name" v="Posta csekkautomata"/>
    <tag k="operator" v="Magyar Posta Zrt."/>
    <tag k="payment:cash" v="yes"/>
    <tag k="payment:debit_cards" v="yes"/>
    <tag k="phone" v="+3617678200"/>
    <tag k="ref:vatin:hu" v="10901232-2-44"/>
    <tag k="source" v="website"/>
    <tag k="source:date" v="2018-07-17"/>
    <tag k="vending" v="cheques"/>
    <tag k="website" v="https://www.posta.hu"/>
    <tag k="youtube" v="https://www.youtube.com/user/magyarpostaofficial"/>
  </node>
  <!-- Original coordinates: POINT (47.501732 19.048848) -->
  <!-- OSM <-> POI distance: None m-->
  <!-- Original tags:  -->
  <node action="modify" changeset="99999" id="-68" lat="47.501732" lon="19.048848" timestamp="" uid="4579407" user="KAMI" version="99999">
    <tag k="addr:city" v="Budapest"/>
    <tag k="addr:country" v="HU"/>
    <tag k="addr:housenumber" v="18"/>
    <tag k="addr:postcode" v="1051"/>
    <tag k="addr:street" v="Nádor utca"/>
    <tag k="amenity" v="vending_machine"/>
    <tag k="branch" v="Príma Nádor utca"/>
    <tag k="brand" v="Magyar Posta"/>
    <tag k="brand:wikidata" v="Q145614"/>
    <tag k="brand:wikipedia" v="hu:Magyar Posta Zrt."/>
    <tag k="email" v="ugyfelszolgalat@posta.hu"/>
    <tag k="facebook" v="https://www.facebook.com/MagyarPosta"/>
    <tag k="import" v="osm_poi_matchmaker"/>
    <tag k="instagram" v="https://www.instagram.com/magyar_posta_zrt"/>
    <tag k="name" v="Posta csekkautomata"/>
    <tag k="operator" v="Magyar Posta Zrt."/>
    <tag k="payment:cash" v="yes"/>
    <tag k="payment:debit_cards" v="yes"/>
    <tag k="phone" v="+3617678200"/>
    <tag k="ref:vatin:hu" v="10901232-2-44"/>
    <tag k="source" v="website"/>
    <tag k="source:date" v="2018-07-17"/>
    <tag k="vending" v="cheques"/>
    <tag k="website" v="https://www.posta.hu"/>
    <tag k="youtube" v="https://www.youtube.com/user/magyarpostaofficial"/>
  </node>
  <!-- Original coordinates: POINT (47.502869 19.002654) -->
  <!-- OSM <-> POI distance: None m-->
  <!-- Original tags:  -->
  <node action="modify" changeset="99999" id="-69" lat="47.502869" lon="19.002654" timestamp="" uid="4579407" user="KAMI" version="99999">
    <tag k="addr:city" v="Budapest"/>
    <tag k="addr:country" v="HU"/>
    <tag k="addr:housenumber" v="39"/>
    <tag k="addr:postcode" v="1125"/>
    <tag k="addr:street" v="Nógrádi utca"/>
    <tag k="amenity" v="vending_machine"/>
    <tag k="branch" v="Príma Nógrádi utca"/>
    <tag k="brand" v="Magyar Posta"/>
    <tag k="brand:wikidata" v="Q145614"/>
    <tag k="brand:wikipedia" v="hu:Magyar Posta Zrt."/>
    <tag k="email" v="ugyfelszolgalat@posta.hu"/>
    <tag k="facebook" v="https://www.facebook.com/MagyarPosta"/>
    <tag k="import" v="osm_poi_matchmaker"/>
    <tag k="instagram" v="https://www.instagram.com/magyar_posta_zrt"/>
    <tag k="name" v="Posta csekkautomata"/>
    <tag k="operator" v="Magyar Posta Zrt."/>
    <tag k="payment:cash" v="yes"/>
    <tag k="payment:debit_cards" v="yes"/>
    <tag k="phone" v="+3617678200"/>
    <tag k="ref:vatin:hu" v="10901232-2-44"/>
    <tag k="source" v="website"/>
    <tag k="source:date" v="2018-07-17"/>
    <tag k="vending" v="cheques"/>
    <tag k="website" v="https://www.posta.hu"/>
    <tag k="youtube" v="https://www.youtube.com/user/magyarpostaofficial"/>
  </node>
  <!-- Original coordinates: POINT (47.494616 19.055385) -->
  <!-- OSM <-> POI distance: None m-->
  <!-- Original tags:  -->
  <node action="modify" changeset="99999" id="-70" lat="47.494616" lon="19.055385" timestamp="" uid="4579407" user="KAMI" version="99999">
    <tag k="addr:city" v="Budapest"/>
    <tag k="addr:country" v="HU"/>
    <tag k="addr:housenumber" v="14"/>
    <tag k="addr:postcode" v="1052"/>
    <tag k="addr:street" v="Városház utca"/>
    <tag k="amenity" v="vending_machine"/>
    <tag k="branch" v="Príma Pilvax Élelmiszerüzlet"/>
    <tag k="brand" v="Magyar Posta"/>
    <tag k="brand:wikidata" v="Q145614"/>
    <tag k="brand:wikipedia" v="hu:Magyar Posta Zrt."/>
    <tag k="email" v="ugyfelszolgalat@posta.hu"/>
    <tag k="facebook" v="https://www.facebook.com/MagyarPosta"/>
    <tag k="import" v="osm_poi_matchmaker"/>
    <tag k="instagram" v="https://www.instagram.com/magyar_posta_zrt"/>
    <tag k="name" v="Posta csekkautomata"/>
    <tag k="operator" v="Magyar Posta Zrt."/>
    <tag k="payment:cash" v="yes"/>
    <tag k="payment:debit_cards" v="yes"/>
    <tag k="phone" v="+3617678200"/>
    <tag k="ref:vatin:hu" v="10901232-2-44"/>
    <tag k="source" v="website"/>
    <tag k="source:date" v="2018-07-17"/>
    <tag k="vending" v="cheques"/>
    <tag k="website" v="https://www.posta.hu"/>
    <tag k="youtube" v="https://www.youtube.com/user/magyarpostaofficial"/>
  </node>
  <!-- Original coordinates: POINT (47.407989 18.890379) -->
  <!-- OSM <-> POI distance: None m-->
  <!-- Original tags:  -->
  <node action="modify" changeset="99999" id="-71" lat="47.407989" lon="18.890379" timestamp="" uid="4579407" user="KAMI" version="99999">
    <tag k="addr:city" v="Érd"/>
    <tag k="addr:country" v="HU"/>
    <tag k="addr:housenumber" v="125-127"/>
    <tag k="addr:postcode" v="2030"/>
    <tag k="addr:street" v="Bajcsy-Zsilinszky Endre utca"/>
    <tag k="amenity" v="vending_machine"/>
    <tag k="branch" v="Príma Pára Üzletház"/>
    <tag k="brand" v="Magyar Posta"/>
    <tag k="brand:wikidata" v="Q145614"/>
    <tag k="brand:wikipedia" v="hu:Magyar Posta Zrt."/>
    <tag k="email" v="ugyfelszolgalat@posta.hu"/>
    <tag k="facebook" v="https://www.facebook.com/MagyarPosta"/>
    <tag k="import" v="osm_poi_matchmaker"/>
    <tag k="instagram" v="https://www.instagram.com/magyar_posta_zrt"/>
    <tag k="name" v="Posta csekkautomata"/>
    <tag k="operator" v="Magyar Posta Zrt."/>
    <tag k="payment:cash" v="yes"/>
    <tag k="payment:debit_cards" v="yes"/>
    <tag k="phone" v="+3617678200"/>
    <tag k="ref:vatin:hu" v="10901232-2-44"/>
    <tag k="source" v="website"/>
    <tag k="source:date" v="2018-07-17"/>
    <tag k="vending" v="cheques"/>
    <tag k="website" v="https://www.posta.hu"/>
    <tag k="youtube" v="https://www.youtube.com/user/magyarpostaofficial"/>
  </node>
  <!-- Original coordinates: POINT (47.516367 18.832675) -->
  <!-- OSM <-> POI distance: None m-->
  <!-- Original tags:  -->
  <node action="modify" changeset="99999" id="-72" lat="47.516367" lon="18.832675" timestamp="" uid="4579407" user="KAMI" version="99999">
    <tag k="addr:city" v="Páty"/>
    <tag k="addr:country" v="HU"/>
    <tag k="addr:housenumber" v="3"/>
    <tag k="addr:postcode" v="2071"/>
    <tag k="addr:street" v="Somogyi B. utca"/>
    <tag k="amenity" v="vending_machine"/>
    <tag k="branch" v="Príma Páty"/>
    <tag k="brand" v="Magyar Posta"/>
    <tag k="brand:wikidata" v="Q145614"/>
    <tag k="brand:wikipedia" v="hu:Magyar Posta Zrt."/>
    <tag k="email" v="ugyfelszolgalat@posta.hu"/>
    <tag k="facebook" v="https://www.facebook.com/MagyarPosta"/>
    <tag k="import" v="osm_poi_matchmaker"/>
    <tag k="instagram" v="https://www.instagram.com/magyar_posta_zrt"/>
    <tag k="name" v="Posta csekkautomata"/>
    <tag k="operator" v="Magyar Posta Zrt."/>
    <tag k="payment:cash" v="yes"/>
    <tag k="payment:debit_cards" v="yes"/>
    <tag k="phone" v="+3617678200"/>
    <tag k="ref:vatin:hu" v="10901232-2-44"/>
    <tag k="source" v="website"/>
    <tag k="source:date" v="2018-07-17"/>
    <tag k="vending" v="cheques"/>
    <tag k="website" v="https://www.posta.hu"/>
    <tag k="youtube" v="https://www.youtube.com/user/magyarpostaofficial"/>
  </node>
  <!-- Original coordinates: POINT (47.452928 19.156566) -->
  <!-- OSM <-> POI distance: None m-->
  <!-- Original tags:  -->
  <node action="modify" changeset="99999" id="-73" lat="47.452928" lon="19.156566" timestamp="" uid="4579407" user="KAMI" version="99999">
    <tag k="addr:city" v="Budapest"/>
    <tag k="addr:country" v="HU"/>
    <tag k="addr:housenumber" v="266"/>
    <tag k="addr:postcode" v="1193"/>
    <tag k="addr:street" v="Üllői út"/>
    <tag k="amenity" v="vending_machine"/>
    <tag k="branch" v="Príma Remíz Áruház"/>
    <tag k="brand" v="Magyar Posta"/>
    <tag k="brand:wikidata" v="Q145614"/>
    <tag k="brand:wikipedia" v="hu:Magyar Posta Zrt."/>
    <tag k="email" v="ugyfelszolgalat@posta.hu"/>
    <tag k="facebook" v="https://www.facebook.com/MagyarPosta"/>
    <tag k="import" v="osm_poi_matchmaker"/>
    <tag k="instagram" v="https://www.instagram.com/magyar_posta_zrt"/>
    <tag k="name" v="Posta csekkautomata"/>
    <tag k="operator" v="Magyar Posta Zrt."/>
    <tag k="payment:cash" v="yes"/>
    <tag k="payment:debit_cards" v="yes"/>
    <tag k="phone" v="+3617678200"/>
    <tag k="ref:vatin:hu" v="10901232-2-44"/>
    <tag k="source" v="website"/>
    <tag k="source:date" v="2018-07-17"/>
    <tag k="vending" v="cheques"/>
    <tag k="website" v="https://www.posta.hu"/>
    <tag k="youtube" v="https://www.youtube.com/user/magyarpostaofficial"/>
  </node>
  <!-- Original coordinates: POINT (47.506141 19.093278) -->
  <!-- OSM <-> POI distance: None m-->
  <!-- Original tags:  -->
  <node action="modify" changeset="99999" id="-74" lat="47.506141" lon="19.093278" timestamp="" uid="4579407" user="KAMI" version="99999">
    <tag k="addr:city" v="Budapest"/>
    <tag k="addr:country" v="HU"/>
    <tag k="addr:housenumber" v="6"/>
    <tag k="addr:postcode" v="1146"/>
    <tag k="addr:street" v="Szabó József utca"/>
    <tag k="amenity" v="vending_machine"/>
    <tag k="branch" v="Príma Récsei Élelmiszer Áruház"/>
    <tag k="brand" v="Magyar Posta"/>
    <tag k="brand:wikidata" v="Q145614"/>
    <tag k="brand:wikipedia" v="hu:Magyar Posta Zrt."/>
    <tag k="email" v="ugyfelszolgalat@posta.hu"/>
    <tag k="facebook" v="https://www.facebook.com/MagyarPosta"/>
    <tag k="import" v="osm_poi_matchmaker"/>
    <tag k="instagram" v="https://www.instagram.com/magyar_posta_zrt"/>
    <tag k="name" v="Posta csekkautomata"/>
    <tag k="operator" v="Magyar Posta Zrt."/>
    <tag k="payment:cash" v="yes"/>
    <tag k="payment:debit_cards" v="yes"/>
    <tag k="phone" v="+3617678200"/>
    <tag k="ref:vatin:hu" v="10901232-2-44"/>
    <tag k="source" v="website"/>
    <tag k="source:date" v="2018-07-17"/>
    <tag k="vending" v="cheques"/>
    <tag k="website" v="https://www.posta.hu"/>
    <tag k="youtube" v="https://www.youtube.com/user/magyarpostaofficial"/>
  </node>
  <!-- Original coordinates: POINT (47.568776 19.049244) -->
  <!-- OSM <-> POI distance: None m-->
  <!-- Original tags:  -->
  <node action="modify" changeset="99999" id="-75" lat="47.568776" lon="19.049244" timestamp="" uid="4579407" user="KAMI" version="99999">
    <tag k="addr:city" v="Budapest"/>
    <tag k="addr:country" v="HU"/>
    <tag k="addr:housenumber" v="1"/>
    <tag k="addr:postcode" v="1031"/>
    <tag k="addr:street" v="Római tér"/>
    <tag k="amenity" v="vending_machine"/>
    <tag k="branch" v="Príma Római tér"/>
    <tag k="brand" v="Magyar Posta"/>
    <tag k="brand:wikidata" v="Q145614"/>
    <tag k="brand:wikipedia" v="hu:Magyar Posta Zrt."/>
    <tag k="email" v="ugyfelszolgalat@posta.hu"/>
    <tag k="facebook" v="https://www.facebook.com/MagyarPosta"/>
    <tag k="import" v="osm_poi_matchmaker"/>
    <tag k="instagram" v="https://www.instagram.com/magyar_posta_zrt"/>
    <tag k="name" v="Posta csekkautomata"/>
    <tag k="operator" v="Magyar Posta Zrt."/>
    <tag k="payment:cash" v="yes"/>
    <tag k="payment:debit_cards" v="yes"/>
    <tag k="phone" v="+3617678200"/>
    <tag k="ref:vatin:hu" v="10901232-2-44"/>
    <tag k="source" v="website"/>
    <tag k="source:date" v="2018-07-17"/>
    <tag k="vending" v="cheques"/>
    <tag k="website" v="https://www.posta.hu"/>
    <tag k="youtube" v="https://www.youtube.com/user/magyarpostaofficial"/>
  </node>
  <!-- Original coordinates: POINT (47.473403 19.008175) -->
  <!-- OSM <-> POI distance: None m-->
  <!-- Original tags:  -->
  <node action="modify" changeset="99999" id="-76" lat="47.473403" lon="19.008175" timestamp="" uid="4579407" user="KAMI" version="99999">
    <tag k="addr:city" v="Budapest"/>
    <tag k="addr:country" v="HU"/>
    <tag k="addr:housenumber" v="83"/>
    <tag k="addr:postcode" v="1118"/>
    <tag k="addr:street" v="Sasadi út"/>
    <tag k="amenity" v="vending_machine"/>
    <tag k="branch" v="Príma Sasadi Csemege"/>
    <tag k="brand" v="Magyar Posta"/>
    <tag k="brand:wikidata" v="Q145614"/>
    <tag k="brand:wikipedia" v="hu:Magyar Posta Zrt."/>
    <tag k="email" v="ugyfelszolgalat@posta.hu"/>
    <tag k="facebook" v="https://www.facebook.com/MagyarPosta"/>
    <tag k="import" v="osm_poi_matchmaker"/>
    <tag k="instagram" v="https://www.instagram.com/magyar_posta_zrt"/>
    <tag k="name" v="Posta csekkautomata"/>
    <tag k="operator" v="Magyar Posta Zrt."/>
    <tag k="payment:cash" v="yes"/>
    <tag k="payment:debit_cards" v="yes"/>
    <tag k="phone" v="+3617678200"/>
    <tag k="ref:vatin:hu" v="10901232-2-44"/>
    <tag k="source" v="website"/>
    <tag k="source:date" v="2018-07-17"/>
    <tag k="vending" v="cheques"/>
    <tag k="website" v="https://www.posta.hu"/>
    <tag k="youtube" v="https://www.youtube.com/user/magyarpostaofficial"/>
  </node>
  <!-- Original coordinates: POINT (47.318073 18.907459) -->
  <!-- OSM <-> POI distance: None m-->
  <!-- Original tags:  -->
  <node action="modify" changeset="99999" id="-77" lat="47.318073" lon="18.907459" timestamp="" uid="4579407" user="KAMI" version="99999">
    <tag k="addr:city" v="Százhalombatta"/>
    <tag k="addr:country" v="HU"/>
    <tag k="addr:housenumber" v="23"/>
    <tag k="addr:postcode" v="2440"/>
    <tag k="addr:street" v="Damjanich utca"/>
    <tag k="amenity" v="vending_machine"/>
    <tag k="branch" v="Príma Százhalombatta"/>
    <tag k="brand" v="Magyar Posta"/>
    <tag k="brand:wikidata" v="Q145614"/>
    <tag k="brand:wikipedia" v="hu:Magyar Posta Zrt."/>
    <tag k="email" v="ugyfelszolgalat@posta.hu"/>
    <tag k="facebook" v="https://www.facebook.com/MagyarPosta"/>
    <tag k="import" v="osm_poi_matchmaker"/>
    <tag k="instagram" v="https://www.instagram.com/magyar_posta_zrt"/>
    <tag k="name" v="Posta csekkautomata"/>
    <tag k="operator" v="Magyar Posta Zrt."/>
    <tag k="payment:cash" v="yes"/>
    <tag k="payment:debit_cards" v="yes"/>
    <tag k="phone" v="+3617678200"/>
    <tag k="ref:vatin:hu" v="10901232-2-44"/>
    <tag k="source" v="website"/>
    <tag k="source:date" v="2018-07-17"/>
    <tag k="vending" v="cheques"/>
    <tag k="website" v="https://www.posta.hu"/>
    <tag k="youtube" v="https://www.youtube.com/user/magyarpostaofficial"/>
  </node>
  <!-- Original coordinates: POINT (47.779139 19.12912) -->
  <!-- OSM <-> POI distance: None m-->
  <!-- Original tags:  -->
  <node action="modify" changeset="99999" id="-78" lat="47.779139" lon="19.12912" timestamp="" uid="4579407" user="KAMI" version="99999">
    <tag k="addr:city" v="Vác"/>
    <tag k="addr:country" v="HU"/>
    <tag k="addr:housenumber" v="9-11"/>
    <tag k="addr:postcode" v="2600"/>
    <tag k="addr:street" v="Széchenyi utca"/>
    <tag k="amenity" v="vending_machine"/>
    <tag k="branch" v="Príma Tizes Csemege"/>
    <tag k="brand" v="Magyar Posta"/>
    <tag k="brand:wikidata" v="Q145614"/>
    <tag k="brand:wikipedia" v="hu:Magyar Posta Zrt."/>
    <tag k="email" v="ugyfelszolgalat@posta.hu"/>
    <tag k="facebook" v="https://www.facebook.com/MagyarPosta"/>
    <tag k="import" v="osm_poi_matchmaker"/>
    <tag k="instagram" v="https://www.instagram.com/magyar_posta_zrt"/>
    <tag k="name" v="Posta csekkautomata"/>
    <tag k="operator" v="Magyar Posta Zrt."/>
    <tag k="payment:cash" v="yes"/>
    <tag k="payment:debit_cards" v="yes"/>
    <tag k="phone" v="+3617678200"/>
    <tag k="ref:vatin:hu" v="10901232-2-44"/>
    <tag k="source" v="website"/>
    <tag k="source:date" v="2018-07-17"/>
    <tag k="vending" v="cheques"/>
    <tag k="website" v="https://www.posta.hu"/>
    <tag k="youtube" v="https://www.youtube.com/user/magyarpostaofficial"/>
  </node>
  <!-- Original coordinates: POINT (47.464211 19.033396) -->
  <!-- OSM <-> POI distance: None m-->
  <!-- Original tags:  -->
  <node action="modify" changeset="99999" id="-79" lat="47.464211" lon="19.033396" timestamp="" uid="4579407" user="KAMI" version="99999">
    <tag k="addr:city" v="Budapest"/>
    <tag k="addr:country" v="HU"/>
    <tag k="addr:housenumber" v="63"/>
    <tag k="addr:postcode" v="1119"/>
    <tag k="addr:street" v="Tétényi út"/>
    <tag k="amenity" v="vending_machine"/>
    <tag k="branch" v="Príma Tétényi út"/>
    <tag k="brand" v="Magyar Posta"/>
    <tag k="brand:wikidata" v="Q145614"/>
    <tag k="brand:wikipedia" v="hu:Magyar Posta Zrt."/>
    <tag k="email" v="ugyfelszolgalat@posta.hu"/>
    <tag k="facebook" v="https://www.facebook.com/MagyarPosta"/>
    <tag k="import" v="osm_poi_matchmaker"/>
    <tag k="instagram" v="https://www.instagram.com/magyar_posta_zrt"/>
    <tag k="name" v="Posta csekkautomata"/>
    <tag k="operator" v="Magyar Posta Zrt."/>
    <tag k="payment:cash" v="yes"/>
    <tag k="payment:debit_cards" v="yes"/>
    <tag k="phone" v="+3617678200"/>
    <tag k="ref:vatin:hu" v="10901232-2-44"/>
    <tag k="source" v="website"/>
    <tag k="source:date" v="2018-07-17"/>
    <tag k="vending" v="cheques"/>
    <tag k="website" v="https://www.posta.hu"/>
    <tag k="youtube" v="https://www.youtube.com/user/magyarpostaofficial"/>
  </node>
  <!-- Original coordinates: POINT (47.825039 19.035272) -->
  <!-- OSM <-> POI distance: None m-->
  <!-- Original tags:  -->
  <node action="modify" changeset="99999" id="-80" lat="47.825039" lon="19.035272" timestamp="" uid="4579407" user="KAMI" version="99999">
    <tag k="addr:city" v="Verőce"/>
    <tag k="addr:country" v="HU"/>
    <tag k="addr:housenumber" v="33"/>
    <tag k="addr:postcode" v="2621"/>
    <tag k="addr:street" v="Rákóczi út"/>
    <tag k="amenity" v="vending_machine"/>
    <tag k="branch" v="Príma Verőce Élelmiszer Áruház"/>
    <tag k="brand" v="Magyar Posta"/>
    <tag k="brand:wikidata" v="Q145614"/>
    <tag k="brand:wikipedia" v="hu:Magyar Posta Zrt."/>
    <tag k="email" v="ugyfelszolgalat@posta.hu"/>
    <tag k="facebook" v="https://www.facebook.com/MagyarPosta"/>
    <tag k="import" v="osm_poi_matchmaker"/>
    <tag k="instagram" v="https://www.instagram.com/magyar_posta_zrt"/>
    <tag k="name" v="Posta csekkautomata"/>
    <tag k="operator" v="Magyar Posta Zrt."/>
    <tag k="payment:cash" v="yes"/>
    <tag k="payment:debit_cards" v="yes"/>
    <tag k="phone" v="+3617678200"/>
    <tag k="ref:vatin:hu" v="10901232-2-44"/>
    <tag k="source" v="website"/>
    <tag k="source:date" v="2018-07-17"/>
    <tag k="vending" v="cheques"/>
    <tag k="website" v="https://www.posta.hu"/>
    <tag k="youtube" v="https://www.youtube.com/user/magyarpostaofficial"/>
  </node>
  <!-- Original coordinates: POINT (47.545043 18.726643) -->
  <!-- OSM <-> POI distance: None m-->
  <!-- Original tags:  -->
  <node action="modify" changeset="99999" id="-81" lat="47.545043" lon="18.726643" timestamp="" uid="4579407" user="KAMI" version="99999">
    <tag k="addr:city" v="Zsámbék"/>
    <tag k="addr:country" v="HU"/>
    <tag k="addr:housenumber" v="75"/>
    <tag k="addr:postcode" v="2072"/>
    <tag k="addr:street" v="Magyar utca"/>
    <tag k="amenity" v="vending_machine"/>
    <tag k="branch" v="Príma Zsámbék"/>
    <tag k="brand" v="Magyar Posta"/>
    <tag k="brand:wikidata" v="Q145614"/>
    <tag k="brand:wikipedia" v="hu:Magyar Posta Zrt."/>
    <tag k="email" v="ugyfelszolgalat@posta.hu"/>
    <tag k="facebook" v="https://www.facebook.com/MagyarPosta"/>
    <tag k="import" v="osm_poi_matchmaker"/>
    <tag k="instagram" v="https://www.instagram.com/magyar_posta_zrt"/>
    <tag k="name" v="Posta csekkautomata"/>
    <tag k="operator" v="Magyar Posta Zrt."/>
    <tag k="payment:cash" v="yes"/>
    <tag k="payment:debit_cards" v="yes"/>
    <tag k="phone" v="+3617678200"/>
    <tag k="ref:vatin:hu" v="10901232-2-44"/>
    <tag k="source" v="website"/>
    <tag k="source:date" v="2018-07-17"/>
    <tag k="vending" v="cheques"/>
    <tag k="website" v="https://www.posta.hu"/>
    <tag k="youtube" v="https://www.youtube.com/user/magyarpostaofficial"/>
  </node>
  <!-- Original coordinates: POINT (47.794619 19.128507) -->
  <!-- OSM <-> POI distance: None m-->
  <!-- Original tags:  -->
  <node action="modify" changeset="99999" id="-82" lat="47.794619" lon="19.128507" timestamp="" uid="4579407" user="KAMI" version="99999">
    <tag k="addr:city" v="Vác"/>
    <tag k="addr:country" v="HU"/>
    <tag k="addr:housenumber" v="9"/>
    <tag k="addr:postcode" v="2600"/>
    <tag k="addr:street" v="Radnóti M. út"/>
    <tag k="amenity" v="vending_machine"/>
    <tag k="branch" v="Príma Újdeákvári Csemege"/>
    <tag k="brand" v="Magyar Posta"/>
    <tag k="brand:wikidata" v="Q145614"/>
    <tag k="brand:wikipedia" v="hu:Magyar Posta Zrt."/>
    <tag k="email" v="ugyfelszolgalat@posta.hu"/>
    <tag k="facebook" v="https://www.facebook.com/MagyarPosta"/>
    <tag k="import" v="osm_poi_matchmaker"/>
    <tag k="instagram" v="https://www.instagram.com/magyar_posta_zrt"/>
    <tag k="name" v="Posta csekkautomata"/>
    <tag k="operator" v="Magyar Posta Zrt."/>
    <tag k="payment:cash" v="yes"/>
    <tag k="payment:debit_cards" v="yes"/>
    <tag k="phone" v="+3617678200"/>
    <tag k="ref:vatin:hu" v="10901232-2-44"/>
    <tag k="source" v="website"/>
    <tag k="source:date" v="2018-07-17"/>
    <tag k="vending" v="cheques"/>
    <tag k="website" v="https://www.posta.hu"/>
    <tag k="youtube" v="https://www.youtube.com/user/magyarpostaofficial"/>
  </node>
  <!-- Original coordinates: POINT (47.718373 19.089308) -->
  <!-- OSM <-> POI distance: None m-->
  <!-- Original tags:  -->
  <node action="modify" changeset="99999" id="-83" lat="47.718373" lon="19.089308" timestamp="" uid="4579407" user="KAMI" version="99999">
    <tag k="addr:city" v="Leányfalu"/>
    <tag k="addr:country" v="HU"/>
    <tag k="addr:housenumber" v="167"/>
    <tag k="addr:postcode" v="2016"/>
    <tag k="addr:street" v="Móricz Zsigmond út"/>
    <tag k="amenity" v="vending_machine"/>
    <tag k="branch" v="Príma Üzletház Leányfalu"/>
    <tag k="brand" v="Magyar Posta"/>
    <tag k="brand:wikidata" v="Q145614"/>
    <tag k="brand:wikipedia" v="hu:Magyar Posta Zrt."/>
    <tag k="email" v="ugyfelszolgalat@posta.hu"/>
    <tag k="facebook" v="https://www.facebook.com/MagyarPosta"/>
    <tag k="import" v="osm_poi_matchmaker"/>
    <tag k="instagram" v="https://www.instagram.com/magyar_posta_zrt"/>
    <tag k="name" v="Posta csekkautomata"/>
    <tag k="operator" v="Magyar Posta Zrt."/>
    <tag k="payment:cash" v="yes"/>
    <tag k="payment:debit_cards" v="yes"/>
    <tag k="phone" v="+3617678200"/>
    <tag k="ref:vatin:hu" v="10901232-2-44"/>
    <tag k="source" v="website"/>
    <tag k="source:date" v="2018-07-17"/>
    <tag k="vending" v="cheques"/>
    <tag k="website" v="https://www.posta.hu"/>
    <tag k="youtube" v="https://www.youtube.com/user/magyarpostaofficial"/>
  </node>
  <!-- Original coordinates: POINT (47.497012 19.03287) -->
  <!-- OSM <-> POI distance: None m-->
  <!-- Original tags:  -->
  <node action="modify" changeset="99999" id="-84" lat="47.497012" lon="19.03287" timestamp="" uid="4579407" user="KAMI" version="99999">
    <tag k="addr:city" v="Budapest"/>
    <tag k="addr:country" v="HU"/>
    <tag k="addr:housenumber" v="5"/>
    <tag k="addr:postcode" v="1013"/>
    <tag k="addr:street" v="Alagút utca"/>
    <tag k="amenity" v="vending_machine"/>
    <tag k="branch" v="PrímaHorváth-kert"/>
    <tag k="brand" v="Magyar Posta"/>
    <tag k="brand:wikidata" v="Q145614"/>
    <tag k="brand:wikipedia" v="hu:Magyar Posta Zrt."/>
    <tag k="email" v="ugyfelszolgalat@posta.hu"/>
    <tag k="facebook" v="https://www.facebook.com/MagyarPosta"/>
    <tag k="import" v="osm_poi_matchmaker"/>
    <tag k="instagram" v="https://www.instagram.com/magyar_posta_zrt"/>
    <tag k="name" v="Posta csekkautomata"/>
    <tag k="operator" v="Magyar Posta Zrt."/>
    <tag k="payment:cash" v="yes"/>
    <tag k="payment:debit_cards" v="yes"/>
    <tag k="phone" v="+3617678200"/>
    <tag k="ref:vatin:hu" v="10901232-2-44"/>
    <tag k="source" v="website"/>
    <tag k="source:date" v="2018-07-17"/>
    <tag k="vending" v="cheques"/>
    <tag k="website" v="https://www.posta.hu"/>
    <tag k="youtube" v="https://www.youtube.com/user/magyarpostaofficial"/>
  </node>
  <!-- Original coordinates: POINT (46.066627 18.224867) -->
  <!-- OSM <-> POI distance: None m-->
  <!-- Original tags:  -->
  <node action="modify" changeset="99999" id="-85" lat="46.066627" lon="18.224867" timestamp="" uid="4579407" user="KAMI" version="99999">
    <tag k="addr:city" v="Pécs"/>
    <tag k="addr:country" v="HU"/>
    <tag k="addr:housenumber" v="6"/>
    <tag k="addr:postcode" v="7623"/>
    <tag k="addr:street" v="Indóház tér"/>
    <tag k="amenity" v="vending_machine"/>
    <tag k="branch" v="Pécs 2-es posta"/>
    <tag k="brand" v="Magyar Posta"/>
    <tag k="brand:wikidata" v="Q145614"/>
    <tag k="brand:wikipedia" v="hu:Magyar Posta Zrt."/>
    <tag k="email" v="ugyfelszolgalat@posta.hu"/>
    <tag k="facebook" v="https://www.facebook.com/MagyarPosta"/>
    <tag k="import" v="osm_poi_matchmaker"/>
    <tag k="instagram" v="https://www.instagram.com/magyar_posta_zrt"/>
    <tag k="name" v="Posta csekkautomata"/>
    <tag k="operator" v="Magyar Posta Zrt."/>
    <tag k="payment:cash" v="yes"/>
    <tag k="payment:debit_cards" v="yes"/>
    <tag k="phone" v="+3617678200"/>
    <tag k="ref:vatin:hu" v="10901232-2-44"/>
    <tag k="source" v="website"/>
    <tag k="source:date" v="2018-07-17"/>
    <tag k="vending" v="cheques"/>
    <tag k="website" v="https://www.posta.hu"/>
    <tag k="youtube" v="https://www.youtube.com/user/magyarpostaofficial"/>
  </node>
  <!-- Original coordinates: POINT (47.566296 19.097572) -->
  <!-- OSM <-> POI distance: None m-->
  <!-- Original tags:  -->
  <node action="modify" changeset="99999" id="-86" lat="47.566296" lon="19.097572" timestamp="" uid="4579407" user="KAMI" version="99999">
    <tag k="addr:city" v="Budapest"/>
    <tag k="addr:country" v="HU"/>
    <tag k="addr:housenumber" v="14"/>
    <tag k="addr:postcode" v="1046"/>
    <tag k="addr:street" v="Corvin utca"/>
    <tag k="amenity" v="vending_machine"/>
    <tag k="branch" v="Rossmann üzlet"/>
    <tag k="brand" v="Magyar Posta"/>
    <tag k="brand:wikidata" v="Q145614"/>
    <tag k="brand:wikipedia" v="hu:Magyar Posta Zrt."/>
    <tag k="email" v="ugyfelszolgalat@posta.hu"/>
    <tag k="facebook" v="https://www.facebook.com/MagyarPosta"/>
    <tag k="import" v="osm_poi_matchmaker"/>
    <tag k="instagram" v="https://www.instagram.com/magyar_posta_zrt"/>
    <tag k="name" v="Posta csekkautomata"/>
    <tag k="operator" v="Magyar Posta Zrt."/>
    <tag k="payment:cash" v="yes"/>
    <tag k="payment:debit_cards" v="yes"/>
    <tag k="phone" v="+3617678200"/>
    <tag k="ref:vatin:hu" v="10901232-2-44"/>
    <tag k="source" v="website"/>
    <tag k="source:date" v="2018-07-17"/>
    <tag k="vending" v="cheques"/>
    <tag k="website" v="https://www.posta.hu"/>
    <tag k="youtube" v="https://www.youtube.com/user/magyarpostaofficial"/>
  </node>
  <!-- Original coordinates: POINT (47.50078 19.081859) -->
  <!-- OSM <-> POI distance: None m-->
  <!-- Original tags:  -->
  <node action="modify" changeset="99999" id="-87" lat="47.50078" lon="19.081859" timestamp="" uid="4579407" user="KAMI" version="99999">
    <tag k="addr:city" v="Budapest"/>
    <tag k="addr:country" v="HU"/>
    <tag k="addr:housenumber" v="14"/>
    <tag k="addr:postcode" v="1077"/>
    <tag k="addr:street" v="Baross tér"/>
    <tag k="amenity" v="vending_machine"/>
    <tag k="branch" v="Rossmann üzlet"/>
    <tag k="brand" v="Magyar Posta"/>
    <tag k="brand:wikidata" v="Q145614"/>
    <tag k="brand:wikipedia" v="hu:Magyar Posta Zrt."/>
    <tag k="email" v="ugyfelszolgalat@posta.hu"/>
    <tag k="facebook" v="https://www.facebook.com/MagyarPosta"/>
    <tag k="import" v="osm_poi_matchmaker"/>
    <tag k="instagram" v="https://www.instagram.com/magyar_posta_zrt"/>
    <tag k="name" v="Posta csekkautomata"/>
    <tag k="operator" v="Magyar Posta Zrt."/>
    <tag k="payment:cash" v="yes"/>
    <tag k="payment:debit_cards" v="yes"/>
    <tag k="phone" v="+3617678200"/>
    <tag k="ref:vatin:hu" v="10901232-2-44"/>
    <tag k="source" v="website"/>
    <tag k="source:date" v="2018-07-17"/>
    <tag k="vending" v="cheques"/>
    <tag k="website" v="https://www.posta.hu"/>
    <tag k="youtube" v="https://www.youtube.com/user/magyarpostaofficial"/>
  </node>
  <!-- Original coordinates: POINT (47.511512 19.0561) -->
  <!-- OSM <-> POI distance: None m-->
  <!-- Original tags:  -->
  <node action="modify" changeset="99999" id="-88" lat="47.511512" lon="19.0561" timestamp="" uid="4579407" user="KAMI" version="99999">
    <tag k="addr:city" v="Budapest"/>
    <tag k="addr:country" v="HU"/>
    <tag k="addr:housenumber" v="4"/>
    <tag k="addr:postcode" v="1132"/>
    <tag k="addr:street" v="Váci út"/>
    <tag k="amenity" v="vending_machine"/>
    <tag k="branch" v="Rossmann üzlet"/>
    <tag k="brand" v="Magyar Posta"/>
    <tag k="brand:wikidata" v="Q145614"/>
    <tag k="brand:wikipedia" v="hu:Magyar Posta Zrt."/>
    <tag k="email" v="ugyfelszolgalat@posta.hu"/>
    <tag k="facebook" v="https://www.facebook.com/MagyarPosta"/>
    <tag k="import" v="osm_poi_matchmaker"/>
    <tag k="instagram" v="https://www.instagram.com/magyar_posta_zrt"/>
    <tag k="name" v="Posta csekkautomata"/>
    <tag k="operator" v="Magyar Posta Zrt."/>
    <tag k="payment:cash" v="yes"/>
    <tag k="payment:debit_cards" v="yes"/>
    <tag k="phone" v="+3617678200"/>
    <tag k="ref:vatin:hu" v="10901232-2-44"/>
    <tag k="source" v="website"/>
    <tag k="source:date" v="2018-07-17"/>
    <tag k="vending" v="cheques"/>
    <tag k="website" v="https://www.posta.hu"/>
    <tag k="youtube" v="https://www.youtube.com/user/magyarpostaofficial"/>
  </node>
  <!-- Original coordinates: POINT (47.478367 19.04946) -->
  <!-- OSM <-> POI distance: None m-->
  <!-- Original tags:  -->
  <node action="modify" changeset="99999" id="-89" lat="47.478367" lon="19.04946" timestamp="" uid="4579407" user="KAMI" version="99999">
    <tag k="addr:city" v="Budapest"/>
    <tag k="addr:country" v="HU"/>
    <tag k="addr:housenumber" v="48"/>
    <tag k="addr:postcode" v="1111"/>
    <tag k="addr:street" v="Bartók Béla út"/>
    <tag k="amenity" v="vending_machine"/>
    <tag k="branch" v="Rossmann üzlet"/>
    <tag k="brand" v="Magyar Posta"/>
    <tag k="brand:wikidata" v="Q145614"/>
    <tag k="brand:wikipedia" v="hu:Magyar Posta Zrt."/>
    <tag k="email" v="ugyfelszolgalat@posta.hu"/>
    <tag k="facebook" v="https://www.facebook.com/MagyarPosta"/>
    <tag k="import" v="osm_poi_matchmaker"/>
    <tag k="instagram" v="https://www.instagram.com/magyar_posta_zrt"/>
    <tag k="name" v="Posta csekkautomata"/>
    <tag k="operator" v="Magyar Posta Zrt."/>
    <tag k="payment:cash" v="yes"/>
    <tag k="payment:debit_cards" v="yes"/>
    <tag k="phone" v="+3617678200"/>
    <tag k="ref:vatin:hu" v="10901232-2-44"/>
    <tag k="source" v="website"/>
    <tag k="source:date" v="2018-07-17"/>
    <tag k="vending" v="cheques"/>
    <tag k="website" v="https://www.posta.hu"/>
    <tag k="youtube" v="https://www.youtube.com/user/magyarpostaofficial"/>
  </node>
  <!-- Original coordinates: POINT (47.423601 19.071706) -->
  <!-- OSM <-> POI distance: None m-->
  <!-- Original tags:  -->
  <node action="modify" changeset="99999" id="-90" lat="47.423601" lon="19.071706" timestamp="" uid="4579407" user="KAMI" version="99999">
    <tag k="addr:city" v="Budapest"/>
    <tag k="addr:country" v="HU"/>
    <tag k="addr:housenumber" v="20"/>
    <tag k="addr:postcode" v="1212"/>
    <tag k="addr:street" v="Görgey Artúr tér"/>
    <tag k="amenity" v="vending_machine"/>
    <tag k="branch" v="Rossmann üzlet"/>
    <tag k="brand" v="Magyar Posta"/>
    <tag k="brand:wikidata" v="Q145614"/>
    <tag k="brand:wikipedia" v="hu:Magyar Posta Zrt."/>
    <tag k="email" v="ugyfelszolgalat@posta.hu"/>
    <tag k="facebook" v="https://www.facebook.com/MagyarPosta"/>
    <tag k="import" v="osm_poi_matchmaker"/>
    <tag k="instagram" v="https://www.instagram.com/magyar_posta_zrt"/>
    <tag k="name" v="Posta csekkautomata"/>
    <tag k="operator" v="Magyar Posta Zrt."/>
    <tag k="payment:cash" v="yes"/>
    <tag k="payment:debit_cards" v="yes"/>
    <tag k="phone" v="+3617678200"/>
    <tag k="ref:vatin:hu" v="10901232-2-44"/>
    <tag k="source" v="website"/>
    <tag k="source:date" v="2018-07-17"/>
    <tag k="vending" v="cheques"/>
    <tag k="website" v="https://www.posta.hu"/>
    <tag k="youtube" v="https://www.youtube.com/user/magyarpostaofficial"/>
  </node>
  <!-- Original coordinates: POINT (47.378426 18.9253) -->
  <!-- OSM <-> POI distance: None m-->
  <!-- Original tags:  -->
  <node action="modify" changeset="99999" id="-91" lat="47.378426" lon="18.9253" timestamp="" uid="4579407" user="KAMI" version="99999">
    <tag k="addr:city" v="Érd"/>
    <tag k="addr:country" v="HU"/>
    <tag k="addr:housenumber" v="28"/>
    <tag k="addr:postcode" v="2030"/>
    <tag k="addr:street" v="Budai út"/>
    <tag k="amenity" v="vending_machine"/>
    <tag k="branch" v="Rossmann üzlet"/>
    <tag k="brand" v="Magyar Posta"/>
    <tag k="brand:wikidata" v="Q145614"/>
    <tag k="brand:wikipedia" v="hu:Magyar Posta Zrt."/>
    <tag k="email" v="ugyfelszolgalat@posta.hu"/>
    <tag k="facebook" v="https://www.facebook.com/MagyarPosta"/>
    <tag k="import" v="osm_poi_matchmaker"/>
    <tag k="instagram" v="https://www.instagram.com/magyar_posta_zrt"/>
    <tag k="name" v="Posta csekkautomata"/>
    <tag k="operator" v="Magyar Posta Zrt."/>
    <tag k="payment:cash" v="yes"/>
    <tag k="payment:debit_cards" v="yes"/>
    <tag k="phone" v="+3617678200"/>
    <tag k="ref:vatin:hu" v="10901232-2-44"/>
    <tag k="source" v="website"/>
    <tag k="source:date" v="2018-07-17"/>
    <tag k="vending" v="cheques"/>
    <tag k="website" v="https://www.posta.hu"/>
    <tag k="youtube" v="https://www.youtube.com/user/magyarpostaofficial"/>
  </node>
  <!-- Original coordinates: POINT (47.177638 20.191561) -->
  <!-- OSM <-> POI distance: None m-->
  <!-- Original tags:  -->
  <node action="modify" changeset="99999" id="-92" lat="47.177638" lon="20.191561" timestamp="" uid="4579407" user="KAMI" version="99999">
    <tag k="addr:city" v="Szolnok"/>
    <tag k="addr:country" v="HU"/>
    <tag k="addr:housenumber" v="28/A"/>
    <tag k="addr:postcode" v="5000"/>
    <tag k="addr:street" v="Ady Endre utca"/>
    <tag k="amenity" v="vending_machine"/>
    <tag k="branch" v="Rossmann üzlet"/>
    <tag k="brand" v="Magyar Posta"/>
    <tag k="brand:wikidata" v="Q145614"/>
    <tag k="brand:wikipedia" v="hu:Magyar Posta Zrt."/>
    <tag k="email" v="ugyfelszolgalat@posta.hu"/>
    <tag k="facebook" v="https://www.facebook.com/MagyarPosta"/>
    <tag k="import" v="osm_poi_matchmaker"/>
    <tag k="instagram" v="https://www.instagram.com/magyar_posta_zrt"/>
    <tag k="name" v="Posta csekkautomata"/>
    <tag k="operator" v="Magyar Posta Zrt."/>
    <tag k="payment:cash" v="yes"/>
    <tag k="payment:debit_cards" v="yes"/>
    <tag k="phone" v="+3617678200"/>
    <tag k="ref:vatin:hu" v="10901232-2-44"/>
    <tag k="source" v="website"/>
    <tag k="source:date" v="2018-07-17"/>
    <tag k="vending" v="cheques"/>
    <tag k="website" v="https://www.posta.hu"/>
    <tag k="youtube" v="https://www.youtube.com/user/magyarpostaofficial"/>
  </node>
  <!-- Original coordinates: POINT (47.498084 19.074636) -->
  <!-- OSM <-> POI distance: None m-->
  <!-- Original tags:  -->
  <node action="modify" changeset="99999" id="-93" lat="47.498084" lon="19.074636" timestamp="" uid="4579407" user="KAMI" version="99999">
    <tag k="addr:city" v="Budapest"/>
    <tag k="addr:country" v="HU"/>
    <tag k="addr:housenumber" v="57/B"/>
    <tag k="addr:postcode" v="1081"/>
    <tag k="addr:street" v="Rákóczi út"/>
    <tag k="amenity" v="vending_machine"/>
    <tag k="branch" v="Rossmann üzlet"/>
    <tag k="brand" v="Magyar Posta"/>
    <tag k="brand:wikidata" v="Q145614"/>
    <tag k="brand:wikipedia" v="hu:Magyar Posta Zrt."/>
    <tag k="email" v="ugyfelszolgalat@posta.hu"/>
    <tag k="facebook" v="https://www.facebook.com/MagyarPosta"/>
    <tag k="import" v="osm_poi_matchmaker"/>
    <tag k="instagram" v="https://www.instagram.com/magyar_posta_zrt"/>
    <tag k="name" v="Posta csekkautomata"/>
    <tag k="operator" v="Magyar Posta Zrt."/>
    <tag k="payment:cash" v="yes"/>
    <tag k="payment:debit_cards" v="yes"/>
    <tag k="phone" v="+3617678200"/>
    <tag k="ref:vatin:hu" v="10901232-2-44"/>
    <tag k="source" v="website"/>
    <tag k="source:date" v="2018-07-17"/>
    <tag k="vending" v="cheques"/>
    <tag k="website" v="https://www.posta.hu"/>
    <tag k="youtube" v="https://www.youtube.com/user/magyarpostaofficial"/>
  </node>
  <!-- Original coordinates: POINT (47.540242 19.24203) -->
  <!-- OSM <-> POI distance: None m-->
  <!-- Original tags:  -->
  <node action="modify" changeset="99999" id="-94" lat="47.540242" lon="19.24203" timestamp="" uid="4579407" user="KAMI" version="99999">
    <tag k="addr:city" v="Csömör"/>
    <tag k="addr:country" v="HU"/>
    <tag k="addr:housenumber" v="8"/>
    <tag k="addr:postcode" v="2141"/>
    <tag k="addr:street" v="Határ út"/>
    <tag k="amenity" v="vending_machine"/>
    <tag k="branch" v="Rossmann üzlet"/>
    <tag k="brand" v="Magyar Posta"/>
    <tag k="brand:wikidata" v="Q145614"/>
    <tag k="brand:wikipedia" v="hu:Magyar Posta Zrt."/>
    <tag k="email" v="ugyfelszolgalat@posta.hu"/>
    <tag k="facebook" v="https://www.facebook.com/MagyarPosta"/>
    <tag k="import" v="osm_poi_matchmaker"/>
    <tag k="instagram" v="https://www.instagram.com/magyar_posta_zrt"/>
    <tag k="name" v="Posta csekkautomata"/>
    <tag k="operator" v="Magyar Posta Zrt."/>
    <tag k="payment:cash" v="yes"/>
    <tag k="payment:debit_cards" v="yes"/>
    <tag k="phone" v="+3617678200"/>
    <tag k="ref:vatin:hu" v="10901232-2-44"/>
    <tag k="source" v="website"/>
    <tag k="source:date" v="2018-07-17"/>
    <tag k="vending" v="cheques"/>
    <tag k="website" v="https://www.posta.hu"/>
    <tag k="youtube" v="https://www.youtube.com/user/magyarpostaofficial"/>
  </node>
  <!-- Original coordinates: POINT (47.650237 19.070584) -->
  <!-- OSM <-> POI distance: None m-->
  <!-- Original tags:  -->
  <node action="modify" changeset="99999" id="-95" lat="47.650237" lon="19.070584" timestamp="" uid="4579407" user="KAMI" version="99999">
    <tag k="addr:city" v="Szentendre"/>
    <tag k="addr:country" v="HU"/>
    <tag k="addr:housenumber" v="20"/>
    <tag k="addr:postcode" v="2000"/>
    <tag k="addr:street" v="Dózsa György út"/>
    <tag k="amenity" v="vending_machine"/>
    <tag k="branch" v="Rossmann üzlet"/>
    <tag k="brand" v="Magyar Posta"/>
    <tag k="brand:wikidata" v="Q145614"/>
    <tag k="brand:wikipedia" v="hu:Magyar Posta Zrt."/>
    <tag k="email" v="ugyfelszolgalat@posta.hu"/>
    <tag k="facebook" v="https://www.facebook.com/MagyarPosta"/>
    <tag k="import" v="osm_poi_matchmaker"/>
    <tag k="instagram" v="https://www.instagram.com/magyar_posta_zrt"/>
    <tag k="name" v="Posta csekkautomata"/>
    <tag k="operator" v="Magyar Posta Zrt."/>
    <tag k="payment:cash" v="yes"/>
    <tag k="payment:debit_cards" v="yes"/>
    <tag k="phone" v="+3617678200"/>
    <tag k="ref:vatin:hu" v="10901232-2-44"/>
    <tag k="source" v="website"/>
    <tag k="source:date" v="2018-07-17"/>
    <tag k="vending" v="cheques"/>
    <tag k="website" v="https://www.posta.hu"/>
    <tag k="youtube" v="https://www.youtube.com/user/magyarpostaofficial"/>
  </node>
  <!-- Original coordinates: POINT (47.688933 17.644594) -->
  <!-- OSM <-> POI distance: None m-->
  <!-- Original tags:  -->
  <node action="modify" changeset="99999" id="-96" lat="47.688933" lon="17.644594" timestamp="" uid="4579407" user="KAMI" version="99999">
    <tag k="addr:city" v="Győr"/>
    <tag k="addr:country" v="HU"/>
    <tag k="addr:housenumber" v="1"/>
    <tag k="addr:postcode" v="9027"/>
    <tag k="addr:street" v="Budai út"/>
    <tag k="amenity" v="vending_machine"/>
    <tag k="branch" v="Rossmann üzlet"/>
    <tag k="brand" v="Magyar Posta"/>
    <tag k="brand:wikidata" v="Q145614"/>
    <tag k="brand:wikipedia" v="hu:Magyar Posta Zrt."/>
    <tag k="email" v="ugyfelszolgalat@posta.hu"/>
    <tag k="facebook" v="https://www.facebook.com/MagyarPosta"/>
    <tag k="import" v="osm_poi_matchmaker"/>
    <tag k="instagram" v="https://www.instagram.com/magyar_posta_zrt"/>
    <tag k="name" v="Posta csekkautomata"/>
    <tag k="operator" v="Magyar Posta Zrt."/>
    <tag k="payment:cash" v="yes"/>
    <tag k="payment:debit_cards" v="yes"/>
    <tag k="phone" v="+3617678200"/>
    <tag k="ref:vatin:hu" v="10901232-2-44"/>
    <tag k="source" v="website"/>
    <tag k="source:date" v="2018-07-17"/>
    <tag k="vending" v="cheques"/>
    <tag k="website" v="https://www.posta.hu"/>
    <tag k="youtube" v="https://www.youtube.com/user/magyarpostaofficial"/>
  </node>
  <!-- Original coordinates: POINT (46.072113 18.232385) -->
  <!-- OSM <-> POI distance: None m-->
  <!-- Original tags:  -->
  <node action="modify" changeset="99999" id="-97" lat="46.072113" lon="18.232385" timestamp="" uid="4579407" user="KAMI" version="99999">
    <tag k="addr:city" v="Pécs"/>
    <tag k="addr:country" v="HU"/>
    <tag k="addr:housenumber" v="11"/>
    <tag k="addr:postcode" v="7622"/>
    <tag k="addr:street" v="Bajcsy-Zsilinszky Endre út"/>
    <tag k="amenity" v="vending_machine"/>
    <tag k="branch" v="Rossmann üzlet"/>
    <tag k="brand" v="Magyar Posta"/>
    <tag k="brand:wikidata" v="Q145614"/>
    <tag k="brand:wikipedia" v="hu:Magyar Posta Zrt."/>
    <tag k="email" v="ugyfelszolgalat@posta.hu"/>
    <tag k="facebook" v="https://www.facebook.com/MagyarPosta"/>
    <tag k="import" v="osm_poi_matchmaker"/>
    <tag k="instagram" v="https://www.instagram.com/magyar_posta_zrt"/>
    <tag k="name" v="Posta csekkautomata"/>
    <tag k="operator" v="Magyar Posta Zrt."/>
    <tag k="payment:cash" v="yes"/>
    <tag k="payment:debit_cards" v="yes"/>
    <tag k="phone" v="+3617678200"/>
    <tag k="ref:vatin:hu" v="10901232-2-44"/>
    <tag k="source" v="website"/>
    <tag k="source:date" v="2018-07-17"/>
    <tag k="vending" v="cheques"/>
    <tag k="website" v="https://www.posta.hu"/>
    <tag k="youtube" v="https://www.youtube.com/user/magyarpostaofficial"/>
  </node>
  <!-- Original coordinates: POINT (47.512731 19.058371) -->
  <!-- OSM <-> POI distance: None m-->
  <!-- Original tags:  -->
  <node action="modify" changeset="99999" id="-98" lat="47.512731" lon="19.058371" timestamp="" uid="4579407" user="KAMI" version="99999">
    <tag k="addr:city" v="Budapest"/>
    <tag k="addr:country" v="HU"/>
    <tag k="addr:housenumber" v="1-3"/>
    <tag k="addr:postcode" v="1062"/>
    <tag k="addr:street" v="Váci út"/>
    <tag k="amenity" v="vending_machine"/>
    <tag k="branch" v="Rossmann üzlet"/>
    <tag k="brand" v="Magyar Posta"/>
    <tag k="brand:wikidata" v="Q145614"/>
    <tag k="brand:wikipedia" v="hu:Magyar Posta Zrt."/>
    <tag k="email" v="ugyfelszolgalat@posta.hu"/>
    <tag k="facebook" v="https://www.facebook.com/MagyarPosta"/>
    <tag k="import" v="osm_poi_matchmaker"/>
    <tag k="instagram" v="https://www.instagram.com/magyar_posta_zrt"/>
    <tag k="name" v="Posta csekkautomata"/>
    <tag k="operator" v="Magyar Posta Zrt."/>
    <tag k="payment:cash" v="yes"/>
    <tag k="payment:debit_cards" v="yes"/>
    <tag k="phone" v="+3617678200"/>
    <tag k="ref:vatin:hu" v="10901232-2-44"/>
    <tag k="source" v="website"/>
    <tag k="source:date" v="2018-07-17"/>
    <tag k="vending" v="cheques"/>
    <tag k="website" v="https://www.posta.hu"/>
    <tag k="youtube" v="https://www.youtube.com/user/magyarpostaofficial"/>
  </node>
  <!-- Original coordinates: POINT (47.531556 19.081374) -->
  <!-- OSM <-> POI distance: None m-->
  <!-- Original tags:  -->
  <node action="modify" changeset="99999" id="-99" lat="47.531556" lon="19.081374" timestamp="" uid="4579407" user="KAMI" version="99999">
    <tag k="addr:city" v="Budapest"/>
    <tag k="addr:country" v="HU"/>
    <tag k="addr:housenumber" v="1-3"/>
    <tag k="addr:postcode" v="1132"/>
    <tag k="addr:street" v="Béke tér"/>
    <tag k="amenity" v="vending_machine"/>
    <tag k="branch" v="Rossmann üzlet"/>
    <tag k="brand" v="Magyar Posta"/>
    <tag k="brand:wikidata" v="Q145614"/>
    <tag k="brand:wikipedia" v="hu:Magyar Posta Zrt."/>
    <tag k="email" v="ugyfelszolgalat@posta.hu"/>
    <tag k="facebook" v="https://www.facebook.com/MagyarPosta"/>
    <tag k="import" v="osm_poi_matchmaker"/>
    <tag k="instagram" v="https://www.instagram.com/magyar_posta_zrt"/>
    <tag k="name" v="Posta csekkautomata"/>
    <tag k="operator" v="Magyar Posta Zrt."/>
    <tag k="payment:cash" v="yes"/>
    <tag k="payment:debit_cards" v="yes"/>
    <tag k="phone" v="+3617678200"/>
    <tag k="ref:vatin:hu" v="10901232-2-44"/>
    <tag k="source" v="website"/>
    <tag k="source:date" v="2018-07-17"/>
    <tag k="vending" v="cheques"/>
    <tag k="website" v="https://www.posta.hu"/>
    <tag k="youtube" v="https://www.youtube.com/user/magyarpostaofficial"/>
  </node>
  <!-- Original coordinates: POINT (47.506871 19.145178) -->
  <!-- OSM <-> POI distance: None m-->
  <!-- Original tags:  -->
  <node action="modify" changeset="99999" id="-100" lat="47.506871" lon="19.145178" timestamp="" uid="4579407" user="KAMI" version="99999">
    <tag k="addr:city" v="Budapest"/>
    <tag k="addr:country" v="HU"/>
    <tag k="addr:housenumber" v="3/C"/>
    <tag k="addr:postcode" v="1144"/>
    <tag k="addr:street" v="Rákosfalva park"/>
    <tag k="amenity" v="vending_machine"/>
    <tag k="branch" v="Rossmann üzlet"/>
    <tag k="brand" v="Magyar Posta"/>
    <tag k="brand:wikidata" v="Q145614"/>
    <tag k="brand:wikipedia" v="hu:Magyar Posta Zrt."/>
    <tag k="email" v="ugyfelszolgalat@posta.hu"/>
    <tag k="facebook" v="https://www.facebook.com/MagyarPosta"/>
    <tag k="import" v="osm_poi_matchmaker"/>
    <tag k="instagram" v="https://www.instagram.com/magyar_posta_zrt"/>
    <tag k="name" v="Posta csekkautomata"/>
    <tag k="operator" v="Magyar Posta Zrt."/>
    <tag k="payment:cash" v="yes"/>
    <tag k="payment:debit_cards" v="yes"/>
    <tag k="phone" v="+3617678200"/>
    <tag k="ref:vatin:hu" v="10901232-2-44"/>
    <tag k="source" v="website"/>
    <tag k="source:date" v="2018-07-17"/>
    <tag k="vending" v="cheques"/>
    <tag k="website" v="https://www.posta.hu"/>
    <tag k="youtube" v="https://www.youtube.com/user/magyarpostaofficial"/>
  </node>
  <!-- Original coordinates: POINT (47.492964 19.072686) -->
  <!-- OSM <-> POI distance: None m-->
  <!-- Original tags:  -->
  <node action="modify" changeset="99999" id="-101" lat="47.492964" lon="19.072686" timestamp="" uid="4579407" user="KAMI" version="99999">
    <tag k="addr:city" v="Budapest"/>
    <tag k="addr:country" v="HU"/>
    <tag k="addr:housenumber" v="7-9"/>
    <tag k="addr:postcode" v="1084"/>
    <tag k="addr:street" v="Rákóczi tér"/>
    <tag k="amenity" v="vending_machine"/>
    <tag k="branch" v="Rossmann üzlet"/>
    <tag k="brand" v="Magyar Posta"/>
    <tag k="brand:wikidata" v="Q145614"/>
    <tag k="brand:wikipedia" v="hu:Magyar Posta Zrt."/>
    <tag k="email" v="ugyfelszolgalat@posta.hu"/>
    <tag k="facebook" v="https://www.facebook.com/MagyarPosta"/>
    <tag k="import" v="osm_poi_matchmaker"/>
    <tag k="instagram" v="https://www.instagram.com/magyar_posta_zrt"/>
    <tag k="name" v="Posta csekkautomata"/>
    <tag k="operator" v="Magyar Posta Zrt."/>
    <tag k="payment:cash" v="yes"/>
    <tag k="payment:debit_cards" v="yes"/>
    <tag k="phone" v="+3617678200"/>
    <tag k="ref:vatin:hu" v="10901232-2-44"/>
    <tag k="source" v="website"/>
    <tag k="source:date" v="2018-07-17"/>
    <tag k="vending" v="cheques"/>
    <tag k="website" v="https://www.posta.hu"/>
    <tag k="youtube" v="https://www.youtube.com/user/magyarpostaofficial"/>
  </node>
  <!-- Original coordinates: POINT (47.458191 19.146069) -->
  <!-- OSM <-> POI distance: None m-->
  <!-- Original tags:  -->
  <node action="modify" changeset="99999" id="-102" lat="47.458191" lon="19.146069" timestamp="" uid="4579407" user="KAMI" version="99999">
    <tag k="addr:city" v="Budapest"/>
    <tag k="addr:country" v="HU"/>
    <tag k="addr:housenumber" v="2"/>
    <tag k="addr:postcode" v="1191"/>
    <tag k="addr:street" v="Kossuth tér"/>
    <tag k="amenity" v="vending_machine"/>
    <tag k="branch" v="Rossmann üzlet"/>
    <tag k="brand" v="Magyar Posta"/>
    <tag k="brand:wikidata" v="Q145614"/>
    <tag k="brand:wikipedia" v="hu:Magyar Posta Zrt."/>
    <tag k="email" v="ugyfelszolgalat@posta.hu"/>
    <tag k="facebook" v="https://www.facebook.com/MagyarPosta"/>
    <tag k="import" v="osm_poi_matchmaker"/>
    <tag k="instagram" v="https://www.instagram.com/magyar_posta_zrt"/>
    <tag k="name" v="Posta csekkautomata"/>
    <tag k="operator" v="Magyar Posta Zrt."/>
    <tag k="payment:cash" v="yes"/>
    <tag k="payment:debit_cards" v="yes"/>
    <tag k="phone" v="+3617678200"/>
    <tag k="ref:vatin:hu" v="10901232-2-44"/>
    <tag k="source" v="website"/>
    <tag k="source:date" v="2018-07-17"/>
    <tag k="vending" v="cheques"/>
    <tag k="website" v="https://www.posta.hu"/>
    <tag k="youtube" v="https://www.youtube.com/user/magyarpostaofficial"/>
  </node>
  <!-- Original coordinates: POINT (47.385384 19.345759) -->
  <!-- OSM <-> POI distance: None m-->
  <!-- Original tags:  -->
  <node action="modify" changeset="99999" id="-103" lat="47.385384" lon="19.345759" timestamp="" uid="4579407" user="KAMI" version="99999">
    <tag k="addr:city" v="Üllő"/>
    <tag k="addr:country" v="HU"/>
    <tag k="addr:housenumber" v="100"/>
    <tag k="addr:postcode" v="2225"/>
    <tag k="addr:street" v="Pesti út"/>
    <tag k="amenity" v="vending_machine"/>
    <tag k="branch" v="Rossmann üzlet"/>
    <tag k="brand" v="Magyar Posta"/>
    <tag k="brand:wikidata" v="Q145614"/>
    <tag k="brand:wikipedia" v="hu:Magyar Posta Zrt."/>
    <tag k="email" v="ugyfelszolgalat@posta.hu"/>
    <tag k="facebook" v="https://www.facebook.com/MagyarPosta"/>
    <tag k="import" v="osm_poi_matchmaker"/>
    <tag k="instagram" v="https://www.instagram.com/magyar_posta_zrt"/>
    <tag k="name" v="Posta csekkautomata"/>
    <tag k="operator" v="Magyar Posta Zrt."/>
    <tag k="payment:cash" v="yes"/>
    <tag k="payment:debit_cards" v="yes"/>
    <tag k="phone" v="+3617678200"/>
    <tag k="ref:vatin:hu" v="10901232-2-44"/>
    <tag k="source" v="website"/>
    <tag k="source:date" v="2018-07-17"/>
    <tag k="vending" v="cheques"/>
    <tag k="website" v="https://www.posta.hu"/>
    <tag k="youtube" v="https://www.youtube.com/user/magyarpostaofficial"/>
  </node>
  <!-- Original coordinates: POINT (47.502527 19.136949) -->
  <!-- OSM <-> POI distance: None m-->
  <!-- Original tags:  -->
  <node action="modify" changeset="99999" id="-104" lat="47.502527" lon="19.136949" timestamp="" uid="4579407" user="KAMI" version="99999">
    <tag k="addr:city" v="Budapest"/>
    <tag k="addr:country" v="HU"/>
    <tag k="addr:housenumber" v="25"/>
    <tag k="addr:postcode" v="1106"/>
    <tag k="addr:street" v="Örs vezér tere"/>
    <tag k="amenity" v="vending_machine"/>
    <tag k="branch" v="Rossmann üzlet"/>
    <tag k="brand" v="Magyar Posta"/>
    <tag k="brand:wikidata" v="Q145614"/>
    <tag k="brand:wikipedia" v="hu:Magyar Posta Zrt."/>
    <tag k="email" v="ugyfelszolgalat@posta.hu"/>
    <tag k="facebook" v="https://www.facebook.com/MagyarPosta"/>
    <tag k="import" v="osm_poi_matchmaker"/>
    <tag k="instagram" v="https://www.instagram.com/magyar_posta_zrt"/>
    <tag k="name" v="Posta csekkautomata"/>
    <tag k="operator" v="Magyar Posta Zrt."/>
    <tag k="payment:cash" v="yes"/>
    <tag k="payment:debit_cards" v="yes"/>
    <tag k="phone" v="+3617678200"/>
    <tag k="ref:vatin:hu" v="10901232-2-44"/>
    <tag k="source" v="website"/>
    <tag k="source:date" v="2018-07-17"/>
    <tag k="vending" v="cheques"/>
    <tag k="website" v="https://www.posta.hu"/>
    <tag k="youtube" v="https://www.youtube.com/user/magyarpostaofficial"/>
  </node>
  <!-- Original coordinates: POINT (47.516457 19.05936) -->
  <!-- OSM <-> POI distance: None m-->
  <!-- Original tags:  -->
  <node action="modify" changeset="99999" id="-105" lat="47.516457" lon="19.05936" timestamp="" uid="4579407" user="KAMI" version="99999">
    <tag k="addr:city" v="Budapest"/>
    <tag k="addr:country" v="HU"/>
    <tag k="addr:housenumber" v="36-38"/>
    <tag k="addr:postcode" v="1132"/>
    <tag k="addr:street" v="Váci út"/>
    <tag k="amenity" v="vending_machine"/>
    <tag k="branch" v="Rossmann üzlet"/>
    <tag k="brand" v="Magyar Posta"/>
    <tag k="brand:wikidata" v="Q145614"/>
    <tag k="brand:wikipedia" v="hu:Magyar Posta Zrt."/>
    <tag k="email" v="ugyfelszolgalat@posta.hu"/>
    <tag k="facebook" v="https://www.facebook.com/MagyarPosta"/>
    <tag k="import" v="osm_poi_matchmaker"/>
    <tag k="instagram" v="https://www.instagram.com/magyar_posta_zrt"/>
    <tag k="name" v="Posta csekkautomata"/>
    <tag k="operator" v="Magyar Posta Zrt."/>
    <tag k="payment:cash" v="yes"/>
    <tag k="payment:debit_cards" v="yes"/>
    <tag k="phone" v="+3617678200"/>
    <tag k="ref:vatin:hu" v="10901232-2-44"/>
    <tag k="source" v="website"/>
    <tag k="source:date" v="2018-07-17"/>
    <tag k="vending" v="cheques"/>
    <tag k="website" v="https://www.posta.hu"/>
    <tag k="youtube" v="https://www.youtube.com/user/magyarpostaofficial"/>
  </node>
  <!-- Original coordinates: POINT (47.541809 19.142312) -->
  <!-- OSM <-> POI distance: None m-->
  <!-- Original tags:  -->
  <node action="modify" changeset="99999" id="-106" lat="47.541809" lon="19.142312" timestamp="" uid="4579407" user="KAMI" version="99999">
    <tag k="addr:city" v="Budapest"/>
    <tag k="addr:country" v="HU"/>
    <tag k="addr:housenumber" v="24-28"/>
    <tag k="addr:postcode" v="1157"/>
    <tag k="addr:street" v="Zsókavár utca"/>
    <tag k="amenity" v="vending_machine"/>
    <tag k="branch" v="Rossmann üzlet"/>
    <tag k="brand" v="Magyar Posta"/>
    <tag k="brand:wikidata" v="Q145614"/>
    <tag k="brand:wikipedia" v="hu:Magyar Posta Zrt."/>
    <tag k="email" v="ugyfelszolgalat@posta.hu"/>
    <tag k="facebook" v="https://www.facebook.com/MagyarPosta"/>
    <tag k="import" v="osm_poi_matchmaker"/>
    <tag k="instagram" v="https://www.instagram.com/magyar_posta_zrt"/>
    <tag k="name" v="Posta csekkautomata"/>
    <tag k="operator" v="Magyar Posta Zrt."/>
    <tag k="payment:cash" v="yes"/>
    <tag k="payment:debit_cards" v="yes"/>
    <tag k="phone" v="+3617678200"/>
    <tag k="ref:vatin:hu" v="10901232-2-44"/>
    <tag k="source" v="website"/>
    <tag k="source:date" v="2018-07-17"/>
    <tag k="vending" v="cheques"/>
    <tag k="website" v="https://www.posta.hu"/>
    <tag k="youtube" v="https://www.youtube.com/user/magyarpostaofficial"/>
  </node>
  <!-- Original coordinates: POINT (47.485381 19.225848) -->
  <!-- OSM <-> POI distance: None m-->
  <!-- Original tags:  -->
  <node action="modify" changeset="99999" id="-107" lat="47.485381" lon="19.225848" timestamp="" uid="4579407" user="KAMI" version="99999">
    <tag k="addr:city" v="Budapest"/>
    <tag k="addr:country" v="HU"/>
    <tag k="addr:housenumber" v="2"/>
    <tag k="addr:postcode" v="1173"/>
    <tag k="addr:street" v="Pesti út"/>
    <tag k="amenity" v="vending_machine"/>
    <tag k="branch" v="Rossmann üzlet"/>
    <tag k="brand" v="Magyar Posta"/>
    <tag k="brand:wikidata" v="Q145614"/>
    <tag k="brand:wikipedia" v="hu:Magyar Posta Zrt."/>
    <tag k="email" v="ugyfelszolgalat@posta.hu"/>
    <tag k="facebook" v="https://www.facebook.com/MagyarPosta"/>
    <tag k="import" v="osm_poi_matchmaker"/>
    <tag k="instagram" v="https://www.instagram.com/magyar_posta_zrt"/>
    <tag k="name" v="Posta csekkautomata"/>
    <tag k="operator" v="Magyar Posta Zrt."/>
    <tag k="payment:cash" v="yes"/>
    <tag k="payment:debit_cards" v="yes"/>
    <tag k="phone" v="+3617678200"/>
    <tag k="ref:vatin:hu" v="10901232-2-44"/>
    <tag k="source" v="website"/>
    <tag k="source:date" v="2018-07-17"/>
    <tag k="vending" v="cheques"/>
    <tag k="website" v="https://www.posta.hu"/>
    <tag k="youtube" v="https://www.youtube.com/user/magyarpostaofficial"/>
  </node>
  <!-- Original coordinates: POINT (47.461864 19.131845) -->
  <!-- OSM <-> POI distance: None m-->
  <!-- Original tags:  -->
  <node action="modify" changeset="99999" id="-108" lat="47.461864" lon="19.131845" timestamp="" uid="4579407" user="KAMI" version="99999">
    <tag k="addr:city" v="Budapest"/>
    <tag k="addr:country" v="HU"/>
    <tag k="addr:housenumber" v="7-17"/>
    <tag k="addr:postcode" v="1191"/>
    <tag k="addr:street" v="Szalay utca"/>
    <tag k="amenity" v="vending_machine"/>
    <tag k="branch" v="Rossmann üzlet"/>
    <tag k="brand" v="Magyar Posta"/>
    <tag k="brand:wikidata" v="Q145614"/>
    <tag k="brand:wikipedia" v="hu:Magyar Posta Zrt."/>
    <tag k="email" v="ugyfelszolgalat@posta.hu"/>
    <tag k="facebook" v="https://www.facebook.com/MagyarPosta"/>
    <tag k="import" v="osm_poi_matchmaker"/>
    <tag k="instagram" v="https://www.instagram.com/magyar_posta_zrt"/>
    <tag k="name" v="Posta csekkautomata"/>
    <tag k="operator" v="Magyar Posta Zrt."/>
    <tag k="payment:cash" v="yes"/>
    <tag k="payment:debit_cards" v="yes"/>
    <tag k="phone" v="+3617678200"/>
    <tag k="ref:vatin:hu" v="10901232-2-44"/>
    <tag k="source" v="website"/>
    <tag k="source:date" v="2018-07-17"/>
    <tag k="vending" v="cheques"/>
    <tag k="website" v="https://www.posta.hu"/>
    <tag k="youtube" v="https://www.youtube.com/user/magyarpostaofficial"/>
  </node>
  <!-- Original coordinates: POINT (47.18743 19.319934) -->
  <!-- OSM <-> POI distance: None m-->
  <!-- Original tags:  -->
  <node action="modify" changeset="99999" id="-109" lat="47.18743" lon="19.319934" timestamp="" uid="4579407" user="KAMI" version="99999">
    <tag k="addr:city" v="Dabas"/>
    <tag k="addr:country" v="HU"/>
    <tag k="addr:housenumber" v="46/B"/>
    <tag k="addr:postcode" v="2370"/>
    <tag k="addr:street" v="Bartók Béla út"/>
    <tag k="amenity" v="vending_machine"/>
    <tag k="branch" v="Rossmann üzlet"/>
    <tag k="brand" v="Magyar Posta"/>
    <tag k="brand:wikidata" v="Q145614"/>
    <tag k="brand:wikipedia" v="hu:Magyar Posta Zrt."/>
    <tag k="email" v="ugyfelszolgalat@posta.hu"/>
    <tag k="facebook" v="https://www.facebook.com/MagyarPosta"/>
    <tag k="import" v="osm_poi_matchmaker"/>
    <tag k="instagram" v="https://www.instagram.com/magyar_posta_zrt"/>
    <tag k="name" v="Posta csekkautomata"/>
    <tag k="operator" v="Magyar Posta Zrt."/>
    <tag k="payment:cash" v="yes"/>
    <tag k="payment:debit_cards" v="yes"/>
    <tag k="phone" v="+3617678200"/>
    <tag k="ref:vatin:hu" v="10901232-2-44"/>
    <tag k="source" v="website"/>
    <tag k="source:date" v="2018-07-17"/>
    <tag k="vending" v="cheques"/>
    <tag k="website" v="https://www.posta.hu"/>
    <tag k="youtube" v="https://www.youtube.com/user/magyarpostaofficial"/>
  </node>
  <!-- Original coordinates: POINT (46.2734358 20.1049116) -->
  <!-- OSM <-> POI distance: None m-->
  <!-- Original tags:  -->
  <node action="modify" changeset="99999" id="-110" lat="46.2734358" lon="20.1049116" timestamp="" uid="4579407" user="KAMI" version="99999">
    <tag k="addr:city" v="Szeged"/>
    <tag k="addr:country" v="HU"/>
    <tag k="addr:housenumber" v="4"/>
    <tag k="addr:postcode" v="6728"/>
    <tag k="addr:street" v="Zápor út"/>
    <tag k="amenity" v="vending_machine"/>
    <tag k="branch" v="Szeged Auchan"/>
    <tag k="brand" v="Magyar Posta"/>
    <tag k="brand:wikidata" v="Q145614"/>
    <tag k="brand:wikipedia" v="hu:Magyar Posta Zrt."/>
    <tag k="email" v="ugyfelszolgalat@posta.hu"/>
    <tag k="facebook" v="https://www.facebook.com/MagyarPosta"/>
    <tag k="import" v="osm_poi_matchmaker"/>
    <tag k="instagram" v="https://www.instagram.com/magyar_posta_zrt"/>
    <tag k="name" v="Posta csekkautomata"/>
    <tag k="operator" v="Magyar Posta Zrt."/>
    <tag k="payment:cash" v="yes"/>
    <tag k="payment:debit_cards" v="yes"/>
    <tag k="phone" v="+3617678200"/>
    <tag k="ref:vatin:hu" v="10901232-2-44"/>
    <tag k="source" v="website"/>
    <tag k="source:date" v="2018-07-17"/>
    <tag k="vending" v="cheques"/>
    <tag k="website" v="https://www.posta.hu"/>
    <tag k="youtube" v="https://www.youtube.com/user/magyarpostaofficial"/>
  </node>
  <!-- Original coordinates: POINT (47.331095 19.004711) -->
  <!-- OSM <-> POI distance: None m-->
  <!-- Original tags:  -->
  <node action="modify" changeset="99999" id="-111" lat="47.331095" lon="19.004711" timestamp="" uid="4579407" user="KAMI" version="99999">
    <tag k="addr:city" v="Szigetszentmiklós"/>
    <tag k="addr:country" v="HU"/>
    <tag k="addr:housenumber" v="1"/>
    <tag k="addr:postcode" v="2310"/>
    <tag k="addr:street" v="Apor Vilmos utca"/>
    <tag k="amenity" v="vending_machine"/>
    <tag k="branch" v="Szigetszentmiklós Kormányablak"/>
    <tag k="brand" v="Magyar Posta"/>
    <tag k="brand:wikidata" v="Q145614"/>
    <tag k="brand:wikipedia" v="hu:Magyar Posta Zrt."/>
    <tag k="email" v="ugyfelszolgalat@posta.hu"/>
    <tag k="facebook" v="https://www.facebook.com/MagyarPosta"/>
    <tag k="import" v="osm_poi_matchmaker"/>
    <tag k="instagram" v="https://www.instagram.com/magyar_posta_zrt"/>
    <tag k="name" v="Posta csekkautomata"/>
    <tag k="operator" v="Magyar Posta Zrt."/>
    <tag k="payment:cash" v="yes"/>
    <tag k="payment:debit_cards" v="yes"/>
    <tag k="phone" v="+3617678200"/>
    <tag k="ref:vatin:hu" v="10901232-2-44"/>
    <tag k="source" v="website"/>
    <tag k="source:date" v="2018-07-17"/>
    <tag k="vending" v="cheques"/>
    <tag k="website" v="https://www.posta.hu"/>
    <tag k="youtube" v="https://www.youtube.com/user/magyarpostaofficial"/>
  </node>
  <!-- Original coordinates: POINT (47.177992 20.193376) -->
  <!-- OSM <-> POI distance: None m-->
  <!-- Original tags:  -->
  <node action="modify" changeset="99999" id="-112" lat="47.177992" lon="20.193376" timestamp="" uid="4579407" user="KAMI" version="99999">
    <tag k="addr:city" v="Szolnok"/>
    <tag k="addr:country" v="HU"/>
    <tag k="addr:housenumber" v="15"/>
    <tag k="addr:postcode" v="5000"/>
    <tag k="addr:street" v="Ady Endre út"/>
    <tag k="amenity" v="vending_machine"/>
    <tag k="branch" v="Szolnok Pelikán Bevásárlóközpont"/>
    <tag k="brand" v="Magyar Posta"/>
    <tag k="brand:wikidata" v="Q145614"/>
    <tag k="brand:wikipedia" v="hu:Magyar Posta Zrt."/>
    <tag k="email" v="ugyfelszolgalat@posta.hu"/>
    <tag k="facebook" v="https://www.facebook.com/MagyarPosta"/>
    <tag k="import" v="osm_poi_matchmaker"/>
    <tag k="instagram" v="https://www.instagram.com/magyar_posta_zrt"/>
    <tag k="name" v="Posta csekkautomata"/>
    <tag k="operator" v="Magyar Posta Zrt."/>
    <tag k="payment:cash" v="yes"/>
    <tag k="payment:debit_cards" v="yes"/>
    <tag k="phone" v="+3617678200"/>
    <tag k="ref:vatin:hu" v="10901232-2-44"/>
    <tag k="source" v="website"/>
    <tag k="source:date" v="2018-07-17"/>
    <tag k="vending" v="cheques"/>
    <tag k="website" v="https://www.posta.hu"/>
    <tag k="youtube" v="https://www.youtube.com/user/magyarpostaofficial"/>
  </node>
  <!-- Original coordinates: POINT (47.148983 18.433264) -->
  <!-- OSM <-> POI distance: None m-->
  <!-- Original tags:  -->
  <node action="modify" changeset="99999" id="-113" lat="47.148983" lon="18.433264" timestamp="" uid="4579407" user="KAMI" version="99999">
    <tag k="addr:city" v="Székesfehérvár"/>
    <tag k="addr:country" v="HU"/>
    <tag k="addr:housenumber" v="2"/>
    <tag k="addr:postcode" v="8000"/>
    <tag k="addr:street" v="Holland fasor"/>
    <tag k="amenity" v="vending_machine"/>
    <tag k="branch" v="Székesfehérvár Auchan"/>
    <tag k="brand" v="Magyar Posta"/>
    <tag k="brand:wikidata" v="Q145614"/>
    <tag k="brand:wikipedia" v="hu:Magyar Posta Zrt."/>
    <tag k="email" v="ugyfelszolgalat@posta.hu"/>
    <tag k="facebook" v="https://www.facebook.com/MagyarPosta"/>
    <tag k="import" v="osm_poi_matchmaker"/>
    <tag k="instagram" v="https://www.instagram.com/magyar_posta_zrt"/>
    <tag k="name" v="Posta csekkautomata"/>
    <tag k="operator" v="Magyar Posta Zrt."/>
    <tag k="payment:cash" v="yes"/>
    <tag k="payment:debit_cards" v="yes"/>
    <tag k="phone" v="+3617678200"/>
    <tag k="ref:vatin:hu" v="10901232-2-44"/>
    <tag k="source" v="website"/>
    <tag k="source:date" v="2018-07-17"/>
    <tag k="vending" v="cheques"/>
    <tag k="website" v="https://www.posta.hu"/>
    <tag k="youtube" v="https://www.youtube.com/user/magyarpostaofficial"/>
  </node>
  <!-- Original coordinates: POINT (47.426206 18.602545) -->
  <!-- OSM <-> POI distance: None m-->
  <!-- Original tags:  -->
  <node action="modify" changeset="99999" id="-114" lat="47.426206" lon="18.602545" timestamp="" uid="4579407" user="KAMI" version="99999">
    <tag k="addr:city" v="Alcsútdoboz"/>
    <tag k="addr:country" v="HU"/>
    <tag k="addr:housenumber" v="1"/>
    <tag k="addr:postcode" v="8087"/>
    <tag k="addr:street" v="Béke út"/>
    <tag k="amenity" v="vending_machine"/>
    <tag k="branch" v="Takarék SMART POINT"/>
    <tag k="brand" v="Magyar Posta"/>
    <tag k="brand:wikidata" v="Q145614"/>
    <tag k="brand:wikipedia" v="hu:Magyar Posta Zrt."/>
    <tag k="email" v="ugyfelszolgalat@posta.hu"/>
    <tag k="facebook" v="https://www.facebook.com/MagyarPosta"/>
    <tag k="import" v="osm_poi_matchmaker"/>
    <tag k="instagram" v="https://www.instagram.com/magyar_posta_zrt"/>
    <tag k="name" v="Posta csekkautomata"/>
    <tag k="operator" v="Magyar Posta Zrt."/>
    <tag k="payment:cash" v="yes"/>
    <tag k="payment:debit_cards" v="yes"/>
    <tag k="phone" v="+3617678200"/>
    <tag k="ref:vatin:hu" v="10901232-2-44"/>
    <tag k="source" v="website"/>
    <tag k="source:date" v="2018-07-17"/>
    <tag k="vending" v="cheques"/>
    <tag k="website" v="https://www.posta.hu"/>
    <tag k="youtube" v="https://www.youtube.com/user/magyarpostaofficial"/>
  </node>
</osm>
