<?xml version='1.0' encoding='UTF-8'?>
<osm generator="JOSM" version="0.6">
  <!-- OSM link: https://osm.org/way/300713149 -->
  <!-- Original coordinates: POINT (46.2277 19.5359) -->
  <!-- Original tags: {'layer': '1', 'building': 'roof', 'amenity': 'fuel', 'name': 'M Petrol'} -->
  <way action="modify" changeset="1" id="300713149" timestamp="2018-01-20T16:36:55Z" uid="4579407" user="KAMI" version="3">
    <nd ref="3048193647"/>
    <nd ref="3048193646"/>
    <nd ref="3048193652"/>
    <nd ref="3048193655"/>
    <nd ref="3048193647"/>
    <tag k="addr:city" v="Tompa"/>
    <tag k="addr:postcode" v="6422"/>
    <tag k="amenity" v="fuel"/>
    <tag k="branch" v="Tompa"/>
    <tag k="brand" v="Mobil Petrol"/>
    <tag k="building" v="roof"/>
    <tag k="fuel:diesel" v="yes"/>
    <tag k="fuel:octane_95" v="yes"/>
    <tag k="import" v="osm_poi_matchmaker"/>
    <tag k="layer" v="1"/>
    <tag k="name" v="Mobil Petrol"/>
    <tag k="opening_hours" v="24/7"/>
    <tag k="payment:cash" v="yes"/>
    <tag k="payment:debit_cards" v="yes"/>
    <tag k="phone" v="+0"/>
    <tag k="source" v="website"/>
    <tag k="source:date" v="2018-07-12"/>
    <tag k="website" v="https://www.shell.hu"/>
  </way>
  <!-- Original coordinates: POINT (46.6076 19.8413) -->
  <!-- Original tags: None -->
  <node action="modify" changeset="99999" id="-2" lat="46.6076" lon="19.8413" timestamp="" uid="4579407" user="KAMI" version="99999">
    <tag k="addr:city" v="Petőfiszállás A"/>
    <tag k="addr:postcode" v="6113"/>
    <tag k="amenity" v="fuel"/>
    <tag k="branch" v="Petőfiszállás A"/>
    <tag k="brand" v="Mobil Petrol"/>
    <tag k="fuel:diesel" v="yes"/>
    <tag k="fuel:octane_95" v="yes"/>
    <tag k="import" v="osm_poi_matchmaker"/>
    <tag k="name" v="Mobil Petrol"/>
    <tag k="opening_hours" v="24/7"/>
    <tag k="payment:cash" v="yes"/>
    <tag k="payment:debit_cards" v="yes"/>
    <tag k="phone" v="+0"/>
    <tag k="source" v="website"/>
    <tag k="source:date" v="2018-07-12"/>
    <tag k="website" v="https://www.shell.hu"/>
  </node>
  <!-- OSM link: https://osm.org/way/562747859 -->
  <!-- Original coordinates: POINT (46.8464 19.2978) -->
  <!-- Original tags: {'building': 'yes', 'amenity': 'fuel'} -->
  <way action="modify" changeset="1" id="562747859" timestamp="2018-02-20T14:09:25Z" uid="4579407" user="KAMI" version="1">
    <nd ref="5424615789"/>
    <nd ref="5424615790"/>
    <nd ref="5424615791"/>
    <nd ref="5424615792"/>
    <nd ref="5424615793"/>
    <nd ref="5424615794"/>
    <nd ref="5424615795"/>
    <nd ref="5424615796"/>
    <nd ref="5424615797"/>
    <nd ref="5424615798"/>
    <nd ref="5424615799"/>
    <nd ref="5424615800"/>
    <nd ref="5424615801"/>
    <nd ref="5424615802"/>
    <nd ref="5424615803"/>
    <nd ref="5424615789"/>
    <tag k="addr:city" v="Fülöpszállás"/>
    <tag k="addr:postcode" v="6085"/>
    <tag k="amenity" v="fuel"/>
    <tag k="branch" v="Fülöpszállás"/>
    <tag k="brand" v="Mobil Petrol"/>
    <tag k="building" v="yes"/>
    <tag k="fuel:diesel" v="yes"/>
    <tag k="fuel:octane_95" v="yes"/>
    <tag k="import" v="osm_poi_matchmaker"/>
    <tag k="name" v="Mobil Petrol"/>
    <tag k="opening_hours" v="24/7"/>
    <tag k="payment:cash" v="yes"/>
    <tag k="payment:debit_cards" v="yes"/>
    <tag k="phone" v="+0"/>
    <tag k="source" v="website"/>
    <tag k="source:date" v="2018-07-12"/>
    <tag k="website" v="https://www.shell.hu"/>
  </way>
  <!-- Original coordinates: POINT (46.9827 16.2801) -->
  <!-- Original tags: None -->
  <node action="modify" changeset="99999" id="-4" lat="46.9827" lon="16.2801" timestamp="" uid="4579407" user="KAMI" version="99999">
    <tag k="addr:city" v="Szentgotthárd"/>
    <tag k="addr:conscriptionnumber" v="0232/8"/>
    <tag k="addr:postcode" v="9955"/>
    <tag k="amenity" v="fuel"/>
    <tag k="branch" v="Szentgotthárd"/>
    <tag k="brand" v="Mobil Petrol"/>
    <tag k="fuel:diesel" v="yes"/>
    <tag k="fuel:octane_95" v="yes"/>
    <tag k="import" v="osm_poi_matchmaker"/>
    <tag k="name" v="Mobil Petrol"/>
    <tag k="opening_hours" v="Mo-Su 06:00-22:00"/>
    <tag k="payment:cash" v="yes"/>
    <tag k="payment:debit_cards" v="yes"/>
    <tag k="phone" v="+0"/>
    <tag k="source" v="website"/>
    <tag k="source:date" v="2018-07-12"/>
    <tag k="website" v="https://www.shell.hu"/>
  </node>
  <!-- OSM link: https://osm.org/node/5030594234 -->
  <!-- Original coordinates: POINT (47.5955 17.6876) -->
  <!-- Original tags: {'brand': 'Petrol', 'amenity': 'fuel'} -->
  <node action="modify" changeset="1" id="5030594234" lat="47.5955" lon="17.6876" timestamp="2017-08-12T14:24:42Z" uid="4579407" user="KAMI" version="1">
    <tag k="addr:city" v="Nyúl"/>
    <tag k="addr:postcode" v="9082"/>
    <tag k="addr:street" v="Nyúl 82. sz. főút"/>
    <tag k="amenity" v="fuel"/>
    <tag k="branch" v="Nyúl"/>
    <tag k="brand" v="Mobil Petrol"/>
    <tag k="fuel:diesel" v="yes"/>
    <tag k="fuel:octane_95" v="yes"/>
    <tag k="import" v="osm_poi_matchmaker"/>
    <tag k="name" v="Mobil Petrol"/>
    <tag k="opening_hours" v="24/7"/>
    <tag k="payment:cash" v="yes"/>
    <tag k="payment:debit_cards" v="yes"/>
    <tag k="phone" v="+0"/>
    <tag k="source" v="website"/>
    <tag k="source:date" v="2018-07-12"/>
    <tag k="website" v="https://www.shell.hu"/>
  </node>
  <!-- OSM link: https://osm.org/node/4910845133 -->
  <!-- Original coordinates: POINT (47.637 19.4718) -->
  <!-- Original tags: {'amenity': 'fuel'} -->
  <node action="modify" changeset="1" id="4910845133" lat="47.637" lon="19.4718" timestamp="2017-06-12T13:22:31Z" uid="4579407" user="KAMI" version="1">
    <tag k="addr:city" v="Bag"/>
    <tag k="addr:conscriptionnumber" v="2429/3"/>
    <tag k="addr:postcode" v="2191"/>
    <tag k="amenity" v="fuel"/>
    <tag k="branch" v="Bag"/>
    <tag k="brand" v="Mobil Petrol"/>
    <tag k="fuel:diesel" v="yes"/>
    <tag k="fuel:octane_95" v="yes"/>
    <tag k="import" v="osm_poi_matchmaker"/>
    <tag k="name" v="Mobil Petrol"/>
    <tag k="opening_hours" v="24/7"/>
    <tag k="payment:cash" v="yes"/>
    <tag k="payment:debit_cards" v="yes"/>
    <tag k="phone" v="+0"/>
    <tag k="source" v="website"/>
    <tag k="source:date" v="2018-07-12"/>
    <tag k="website" v="https://www.shell.hu"/>
  </node>
  <!-- OSM link: https://osm.org/way/552960470 -->
  <!-- Original coordinates: POINT (47.7565 19.1417) -->
  <!-- Original tags: {'building': 'yes', 'amenity': 'fuel', 'operator': 'M. Petrol', 'name': 'M. Petrol'} -->
  <way action="modify" changeset="1" id="552960470" timestamp="2018-01-14T05:36:50Z" uid="4579407" user="KAMI" version="1">
    <nd ref="5338334364"/>
    <nd ref="5338334365"/>
    <nd ref="5338334366"/>
    <nd ref="5338334367"/>
    <nd ref="5338334364"/>
    <tag k="addr:city" v="Vác"/>
    <tag k="addr:postcode" v="2600"/>
    <tag k="amenity" v="fuel"/>
    <tag k="branch" v="Vác"/>
    <tag k="brand" v="Mobil Petrol"/>
    <tag k="building" v="yes"/>
    <tag k="fuel:diesel" v="yes"/>
    <tag k="fuel:octane_95" v="yes"/>
    <tag k="import" v="osm_poi_matchmaker"/>
    <tag k="name" v="Mobil Petrol"/>
    <tag k="opening_hours" v="24/7"/>
    <tag k="operator" v="M. Petrol"/>
    <tag k="payment:cash" v="yes"/>
    <tag k="payment:debit_cards" v="yes"/>
    <tag k="phone" v="+0"/>
    <tag k="source" v="website"/>
    <tag k="source:date" v="2018-07-12"/>
    <tag k="website" v="https://www.shell.hu"/>
  </way>
</osm>
