<?xml version='1.0' encoding='UTF-8'?>
<osm generator="JOSM" version="0.6">
  <!-- Original coordinates: POINT (47.709941 18.015708) -->
  <!-- OSM <-> POI distance: None m-->
  <!-- Checker good: {not_in_water}; bad {}-->
  <!-- Original tags:  -->
  <!-- JOSM magic link: http://localhost:8111/load_object?new_layer=false&objects=n-1&addtags=%7Caddr%3Acity%3D%C3%81cs%7Caddr%3Acountry%3DHU%7Caddr%3Ahousenumber%3D2%7Caddr%3Apostcode%3D2941%7Caddr%3Astreet%3DF%C5%91%20utca%7Camenity%3Dfuel%7Cbrand%3DAvia%7Cemail%3Dgatkft%40gmail.com%7Cfacebook%3Dhttps%3A//www.facebook.com/AVIAHungary%7Cfuel%3Adiesel%3Dyes%7Cfuel%3Aoctane_95%3Dyes%7Cimport%3Dosm_poi_matchmaker%7Cname%3DAvia%7Coperator%3DAVIA%20Hung%C3%A1ria%20Kft.%7Cpayment%3Amastercard%3Dyes%7Cpayment%3Avisa%3Dyes%7Cphone%3D%2B3634595009%7Csource%3Awww.avia.hu%3Adate%3D2018-11-03%7Cwebsite%3Dhttps%3A//www.avia.hu/toltoallomas/%3Fid%3D114%7Cyoutube%3Dhttps%3A//www.youtube.com/channel/UCjvjkjf2RgmKBuTnKSXk-Rg -->
  <node action="modify" id="-1" lat="47.709941" lon="18.015708" timestamp="2018-11-03T14:29:45Z" uid="8635934" user="osm_poi_matchmaker" version="99999">
    <tag k="addr:city" v="Ács"/>
    <tag k="addr:country" v="HU"/>
    <tag k="addr:housenumber" v="2"/>
    <tag k="addr:postcode" v="2941"/>
    <tag k="addr:street" v="Fő utca"/>
    <tag k="amenity" v="fuel"/>
    <tag k="brand" v="Avia"/>
    <tag k="email" v="gatkft@gmail.com"/>
    <tag k="facebook" v="https://www.facebook.com/AVIAHungary"/>
    <tag k="fuel:diesel" v="yes"/>
    <tag k="fuel:octane_95" v="yes"/>
    <tag k="import" v="osm_poi_matchmaker"/>
    <tag k="name" v="Avia"/>
    <tag k="operator" v="AVIA Hungária Kft."/>
    <tag k="payment:mastercard" v="yes"/>
    <tag k="payment:visa" v="yes"/>
    <tag k="phone" v="+3634595009"/>
    <tag k="source:www.avia.hu:date" v="2018-11-03"/>
    <tag k="website" v="https://www.avia.hu/toltoallomas/?id=114"/>
    <tag k="youtube" v="https://www.youtube.com/channel/UCjvjkjf2RgmKBuTnKSXk-Rg"/>
  </node>
  <!-- OSM link: https://osm.org/node/1559171089 -->
  <!-- Original coordinates: POINT (46.652441 17.924793) -->
  <!-- OSM <-> POI distance: 43.22827512 m-->
  <!-- Checker good: {not_in_water}; bad {}-->
  <!-- Original tags: 'amenity':'fuel'; 'fuel:1_25':'no'; 'fuel:1_50':'no'; 'fuel:GTL_diesel':'no'; 'fuel:HGV_diesel':'no'; 'fuel:biodiesel':'no'; 'fuel:biogas':'no'; 'fuel:cng':'no'; 'fuel:diesel':'yes'; 'fuel:e10':'no'; 'fuel:e85':'no'; 'fuel:electricity':'no'; 'fuel:lpg':'no'; 'fuel:octane_100':'no'; 'fuel:octane_91':'no'; 'fuel:octane_95':'yes'; 'fuel:octane_98':'yes';  -->
  <!-- JOSM magic link: http://localhost:8111/load_object?new_layer=false&objects=n1559171089&addtags=%7Caddr%3Acity%3DAndocs%7Caddr%3Aconscriptionnumber%3D206/5%7Caddr%3Acountry%3DHU%7Caddr%3Apostcode%3D8675%7Caddr%3Astreet%3DAdy%20Endre%20utca%7Camenity%3Dfuel%7Cbrand%3DAvia%7Cemail%3Dandocs%40avia.hu%7Cfacebook%3Dhttps%3A//www.facebook.com/AVIAHungary%7Cfuel%3A1_25%3Dno%7Cfuel%3A1_50%3Dno%7Cfuel%3AGTL_diesel%3Dno%7Cfuel%3AHGV_diesel%3Dno%7Cfuel%3Abiodiesel%3Dno%7Cfuel%3Abiogas%3Dno%7Cfuel%3Acng%3Dno%7Cfuel%3Adiesel%3Dyes%7Cfuel%3Ae10%3Dno%7Cfuel%3Ae85%3Dno%7Cfuel%3Aelectricity%3Dno%7Cfuel%3Alpg%3Dno%7Cfuel%3Aoctane_100%3Dno%7Cfuel%3Aoctane_91%3Dno%7Cfuel%3Aoctane_95%3Dyes%7Cfuel%3Aoctane_98%3Dyes%7Cimport%3Dosm_poi_matchmaker%7Cname%3DAvia%7Coperator%3DAVIA%20Hung%C3%A1ria%20Kft.%7Cpayment%3Amastercard%3Dyes%7Cpayment%3Avisa%3Dyes%7Cphone%3D%2B3684330734%7Csource%3Awww.avia.hu%3Adate%3D2018-11-03%7Cwebsite%3Dhttps%3A//www.avia.hu/toltoallomas/%3Fid%3D47%7Cyoutube%3Dhttps%3A//www.youtube.com/channel/UCjvjkjf2RgmKBuTnKSXk-Rg -->
  <node action="modify" id="1559171089" lat="46.6528229949481" lon="17.9246877975049" timestamp="2011-12-23T11:13:54Z" uid="8635934" user="osm_poi_matchmaker" version="1">
    <tag k="addr:city" v="Andocs"/>
    <tag k="addr:conscriptionnumber" v="206/5"/>
    <tag k="addr:country" v="HU"/>
    <tag k="addr:postcode" v="8675"/>
    <tag k="addr:street" v="Ady Endre utca"/>
    <tag k="amenity" v="fuel"/>
    <tag k="brand" v="Avia"/>
    <tag k="email" v="andocs@avia.hu"/>
    <tag k="facebook" v="https://www.facebook.com/AVIAHungary"/>
    <tag k="fuel:1_25" v="no"/>
    <tag k="fuel:1_50" v="no"/>
    <tag k="fuel:GTL_diesel" v="no"/>
    <tag k="fuel:HGV_diesel" v="no"/>
    <tag k="fuel:biodiesel" v="no"/>
    <tag k="fuel:biogas" v="no"/>
    <tag k="fuel:cng" v="no"/>
    <tag k="fuel:diesel" v="yes"/>
    <tag k="fuel:e10" v="no"/>
    <tag k="fuel:e85" v="no"/>
    <tag k="fuel:electricity" v="no"/>
    <tag k="fuel:lpg" v="no"/>
    <tag k="fuel:octane_100" v="no"/>
    <tag k="fuel:octane_91" v="no"/>
    <tag k="fuel:octane_95" v="yes"/>
    <tag k="fuel:octane_98" v="yes"/>
    <tag k="import" v="osm_poi_matchmaker"/>
    <tag k="name" v="Avia"/>
    <tag k="operator" v="AVIA Hungária Kft."/>
    <tag k="payment:mastercard" v="yes"/>
    <tag k="payment:visa" v="yes"/>
    <tag k="phone" v="+3684330734"/>
    <tag k="source:www.avia.hu:date" v="2018-11-03"/>
    <tag k="website" v="https://www.avia.hu/toltoallomas/?id=47"/>
    <tag k="youtube" v="https://www.youtube.com/channel/UCjvjkjf2RgmKBuTnKSXk-Rg"/>
  </node>
  <!-- Original coordinates: POINT (47.6587106 19.4994406) -->
  <!-- OSM <-> POI distance: None m-->
  <!-- Checker good: {not_in_water}; bad {}-->
  <!-- Original tags:  -->
  <!-- JOSM magic link: http://localhost:8111/load_object?new_layer=false&objects=n-3&addtags=%7Caddr%3Acity%3DAsz%C3%B3d%7Caddr%3Acountry%3DHU%7Caddr%3Ahousenumber%3D44%7Caddr%3Apostcode%3D2170%7Caddr%3Astreet%3DFaluj%C3%A1r%C3%B3k%20%C3%BAtja%7Camenity%3Dfuel%7Cbrand%3DAvia%7Cemail%3Djeno.horvath%40goldenglob.hu%7Cfacebook%3Dhttps%3A//www.facebook.com/AVIAHungary%7Cfuel%3Adiesel%3Dyes%7Cfuel%3Aoctane_95%3Dyes%7Cimport%3Dosm_poi_matchmaker%7Cname%3DAvia%7Coperator%3DAVIA%20Hung%C3%A1ria%20Kft.%7Cpayment%3Amastercard%3Dyes%7Cpayment%3Avisa%3Dyes%7Cphone%3D%2B36202004000%7Csource%3Awww.avia.hu%3Adate%3D2018-11-03%7Cwebsite%3Dhttps%3A//www.avia.hu/toltoallomas/%3Fid%3D88%7Cyoutube%3Dhttps%3A//www.youtube.com/channel/UCjvjkjf2RgmKBuTnKSXk-Rg -->
  <node action="modify" id="-3" lat="47.6587106" lon="19.4994406" timestamp="2018-11-03T14:29:45Z" uid="8635934" user="osm_poi_matchmaker" version="99999">
    <tag k="addr:city" v="Aszód"/>
    <tag k="addr:country" v="HU"/>
    <tag k="addr:housenumber" v="44"/>
    <tag k="addr:postcode" v="2170"/>
    <tag k="addr:street" v="Falujárók útja"/>
    <tag k="amenity" v="fuel"/>
    <tag k="brand" v="Avia"/>
    <tag k="email" v="jeno.horvath@goldenglob.hu"/>
    <tag k="facebook" v="https://www.facebook.com/AVIAHungary"/>
    <tag k="fuel:diesel" v="yes"/>
    <tag k="fuel:octane_95" v="yes"/>
    <tag k="import" v="osm_poi_matchmaker"/>
    <tag k="name" v="Avia"/>
    <tag k="operator" v="AVIA Hungária Kft."/>
    <tag k="payment:mastercard" v="yes"/>
    <tag k="payment:visa" v="yes"/>
    <tag k="phone" v="+36202004000"/>
    <tag k="source:www.avia.hu:date" v="2018-11-03"/>
    <tag k="website" v="https://www.avia.hu/toltoallomas/?id=88"/>
    <tag k="youtube" v="https://www.youtube.com/channel/UCjvjkjf2RgmKBuTnKSXk-Rg"/>
  </node>
  <!-- Original coordinates: POINT (46.87672420429322 16.74576044082642) -->
  <!-- OSM <-> POI distance: None m-->
  <!-- Checker good: {not_in_water}; bad {}-->
  <!-- Original tags:  -->
  <!-- JOSM magic link: http://localhost:8111/load_object?new_layer=false&objects=n-4&addtags=%7Caddr%3Acity%3DBagod%7Caddr%3Acountry%3DHU%7Caddr%3Ahousenumber%3D21-23%7Caddr%3Apostcode%3D8992%7Caddr%3Astreet%3DKossuth%20utca%7Camenity%3Dfuel%7Cbrand%3DAvia%7Cemail%3Daviadiesel%40avia.hu%7Cfacebook%3Dhttps%3A//www.facebook.com/AVIAHungary%7Cfuel%3Adiesel%3Dyes%7Cfuel%3Aoctane_95%3Dyes%7Cimport%3Dosm_poi_matchmaker%7Cname%3DAvia%7Coperator%3DAVIA%20Hung%C3%A1ria%20Kft.%7Cpayment%3Amastercard%3Dyes%7Cpayment%3Avisa%3Dyes%7Cphone%3D%2B3692460696%7Csource%3Awww.avia.hu%3Adate%3D2018-11-03%7Cwebsite%3Dhttps%3A//www.avia.hu/toltoallomas/%3Fid%3D9%7Cyoutube%3Dhttps%3A//www.youtube.com/channel/UCjvjkjf2RgmKBuTnKSXk-Rg -->
  <node action="modify" id="-4" lat="46.87672420429322" lon="16.745760440826416" timestamp="2018-11-03T14:29:45Z" uid="8635934" user="osm_poi_matchmaker" version="99999">
    <tag k="addr:city" v="Bagod"/>
    <tag k="addr:country" v="HU"/>
    <tag k="addr:housenumber" v="21-23"/>
    <tag k="addr:postcode" v="8992"/>
    <tag k="addr:street" v="Kossuth utca"/>
    <tag k="amenity" v="fuel"/>
    <tag k="brand" v="Avia"/>
    <tag k="email" v="aviadiesel@avia.hu"/>
    <tag k="facebook" v="https://www.facebook.com/AVIAHungary"/>
    <tag k="fuel:diesel" v="yes"/>
    <tag k="fuel:octane_95" v="yes"/>
    <tag k="import" v="osm_poi_matchmaker"/>
    <tag k="name" v="Avia"/>
    <tag k="operator" v="AVIA Hungária Kft."/>
    <tag k="payment:mastercard" v="yes"/>
    <tag k="payment:visa" v="yes"/>
    <tag k="phone" v="+3692460696"/>
    <tag k="source:www.avia.hu:date" v="2018-11-03"/>
    <tag k="website" v="https://www.avia.hu/toltoallomas/?id=9"/>
    <tag k="youtube" v="https://www.youtube.com/channel/UCjvjkjf2RgmKBuTnKSXk-Rg"/>
  </node>
  <node action="modify" id="4172458449" lat="46.1897218" lon="18.9333801" timestamp="2016-05-08T01:46:21Z" uid="1559158" user="vakulya" version="1"/>
  <node action="modify" id="4172458450" lat="46.1897955" lon="18.9334842" timestamp="2016-05-08T01:46:21Z" uid="1559158" user="vakulya" version="1"/>
  <node action="modify" id="4172458451" lat="46.1897051" lon="18.9336177" timestamp="2016-05-08T01:46:21Z" uid="1559158" user="vakulya" version="1"/>
  <node action="modify" id="4172458452" lat="46.1896314" lon="18.9335136" timestamp="2016-05-08T01:46:21Z" uid="1559158" user="vakulya" version="1"/>
  <node action="modify" id="4172458449" lat="46.1897218" lon="18.9333801" timestamp="2016-05-08T01:46:21Z" uid="1559158" user="vakulya" version="1"/>
  <!-- OSM link: https://osm.org/way/416502211 -->
  <!-- Original coordinates: POINT (46.18934 18.933) -->
  <!-- OSM <-> POI distance: 50.80847818 m-->
  <!-- Checker good: {not_in_water}; bad {}-->
  <!-- Original tags: 'amenity':'fuel'; 'brand':'AVIA'; 'building':'commercial'; 'name':'AVIA'; 'website':'http://www.avia.hu/';  -->
  <!-- JOSM magic link: http://localhost:8111/load_object?new_layer=false&objects=w416502211&addtags=%7Caddr%3Acity%3DBaja%7Caddr%3Acountry%3DHU%7Caddr%3Ahousenumber%3D56%7Caddr%3Apostcode%3D6500%7Caddr%3Astreet%3DBajcsy-Zs.%20utca%7Camenity%3Dfuel%7Cbrand%3DAvia%7Cbuilding%3Dcommercial%7Cemail%3Dbaja%40lamarin.hu%7Cfacebook%3Dhttps%3A//www.facebook.com/AVIAHungary%7Cfuel%3Adiesel%3Dyes%7Cfuel%3Aoctane_95%3Dyes%7Cimport%3Dosm_poi_matchmaker%7Cname%3DAvia%7Coperator%3DAVIA%20Hung%C3%A1ria%20Kft.%7Cpayment%3Amastercard%3Dyes%7Cpayment%3Avisa%3Dyes%7Cphone%3D%2B3679522730%7Csource%3Awww.avia.hu%3Adate%3D2018-11-03%7Cwebsite%3Dhttps%3A//www.avia.hu/toltoallomas/%3Fid%3D61%7Cyoutube%3Dhttps%3A//www.youtube.com/channel/UCjvjkjf2RgmKBuTnKSXk-Rg -->
  <way action="modify" id="416502211" timestamp="2016-05-08T03:46:22Z" uid="8635934" user="osm_poi_matchmaker" version="1">
    <nd ref="4172458449"/>
    <nd ref="4172458450"/>
    <nd ref="4172458451"/>
    <nd ref="4172458452"/>
    <nd ref="4172458449"/>
    <tag k="addr:city" v="Baja"/>
    <tag k="addr:country" v="HU"/>
    <tag k="addr:housenumber" v="56"/>
    <tag k="addr:postcode" v="6500"/>
    <tag k="addr:street" v="Bajcsy-Zs. utca"/>
    <tag k="amenity" v="fuel"/>
    <tag k="brand" v="Avia"/>
    <tag k="building" v="commercial"/>
    <tag k="email" v="baja@lamarin.hu"/>
    <tag k="facebook" v="https://www.facebook.com/AVIAHungary"/>
    <tag k="fuel:diesel" v="yes"/>
    <tag k="fuel:octane_95" v="yes"/>
    <tag k="import" v="osm_poi_matchmaker"/>
    <tag k="name" v="Avia"/>
    <tag k="operator" v="AVIA Hungária Kft."/>
    <tag k="payment:mastercard" v="yes"/>
    <tag k="payment:visa" v="yes"/>
    <tag k="phone" v="+3679522730"/>
    <tag k="source:www.avia.hu:date" v="2018-11-03"/>
    <tag k="website" v="https://www.avia.hu/toltoallomas/?id=61"/>
    <tag k="youtube" v="https://www.youtube.com/channel/UCjvjkjf2RgmKBuTnKSXk-Rg"/>
  </way>
  <!-- Original coordinates: POINT (46.2086169 17.1451804) -->
  <!-- OSM <-> POI distance: None m-->
  <!-- Checker good: {not_in_water}; bad {}-->
  <!-- Original tags:  -->
  <!-- JOSM magic link: http://localhost:8111/load_object?new_layer=false&objects=n-6&addtags=%7Caddr%3Acity%3DBerzence%7Caddr%3Acountry%3DHU%7Caddr%3Ahousenumber%3D1%7Caddr%3Apostcode%3D7516%7Caddr%3Astreet%3D%C3%81rp%C3%A1d%20t%C3%A9r%7Camenity%3Dfuel%7Cbrand%3DAvia%7Cemail%3Dberzencekut1120%40gmail.com%7Cfacebook%3Dhttps%3A//www.facebook.com/AVIAHungary%7Cfuel%3Adiesel%3Dyes%7Cfuel%3Aoctane_95%3Dyes%7Cimport%3Dosm_poi_matchmaker%7Cname%3DAvia%7Coperator%3DAVIA%20Hung%C3%A1ria%20Kft.%7Cpayment%3Amastercard%3Dyes%7Cpayment%3Avisa%3Dyes%7Cphone%3D%2B3682778711%7Csource%3Awww.avia.hu%3Adate%3D2018-11-03%7Cwebsite%3Dhttps%3A//www.avia.hu/toltoallomas/%3Fid%3D44%7Cyoutube%3Dhttps%3A//www.youtube.com/channel/UCjvjkjf2RgmKBuTnKSXk-Rg -->
  <node action="modify" id="-6" lat="46.2086169" lon="17.1451804" timestamp="2018-11-03T14:29:45Z" uid="8635934" user="osm_poi_matchmaker" version="99999">
    <tag k="addr:city" v="Berzence"/>
    <tag k="addr:country" v="HU"/>
    <tag k="addr:housenumber" v="1"/>
    <tag k="addr:postcode" v="7516"/>
    <tag k="addr:street" v="Árpád tér"/>
    <tag k="amenity" v="fuel"/>
    <tag k="brand" v="Avia"/>
    <tag k="email" v="berzencekut1120@gmail.com"/>
    <tag k="facebook" v="https://www.facebook.com/AVIAHungary"/>
    <tag k="fuel:diesel" v="yes"/>
    <tag k="fuel:octane_95" v="yes"/>
    <tag k="import" v="osm_poi_matchmaker"/>
    <tag k="name" v="Avia"/>
    <tag k="operator" v="AVIA Hungária Kft."/>
    <tag k="payment:mastercard" v="yes"/>
    <tag k="payment:visa" v="yes"/>
    <tag k="phone" v="+3682778711"/>
    <tag k="source:www.avia.hu:date" v="2018-11-03"/>
    <tag k="website" v="https://www.avia.hu/toltoallomas/?id=44"/>
    <tag k="youtube" v="https://www.youtube.com/channel/UCjvjkjf2RgmKBuTnKSXk-Rg"/>
  </node>
  <!-- OSM link: https://osm.org/node/3489613996 -->
  <!-- Original coordinates: POINT (47.813262 21.850911) -->
  <!-- OSM <-> POI distance: 5.40483838 m-->
  <!-- Checker good: {not_in_water}; bad {}-->
  <!-- Original tags: 'amenity':'fuel'; 'source':'turistautak.hu'; 'source:date':'2010-05-10'; 'url':'http://turistautak.hu/poi.php?id=53006';  -->
  <!-- JOSM magic link: http://localhost:8111/load_object?new_layer=false&objects=n3489613996&addtags=%7Caddr%3Acity%3DBiri%7Caddr%3Acountry%3DHU%7Caddr%3Ahousenumber%3D32%7Caddr%3Apostcode%3D4235%7Caddr%3Astreet%3DF%C5%91%20utca%7Camenity%3Dfuel%7Cbrand%3DAvia%7Cemail%3Dbirispetrolkft%40gmail.com%7Cfacebook%3Dhttps%3A//www.facebook.com/AVIAHungary%7Cfuel%3Adiesel%3Dyes%7Cfuel%3Aoctane_95%3Dyes%7Cimport%3Dosm_poi_matchmaker%7Cname%3DAvia%7Coperator%3DAVIA%20Hung%C3%A1ria%20Kft.%7Cpayment%3Amastercard%3Dyes%7Cpayment%3Avisa%3Dyes%7Csource%3Dturistautak.hu%7Csource%3Adate%3D2010-05-10%7Csource%3Awww.avia.hu%3Adate%3D2018-11-03%7Curl%3Dhttp%3A//turistautak.hu/poi.php%3Fid%3D53006%7Cwebsite%3Dhttps%3A//www.avia.hu/toltoallomas/%3Fid%3D85%7Cyoutube%3Dhttps%3A//www.youtube.com/channel/UCjvjkjf2RgmKBuTnKSXk-Rg -->
  <node action="modify" id="3489613996" lat="47.8132669948978" lon="21.8509829969583" timestamp="2015-04-30T20:51:08Z" uid="8635934" user="osm_poi_matchmaker" version="1">
    <tag k="addr:city" v="Biri"/>
    <tag k="addr:country" v="HU"/>
    <tag k="addr:housenumber" v="32"/>
    <tag k="addr:postcode" v="4235"/>
    <tag k="addr:street" v="Fő utca"/>
    <tag k="amenity" v="fuel"/>
    <tag k="brand" v="Avia"/>
    <tag k="email" v="birispetrolkft@gmail.com"/>
    <tag k="facebook" v="https://www.facebook.com/AVIAHungary"/>
    <tag k="fuel:diesel" v="yes"/>
    <tag k="fuel:octane_95" v="yes"/>
    <tag k="import" v="osm_poi_matchmaker"/>
    <tag k="name" v="Avia"/>
    <tag k="operator" v="AVIA Hungária Kft."/>
    <tag k="payment:mastercard" v="yes"/>
    <tag k="payment:visa" v="yes"/>
    <tag k="source" v="turistautak.hu"/>
    <tag k="source:date" v="2010-05-10"/>
    <tag k="source:www.avia.hu:date" v="2018-11-03"/>
    <tag k="url" v="http://turistautak.hu/poi.php?id=53006"/>
    <tag k="website" v="https://www.avia.hu/toltoallomas/?id=85"/>
    <tag k="youtube" v="https://www.youtube.com/channel/UCjvjkjf2RgmKBuTnKSXk-Rg"/>
  </node>
  <node action="modify" id="2197771374" lat="47.51462" lon="19.1468138" timestamp="2013-03-12T13:50:32Z" uid="1207729" user="Tófalvi Péter" version="1"/>
  <node action="modify" id="2197771460" lat="47.5145004" lon="19.1465993" timestamp="2013-03-12T13:50:33Z" uid="1207729" user="Tófalvi Péter" version="1"/>
  <node action="modify" id="2197771287" lat="47.5147105" lon="19.1463471" timestamp="2013-03-12T13:50:30Z" uid="1207729" user="Tófalvi Péter" version="1"/>
  <node action="modify" id="2197771468" lat="47.5147431" lon="19.1464061" timestamp="2013-03-12T13:50:33Z" uid="1207729" user="Tófalvi Péter" version="1"/>
  <node action="modify" id="2197771328" lat="47.514725" lon="19.1464544" timestamp="2013-03-12T13:50:31Z" uid="1207729" user="Tófalvi Péter" version="1"/>
  <node action="modify" id="2197771388" lat="47.5147287" lon="19.1464759" timestamp="2013-03-12T13:50:32Z" uid="1207729" user="Tófalvi Péter" version="1"/>
  <node action="modify" id="2197771502" lat="47.5147142" lon="19.1465188" timestamp="2013-03-12T13:50:34Z" uid="1207729" user="Tófalvi Péter" version="1"/>
  <node action="modify" id="2197771280" lat="47.5147431" lon="19.1465563" timestamp="2013-03-12T13:50:30Z" uid="1207729" user="Tófalvi Péter" version="1"/>
  <node action="modify" id="2197771447" lat="47.5146888" lon="19.1466314" timestamp="2013-03-12T13:50:33Z" uid="1207729" user="Tófalvi Péter" version="1"/>
  <node action="modify" id="2197771361" lat="47.5146671" lon="19.1465832" timestamp="2013-03-12T13:50:32Z" uid="1207729" user="Tófalvi Péter" version="1"/>
  <node action="modify" id="2197771396" lat="47.5146272" lon="19.1466314" timestamp="2013-03-12T13:50:32Z" uid="1207729" user="Tófalvi Péter" version="1"/>
  <node action="modify" id="2197771481" lat="47.5146816" lon="19.1467334" timestamp="2013-03-12T13:50:33Z" uid="1207729" user="Tófalvi Péter" version="1"/>
  <node action="modify" id="2197771374" lat="47.51462" lon="19.1468138" timestamp="2013-03-12T13:50:32Z" uid="1207729" user="Tófalvi Péter" version="1"/>
  <!-- OSM link: https://osm.org/way/209570435 -->
  <!-- Original coordinates: POINT (47.5146 19.1466) -->
  <!-- OSM <-> POI distance: 0.0 m-->
  <!-- Checker good: {not_in_water}; bad {}-->
  <!-- Original tags: 'amenity':'fuel'; 'brand':'AVIA'; 'building':'yes'; 'name':'AVIA'; 'website':'http://www.avia.hu';  -->
  <!-- JOSM magic link: http://localhost:8111/load_object?new_layer=false&objects=w209570435&addtags=%7Caddr%3Acity%3DBudapest%7Caddr%3Acountry%3DHU%7Caddr%3Ahousenumber%3D67%7Caddr%3Apostcode%3D1144%7Caddr%3Astreet%3DGvad%C3%A1nyi%20%C3%BAt%7Camenity%3Dfuel%7Cbrand%3DAvia%7Cbuilding%3Dyes%7Cemail%3Dzsoniko%40avia.hu%7Cfacebook%3Dhttps%3A//www.facebook.com/AVIAHungary%7Cfuel%3Adiesel%3Dyes%7Cfuel%3Aoctane_95%3Dyes%7Cimport%3Dosm_poi_matchmaker%7Cname%3DAvia%7Coperator%3DAVIA%20Hung%C3%A1ria%20Kft.%7Cpayment%3Amastercard%3Dyes%7Cpayment%3Avisa%3Dyes%7Cphone%3D%2B3614609623%7Csource%3Awww.avia.hu%3Adate%3D2018-11-03%7Cwebsite%3Dhttps%3A//www.avia.hu/toltoallomas/%3Fid%3D12%7Cyoutube%3Dhttps%3A//www.youtube.com/channel/UCjvjkjf2RgmKBuTnKSXk-Rg -->
  <way action="modify" id="209570435" timestamp="2015-03-15T10:49:57Z" uid="8635934" user="osm_poi_matchmaker" version="3">
    <nd ref="2197771374"/>
    <nd ref="2197771460"/>
    <nd ref="2197771287"/>
    <nd ref="2197771468"/>
    <nd ref="2197771328"/>
    <nd ref="2197771388"/>
    <nd ref="2197771502"/>
    <nd ref="2197771280"/>
    <nd ref="2197771447"/>
    <nd ref="2197771361"/>
    <nd ref="2197771396"/>
    <nd ref="2197771481"/>
    <nd ref="2197771374"/>
    <tag k="addr:city" v="Budapest"/>
    <tag k="addr:country" v="HU"/>
    <tag k="addr:housenumber" v="67"/>
    <tag k="addr:postcode" v="1144"/>
    <tag k="addr:street" v="Gvadányi út"/>
    <tag k="amenity" v="fuel"/>
    <tag k="brand" v="Avia"/>
    <tag k="building" v="yes"/>
    <tag k="email" v="zsoniko@avia.hu"/>
    <tag k="facebook" v="https://www.facebook.com/AVIAHungary"/>
    <tag k="fuel:diesel" v="yes"/>
    <tag k="fuel:octane_95" v="yes"/>
    <tag k="import" v="osm_poi_matchmaker"/>
    <tag k="name" v="Avia"/>
    <tag k="operator" v="AVIA Hungária Kft."/>
    <tag k="payment:mastercard" v="yes"/>
    <tag k="payment:visa" v="yes"/>
    <tag k="phone" v="+3614609623"/>
    <tag k="source:www.avia.hu:date" v="2018-11-03"/>
    <tag k="website" v="https://www.avia.hu/toltoallomas/?id=12"/>
    <tag k="youtube" v="https://www.youtube.com/channel/UCjvjkjf2RgmKBuTnKSXk-Rg"/>
  </way>
  <!-- Original coordinates: POINT (47.4114179 19.0566853) -->
  <!-- OSM <-> POI distance: None m-->
  <!-- Checker good: {not_in_water}; bad {}-->
  <!-- Original tags:  -->
  <!-- JOSM magic link: http://localhost:8111/load_object?new_layer=false&objects=n-9&addtags=%7Caddr%3Acity%3DBudapest%7Caddr%3Acountry%3DHU%7Caddr%3Ahousenumber%3D195-197%7Caddr%3Apostcode%3D1214%7Caddr%3Astreet%3DII.%20R%C3%A1k%C3%B3czi%20Ferenc%20utca%7Camenity%3Dfuel%7Cbrand%3DAvia%7Cemail%3Dvadber%40avia.hu%7Cfacebook%3Dhttps%3A//www.facebook.com/AVIAHungary%7Cfuel%3Adiesel%3Dyes%7Cfuel%3Aoctane_95%3Dyes%7Cimport%3Dosm_poi_matchmaker%7Cname%3DAvia%7Coperator%3DAVIA%20Hung%C3%A1ria%20Kft.%7Cpayment%3Amastercard%3Dyes%7Cpayment%3Avisa%3Dyes%7Cphone%3D%2B3614206675%7Csource%3Awww.avia.hu%3Adate%3D2018-11-03%7Cwebsite%3Dhttps%3A//www.avia.hu/toltoallomas/%3Fid%3D1%7Cyoutube%3Dhttps%3A//www.youtube.com/channel/UCjvjkjf2RgmKBuTnKSXk-Rg -->
  <node action="modify" id="-9" lat="47.4114179" lon="19.0566853" timestamp="2018-11-03T14:29:45Z" uid="8635934" user="osm_poi_matchmaker" version="99999">
    <tag k="addr:city" v="Budapest"/>
    <tag k="addr:country" v="HU"/>
    <tag k="addr:housenumber" v="195-197"/>
    <tag k="addr:postcode" v="1214"/>
    <tag k="addr:street" v="II. Rákóczi Ferenc utca"/>
    <tag k="amenity" v="fuel"/>
    <tag k="brand" v="Avia"/>
    <tag k="email" v="vadber@avia.hu"/>
    <tag k="facebook" v="https://www.facebook.com/AVIAHungary"/>
    <tag k="fuel:diesel" v="yes"/>
    <tag k="fuel:octane_95" v="yes"/>
    <tag k="import" v="osm_poi_matchmaker"/>
    <tag k="name" v="Avia"/>
    <tag k="operator" v="AVIA Hungária Kft."/>
    <tag k="payment:mastercard" v="yes"/>
    <tag k="payment:visa" v="yes"/>
    <tag k="phone" v="+3614206675"/>
    <tag k="source:www.avia.hu:date" v="2018-11-03"/>
    <tag k="website" v="https://www.avia.hu/toltoallomas/?id=1"/>
    <tag k="youtube" v="https://www.youtube.com/channel/UCjvjkjf2RgmKBuTnKSXk-Rg"/>
  </node>
  <node action="modify" id="5743799764" lat="47.5056418" lon="19.160463" timestamp="2018-07-06T12:53:37Z" uid="2077889" user="zsolt d" version="1"/>
  <node action="modify" id="5743799545" lat="47.5056489" lon="19.1604552" timestamp="2018-07-06T12:53:34Z" uid="2077889" user="zsolt d" version="1"/>
  <node action="modify" id="5743799544" lat="47.5056215" lon="19.1604" timestamp="2018-07-06T12:53:34Z" uid="2077889" user="zsolt d" version="1"/>
  <node action="modify" id="5743799763" lat="47.5056134" lon="19.1604088" timestamp="2018-07-06T12:53:37Z" uid="2077889" user="zsolt d" version="1"/>
  <node action="modify" id="2131009244" lat="47.5056007" lon="19.1603845" timestamp="2018-07-06T12:53:41Z" uid="2077889" user="zsolt d" version="3"/>
  <node action="modify" id="2473458174" lat="47.5056449" lon="19.1603337" timestamp="2018-07-06T12:53:42Z" uid="2077889" user="zsolt d" version="2"/>
  <node action="modify" id="2131009295" lat="47.505656" lon="19.160321" timestamp="2018-07-06T12:53:42Z" uid="2077889" user="zsolt d" version="3"/>
  <node action="modify" id="5743799765" lat="47.50572" lon="19.1604433" timestamp="2018-07-06T12:53:37Z" uid="2077889" user="zsolt d" version="1"/>
  <node action="modify" id="2473458175" lat="47.5057078" lon="19.1604574" timestamp="2018-07-06T12:53:42Z" uid="2077889" user="zsolt d" version="2"/>
  <node action="modify" id="2131009268" lat="47.5056647" lon="19.1605068" timestamp="2018-07-06T12:53:41Z" uid="2077889" user="zsolt d" version="3"/>
  <node action="modify" id="5743799764" lat="47.5056418" lon="19.160463" timestamp="2018-07-06T12:53:37Z" uid="2077889" user="zsolt d" version="1"/>
  <!-- OSM link: https://osm.org/way/203129409 -->
  <!-- Original coordinates: POINT (47.5056 19.1604) -->
  <!-- OSM <-> POI distance: 0.77367682 m-->
  <!-- Checker good: {not_in_water}; bad {}-->
  <!-- Original tags: 'addr:city':'Budapest'; 'addr:housename':'AVIA töltőállomás'; 'addr:housenumber':'89'; 'addr:postcode':'1106'; 'addr:street':'Kerepesi út'; 'amenity':'fuel'; 'brand':'AVIA'; 'building':'yes'; 'building:levels':'1'; 'building:min_level':'1'; 'building:part':'roof'; 'height':'5'; 'min_height':'4.5'; 'name':'AVIA'; 'website':'http://www.avia.hu';  -->
  <!-- JOSM magic link: http://localhost:8111/load_object?new_layer=false&objects=w203129409&addtags=%7Caddr%3Acity%3DBudapest%7Caddr%3Acountry%3DHU%7Caddr%3Ahousename%3DAVIA%20t%C3%B6lt%C5%91%C3%A1llom%C3%A1s%7Caddr%3Ahousenumber%3D89%7Caddr%3Apostcode%3D1106%7Caddr%3Astreet%3DKerepesi%20%C3%BAt%7Camenity%3Dfuel%7Cbrand%3DAvia%7Cbuilding%3Dyes%7Cbuilding%3Alevels%3D1%7Cbuilding%3Amin_level%3D1%7Cbuilding%3Apart%3Droof%7Cemail%3Dzsoniko%40avia.hu%7Cfacebook%3Dhttps%3A//www.facebook.com/AVIAHungary%7Cfuel%3Adiesel%3Dyes%7Cfuel%3Aoctane_95%3Dyes%7Cheight%3D5%7Cimport%3Dosm_poi_matchmaker%7Cmin_height%3D4.5%7Cname%3DAvia%7Coperator%3DAVIA%20Hung%C3%A1ria%20Kft.%7Cpayment%3Amastercard%3Dyes%7Cpayment%3Avisa%3Dyes%7Cphone%3D%2B36209791555%7Csource%3Awww.avia.hu%3Adate%3D2018-11-03%7Cwebsite%3Dhttps%3A//www.avia.hu/toltoallomas/%3Fid%3D15%7Cyoutube%3Dhttps%3A//www.youtube.com/channel/UCjvjkjf2RgmKBuTnKSXk-Rg -->
  <way action="modify" id="203129409" timestamp="2018-07-06T14:53:43Z" uid="8635934" user="osm_poi_matchmaker" version="7">
    <nd ref="5743799764"/>
    <nd ref="5743799545"/>
    <nd ref="5743799544"/>
    <nd ref="5743799763"/>
    <nd ref="2131009244"/>
    <nd ref="2473458174"/>
    <nd ref="2131009295"/>
    <nd ref="5743799765"/>
    <nd ref="2473458175"/>
    <nd ref="2131009268"/>
    <nd ref="5743799764"/>
    <tag k="addr:city" v="Budapest"/>
    <tag k="addr:country" v="HU"/>
    <tag k="addr:housename" v="AVIA töltőállomás"/>
    <tag k="addr:housenumber" v="89"/>
    <tag k="addr:postcode" v="1106"/>
    <tag k="addr:street" v="Kerepesi út"/>
    <tag k="amenity" v="fuel"/>
    <tag k="brand" v="Avia"/>
    <tag k="building" v="yes"/>
    <tag k="building:levels" v="1"/>
    <tag k="building:min_level" v="1"/>
    <tag k="building:part" v="roof"/>
    <tag k="email" v="zsoniko@avia.hu"/>
    <tag k="facebook" v="https://www.facebook.com/AVIAHungary"/>
    <tag k="fuel:diesel" v="yes"/>
    <tag k="fuel:octane_95" v="yes"/>
    <tag k="height" v="5"/>
    <tag k="import" v="osm_poi_matchmaker"/>
    <tag k="min_height" v="4.5"/>
    <tag k="name" v="Avia"/>
    <tag k="operator" v="AVIA Hungária Kft."/>
    <tag k="payment:mastercard" v="yes"/>
    <tag k="payment:visa" v="yes"/>
    <tag k="phone" v="+36209791555"/>
    <tag k="source:www.avia.hu:date" v="2018-11-03"/>
    <tag k="website" v="https://www.avia.hu/toltoallomas/?id=15"/>
    <tag k="youtube" v="https://www.youtube.com/channel/UCjvjkjf2RgmKBuTnKSXk-Rg"/>
  </way>
  <!-- Original coordinates: POINT (47.4906585 19.1707465) -->
  <!-- OSM <-> POI distance: None m-->
  <!-- Checker good: {not_in_water}; bad {}-->
  <!-- Original tags:  -->
  <!-- JOSM magic link: http://localhost:8111/load_object?new_layer=false&objects=n-11&addtags=%7Caddr%3Acity%3DBudapest%7Caddr%3Acountry%3DHU%7Caddr%3Ahousenumber%3D108/A%7Caddr%3Apostcode%3D1106%7Caddr%3Astreet%3DKereszt%C3%BAri%20utca%7Camenity%3Dfuel%7Cbrand%3DAvia%7Cemail%3Dmartonlaszlo666%40gmail.com%7Cfacebook%3Dhttps%3A//www.facebook.com/AVIAHungary%7Cfuel%3Adiesel%3Dyes%7Cfuel%3Aoctane_95%3Dyes%7Cimport%3Dosm_poi_matchmaker%7Cname%3DAvia%7Coperator%3DAVIA%20Hung%C3%A1ria%20Kft.%7Cpayment%3Amastercard%3Dyes%7Cpayment%3Avisa%3Dyes%7Cphone%3D%2B36705055589%7Csource%3Awww.avia.hu%3Adate%3D2018-11-03%7Cwebsite%3Dhttps%3A//www.avia.hu/toltoallomas/%3Fid%3D132%7Cyoutube%3Dhttps%3A//www.youtube.com/channel/UCjvjkjf2RgmKBuTnKSXk-Rg -->
  <node action="modify" id="-11" lat="47.4906585" lon="19.1707465" timestamp="2018-11-03T14:29:45Z" uid="8635934" user="osm_poi_matchmaker" version="99999">
    <tag k="addr:city" v="Budapest"/>
    <tag k="addr:country" v="HU"/>
    <tag k="addr:housenumber" v="108/A"/>
    <tag k="addr:postcode" v="1106"/>
    <tag k="addr:street" v="Keresztúri utca"/>
    <tag k="amenity" v="fuel"/>
    <tag k="brand" v="Avia"/>
    <tag k="email" v="martonlaszlo666@gmail.com"/>
    <tag k="facebook" v="https://www.facebook.com/AVIAHungary"/>
    <tag k="fuel:diesel" v="yes"/>
    <tag k="fuel:octane_95" v="yes"/>
    <tag k="import" v="osm_poi_matchmaker"/>
    <tag k="name" v="Avia"/>
    <tag k="operator" v="AVIA Hungária Kft."/>
    <tag k="payment:mastercard" v="yes"/>
    <tag k="payment:visa" v="yes"/>
    <tag k="phone" v="+36705055589"/>
    <tag k="source:www.avia.hu:date" v="2018-11-03"/>
    <tag k="website" v="https://www.avia.hu/toltoallomas/?id=132"/>
    <tag k="youtube" v="https://www.youtube.com/channel/UCjvjkjf2RgmKBuTnKSXk-Rg"/>
  </node>
  <!-- Original coordinates: POINT (47.3737605161 16.7782258987) -->
  <!-- OSM <-> POI distance: None m-->
  <!-- Checker good: {not_in_water}; bad {}-->
  <!-- Original tags:  -->
  <!-- JOSM magic link: http://localhost:8111/load_object?new_layer=false&objects=n-12&addtags=%7Caddr%3Acity%3DB%C3%BCk%7Caddr%3Aconscriptionnumber%3D0131/3%7Caddr%3Acountry%3DHU%7Caddr%3Apostcode%3D9737%7Camenity%3Dfuel%7Cbrand%3DAvia%7Cemail%3Daviadiesel%40avia.hu%7Cfacebook%3Dhttps%3A//www.facebook.com/AVIAHungary%7Cfuel%3Adiesel%3Dyes%7Cfuel%3Aoctane_95%3Dyes%7Cimport%3Dosm_poi_matchmaker%7Cname%3DAvia%7Coperator%3DAVIA%20Hung%C3%A1ria%20Kft.%7Cpayment%3Amastercard%3Dyes%7Cpayment%3Avisa%3Dyes%7Cphone%3D%2B3694358050%7Csource%3Awww.avia.hu%3Adate%3D2018-11-03%7Cwebsite%3Dhttps%3A//www.avia.hu/toltoallomas/%3Fid%3D24%7Cyoutube%3Dhttps%3A//www.youtube.com/channel/UCjvjkjf2RgmKBuTnKSXk-Rg -->
  <node action="modify" id="-12" lat="47.3737605161" lon="16.7782258987" timestamp="2018-11-03T14:29:45Z" uid="8635934" user="osm_poi_matchmaker" version="99999">
    <tag k="addr:city" v="Bük"/>
    <tag k="addr:conscriptionnumber" v="0131/3"/>
    <tag k="addr:country" v="HU"/>
    <tag k="addr:postcode" v="9737"/>
    <tag k="amenity" v="fuel"/>
    <tag k="brand" v="Avia"/>
    <tag k="email" v="aviadiesel@avia.hu"/>
    <tag k="facebook" v="https://www.facebook.com/AVIAHungary"/>
    <tag k="fuel:diesel" v="yes"/>
    <tag k="fuel:octane_95" v="yes"/>
    <tag k="import" v="osm_poi_matchmaker"/>
    <tag k="name" v="Avia"/>
    <tag k="operator" v="AVIA Hungária Kft."/>
    <tag k="payment:mastercard" v="yes"/>
    <tag k="payment:visa" v="yes"/>
    <tag k="phone" v="+3694358050"/>
    <tag k="source:www.avia.hu:date" v="2018-11-03"/>
    <tag k="website" v="https://www.avia.hu/toltoallomas/?id=24"/>
    <tag k="youtube" v="https://www.youtube.com/channel/UCjvjkjf2RgmKBuTnKSXk-Rg"/>
  </node>
  <!-- OSM link: https://osm.org/node/2832259629 -->
  <!-- Original coordinates: POINT (48.2635133 21.8943333) -->
  <!-- OSM <-> POI distance: 18.83743467 m-->
  <!-- Checker good: {not_in_water}; bad {}-->
  <!-- Original tags: 'amenity':'fuel';  -->
  <!-- JOSM magic link: http://localhost:8111/load_object?new_layer=false&objects=n2832259629&addtags=%7Caddr%3Acity%3DCig%C3%A1nd%7Caddr%3Acountry%3DHU%7Caddr%3Ahousenumber%3D52/A%7Caddr%3Apostcode%3D3973%7Caddr%3Astreet%3DVas%C3%BAt%20%C3%BAt%7Camenity%3Dfuel%7Cbrand%3DAvia%7Cemail%3Dcigandibenzinkut%40hotmail.com%7Cfacebook%3Dhttps%3A//www.facebook.com/AVIAHungary%7Cfuel%3Adiesel%3Dyes%7Cfuel%3Aoctane_95%3Dyes%7Cimport%3Dosm_poi_matchmaker%7Cname%3DAvia%7Coperator%3DAVIA%20Hung%C3%A1ria%20Kft.%7Cpayment%3Amastercard%3Dyes%7Cpayment%3Avisa%3Dyes%7Cphone%3D%2B3647334222%7Csource%3Awww.avia.hu%3Adate%3D2018-11-03%7Cwebsite%3Dhttps%3A//www.avia.hu/toltoallomas/%3Fid%3D30%7Cyoutube%3Dhttps%3A//www.youtube.com/channel/UCjvjkjf2RgmKBuTnKSXk-Rg -->
  <node action="modify" id="2832259629" lat="48.2633438948798" lon="21.8943349969523" timestamp="2014-05-02T18:44:05Z" uid="8635934" user="osm_poi_matchmaker" version="1">
    <tag k="addr:city" v="Cigánd"/>
    <tag k="addr:country" v="HU"/>
    <tag k="addr:housenumber" v="52/A"/>
    <tag k="addr:postcode" v="3973"/>
    <tag k="addr:street" v="Vasút út"/>
    <tag k="amenity" v="fuel"/>
    <tag k="brand" v="Avia"/>
    <tag k="email" v="cigandibenzinkut@hotmail.com"/>
    <tag k="facebook" v="https://www.facebook.com/AVIAHungary"/>
    <tag k="fuel:diesel" v="yes"/>
    <tag k="fuel:octane_95" v="yes"/>
    <tag k="import" v="osm_poi_matchmaker"/>
    <tag k="name" v="Avia"/>
    <tag k="operator" v="AVIA Hungária Kft."/>
    <tag k="payment:mastercard" v="yes"/>
    <tag k="payment:visa" v="yes"/>
    <tag k="phone" v="+3647334222"/>
    <tag k="source:www.avia.hu:date" v="2018-11-03"/>
    <tag k="website" v="https://www.avia.hu/toltoallomas/?id=30"/>
    <tag k="youtube" v="https://www.youtube.com/channel/UCjvjkjf2RgmKBuTnKSXk-Rg"/>
  </node>
  <!-- OSM link: https://osm.org/node/3459862390 -->
  <!-- Original coordinates: POINT (46.978751 16.504104) -->
  <!-- OSM <-> POI distance: 30.98059754 m-->
  <!-- Checker good: {not_in_water}; bad {}-->
  <!-- Original tags: 'amenity':'fuel'; 'fixme':'resurvey (source was old)'; 'name':'S&S'; 'source':'turistautak.hu'; 'source:date':'2008-07-22'; 'url':'http://turistautak.hu/poi.php?id=25207';  -->
  <!-- JOSM magic link: http://localhost:8111/load_object?new_layer=false&objects=n3459862390&addtags=%7Caddr%3Acity%3DCs%C3%A1k%C3%A1nydoroszl%C3%B3%7Caddr%3Acountry%3DHU%7Caddr%3Ahousenumber%3D70%7Caddr%3Apostcode%3D9919%7Caddr%3Astreet%3DVas%C3%BAt%20utca%7Camenity%3Dfuel%7Cbrand%3DAvia%7Cemail%3Daviadiesel%40avia.hu%7Cfacebook%3Dhttps%3A//www.facebook.com/AVIAHungary%7Cfixme%3Dresurvey%20%28source%20was%20old%29%7Cfuel%3Adiesel%3Dyes%7Cfuel%3Aoctane_95%3Dyes%7Cimport%3Dosm_poi_matchmaker%7Cname%3DAvia%7Coperator%3DAVIA%20Hung%C3%A1ria%20Kft.%7Cpayment%3Amastercard%3Dyes%7Cpayment%3Avisa%3Dyes%7Cphone%3D%2B36203672096%7Csource%3Dturistautak.hu%7Csource%3Adate%3D2008-07-22%7Csource%3Awww.avia.hu%3Adate%3D2018-11-03%7Curl%3Dhttp%3A//turistautak.hu/poi.php%3Fid%3D25207%7Cwebsite%3Dhttps%3A//www.avia.hu/toltoallomas/%3Fid%3D121%7Cyoutube%3Dhttps%3A//www.youtube.com/channel/UCjvjkjf2RgmKBuTnKSXk-Rg -->
  <node action="modify" id="3459862390" lat="46.9784729949335" lon="16.5040769977026" timestamp="2015-04-16T17:46:25Z" uid="8635934" user="osm_poi_matchmaker" version="1">
    <tag k="addr:city" v="Csákánydoroszló"/>
    <tag k="addr:country" v="HU"/>
    <tag k="addr:housenumber" v="70"/>
    <tag k="addr:postcode" v="9919"/>
    <tag k="addr:street" v="Vasút utca"/>
    <tag k="amenity" v="fuel"/>
    <tag k="brand" v="Avia"/>
    <tag k="email" v="aviadiesel@avia.hu"/>
    <tag k="facebook" v="https://www.facebook.com/AVIAHungary"/>
    <tag k="fixme" v="resurvey (source was old)"/>
    <tag k="fuel:diesel" v="yes"/>
    <tag k="fuel:octane_95" v="yes"/>
    <tag k="import" v="osm_poi_matchmaker"/>
    <tag k="name" v="Avia"/>
    <tag k="operator" v="AVIA Hungária Kft."/>
    <tag k="payment:mastercard" v="yes"/>
    <tag k="payment:visa" v="yes"/>
    <tag k="phone" v="+36203672096"/>
    <tag k="source" v="turistautak.hu"/>
    <tag k="source:date" v="2008-07-22"/>
    <tag k="source:www.avia.hu:date" v="2018-11-03"/>
    <tag k="url" v="http://turistautak.hu/poi.php?id=25207"/>
    <tag k="website" v="https://www.avia.hu/toltoallomas/?id=121"/>
    <tag k="youtube" v="https://www.youtube.com/channel/UCjvjkjf2RgmKBuTnKSXk-Rg"/>
  </node>
  <!-- OSM link: https://osm.org/node/2706914586 -->
  <!-- Original coordinates: POINT (46.53155 20.883113) -->
  <!-- OSM <-> POI distance: 21.43205905 m-->
  <!-- Checker good: {not_in_water}; bad {}-->
  <!-- Original tags: 'amenity':'fuel'; 'brand':'AViA'; 'fuel:diesel':'yes'; 'fuel:octane_95':'yes'; 'name':'Avia'; 'opening_hours':'Mo-Su 06:00-20:00'; 'payment:cash':'yes'; 'payment:credit_cards':'yes'; 'source':'local knowledge';  -->
  <!-- JOSM magic link: http://localhost:8111/load_object?new_layer=false&objects=n2706914586&addtags=%7Caddr%3Acity%3DCsan%C3%A1dap%C3%A1ca%7Caddr%3Acountry%3DHU%7Caddr%3Apostcode%3D5662%7Camenity%3Dfuel%7Cbrand%3DAvia%7Cemail%3Dtjanos%40gmail.hu%7Cfacebook%3Dhttps%3A//www.facebook.com/AVIAHungary%7Cfuel%3Adiesel%3Dyes%7Cfuel%3Aoctane_95%3Dyes%7Cimport%3Dosm_poi_matchmaker%7Cname%3DAvia%7Copening_hours%3DMo-Su%2006%3A00-20%3A00%7Coperator%3DAVIA%20Hung%C3%A1ria%20Kft.%7Cpayment%3Acash%3Dyes%7Cpayment%3Acredit_cards%3Dyes%7Cpayment%3Amastercard%3Dyes%7Cpayment%3Avisa%3Dyes%7Cphone%3D%2B3668520030%7Csource%3Dlocal%20knowledge%7Csource%3Awww.avia.hu%3Adate%3D2018-11-03%7Cwebsite%3Dhttps%3A//www.avia.hu/toltoallomas/%3Fid%3D117%7Cyoutube%3Dhttps%3A//www.youtube.com/channel/UCjvjkjf2RgmKBuTnKSXk-Rg -->
  <node action="modify" id="2706914586" lat="46.5313872949538" lon="20.883263197093" timestamp="2014-03-08T12:37:03Z" uid="8635934" user="osm_poi_matchmaker" version="1">
    <tag k="addr:city" v="Csanádapáca"/>
    <tag k="addr:country" v="HU"/>
    <tag k="addr:postcode" v="5662"/>
    <tag k="amenity" v="fuel"/>
    <tag k="brand" v="Avia"/>
    <tag k="email" v="tjanos@gmail.hu"/>
    <tag k="facebook" v="https://www.facebook.com/AVIAHungary"/>
    <tag k="fuel:diesel" v="yes"/>
    <tag k="fuel:octane_95" v="yes"/>
    <tag k="import" v="osm_poi_matchmaker"/>
    <tag k="name" v="Avia"/>
    <tag k="opening_hours" v="Mo-Su 06:00-20:00"/>
    <tag k="operator" v="AVIA Hungária Kft."/>
    <tag k="payment:cash" v="yes"/>
    <tag k="payment:credit_cards" v="yes"/>
    <tag k="payment:mastercard" v="yes"/>
    <tag k="payment:visa" v="yes"/>
    <tag k="phone" v="+3668520030"/>
    <tag k="source" v="local knowledge"/>
    <tag k="source:www.avia.hu:date" v="2018-11-03"/>
    <tag k="website" v="https://www.avia.hu/toltoallomas/?id=117"/>
    <tag k="youtube" v="https://www.youtube.com/channel/UCjvjkjf2RgmKBuTnKSXk-Rg"/>
  </node>
  <!-- OSM link: https://osm.org/node/3522567887 -->
  <!-- Original coordinates: POINT (47.650888 19.817247) -->
  <!-- OSM <-> POI distance: 16.64893175 m-->
  <!-- Checker good: {not_in_water}; bad {}-->
  <!-- Original tags: 'amenity':'fuel';  -->
  <!-- JOSM magic link: http://localhost:8111/load_object?new_layer=false&objects=n3522567887&addtags=%7Caddr%3Acity%3DCs%C3%A1ny%7Caddr%3Acountry%3DHU%7Caddr%3Ahousenumber%3D2/A%7Caddr%3Apostcode%3D3015%7Caddr%3Astreet%3DHatvani%20%C3%BAt%7Camenity%3Dfuel%7Cbrand%3DAvia%7Cemail%3Dlenivankft%40gmail.com%7Cfacebook%3Dhttps%3A//www.facebook.com/AVIAHungary%7Cfuel%3Adiesel%3Dyes%7Cfuel%3Aoctane_95%3Dyes%7Cimport%3Dosm_poi_matchmaker%7Cname%3DAvia%7Coperator%3DAVIA%20Hung%C3%A1ria%20Kft.%7Cpayment%3Amastercard%3Dyes%7Cpayment%3Avisa%3Dyes%7Cphone%3D%2B36309038486%7Csource%3Awww.avia.hu%3Adate%3D2018-11-03%7Cwebsite%3Dhttps%3A//www.avia.hu/toltoallomas/%3Fid%3D115%7Cyoutube%3Dhttps%3A//www.youtube.com/channel/UCjvjkjf2RgmKBuTnKSXk-Rg -->
  <node action="modify" id="3522567887" lat="47.6508423949045" lon="19.8170352972414" timestamp="2015-05-16T21:04:55Z" uid="8635934" user="osm_poi_matchmaker" version="1">
    <tag k="addr:city" v="Csány"/>
    <tag k="addr:country" v="HU"/>
    <tag k="addr:housenumber" v="2/A"/>
    <tag k="addr:postcode" v="3015"/>
    <tag k="addr:street" v="Hatvani út"/>
    <tag k="amenity" v="fuel"/>
    <tag k="brand" v="Avia"/>
    <tag k="email" v="lenivankft@gmail.com"/>
    <tag k="facebook" v="https://www.facebook.com/AVIAHungary"/>
    <tag k="fuel:diesel" v="yes"/>
    <tag k="fuel:octane_95" v="yes"/>
    <tag k="import" v="osm_poi_matchmaker"/>
    <tag k="name" v="Avia"/>
    <tag k="operator" v="AVIA Hungária Kft."/>
    <tag k="payment:mastercard" v="yes"/>
    <tag k="payment:visa" v="yes"/>
    <tag k="phone" v="+36309038486"/>
    <tag k="source:www.avia.hu:date" v="2018-11-03"/>
    <tag k="website" v="https://www.avia.hu/toltoallomas/?id=115"/>
    <tag k="youtube" v="https://www.youtube.com/channel/UCjvjkjf2RgmKBuTnKSXk-Rg"/>
  </node>
  <!-- Original coordinates: POINT (47.41536 16.72103) -->
  <!-- OSM <-> POI distance: None m-->
  <!-- Checker good: {not_in_water}; bad {}-->
  <!-- Original tags:  -->
  <!-- JOSM magic link: http://localhost:8111/load_object?new_layer=false&objects=n-17&addtags=%7Caddr%3Acity%3DCsepreg%7Caddr%3Aconscriptionnumber%3D020/38%7Caddr%3Acountry%3DHU%7Caddr%3Apostcode%3D9735%7Camenity%3Dfuel%7Cbrand%3DAvia%7Cemail%3Daviadiesel%40avia.hu%7Cfacebook%3Dhttps%3A//www.facebook.com/AVIAHungary%7Cfuel%3Adiesel%3Dyes%7Cfuel%3Aoctane_95%3Dyes%7Cimport%3Dosm_poi_matchmaker%7Cname%3DAvia%7Coperator%3DAVIA%20Hung%C3%A1ria%20Kft.%7Cpayment%3Amastercard%3Dyes%7Cpayment%3Avisa%3Dyes%7Cphone%3D%2B3694565104%7Csource%3Awww.avia.hu%3Adate%3D2018-11-03%7Cwebsite%3Dhttps%3A//www.avia.hu/toltoallomas/%3Fid%3D7%7Cyoutube%3Dhttps%3A//www.youtube.com/channel/UCjvjkjf2RgmKBuTnKSXk-Rg -->
  <node action="modify" id="-17" lat="47.41536" lon="16.72103" timestamp="2018-11-03T14:29:45Z" uid="8635934" user="osm_poi_matchmaker" version="99999">
    <tag k="addr:city" v="Csepreg"/>
    <tag k="addr:conscriptionnumber" v="020/38"/>
    <tag k="addr:country" v="HU"/>
    <tag k="addr:postcode" v="9735"/>
    <tag k="amenity" v="fuel"/>
    <tag k="brand" v="Avia"/>
    <tag k="email" v="aviadiesel@avia.hu"/>
    <tag k="facebook" v="https://www.facebook.com/AVIAHungary"/>
    <tag k="fuel:diesel" v="yes"/>
    <tag k="fuel:octane_95" v="yes"/>
    <tag k="import" v="osm_poi_matchmaker"/>
    <tag k="name" v="Avia"/>
    <tag k="operator" v="AVIA Hungária Kft."/>
    <tag k="payment:mastercard" v="yes"/>
    <tag k="payment:visa" v="yes"/>
    <tag k="phone" v="+3694565104"/>
    <tag k="source:www.avia.hu:date" v="2018-11-03"/>
    <tag k="website" v="https://www.avia.hu/toltoallomas/?id=7"/>
    <tag k="youtube" v="https://www.youtube.com/channel/UCjvjkjf2RgmKBuTnKSXk-Rg"/>
  </node>
  <node action="modify" id="3423382090" lat="46.3735604" lon="18.149204" timestamp="2018-04-23T05:23:39Z" uid="7530849" user="Zsolt Medgyesi" version="2"/>
  <node action="modify" id="3423382091" lat="46.373596" lon="18.1493515" timestamp="2018-04-23T05:23:39Z" uid="7530849" user="Zsolt Medgyesi" version="2"/>
  <node action="modify" id="3423399506" lat="46.3736227" lon="18.1493379" timestamp="2018-04-23T05:23:39Z" uid="7530849" user="Zsolt Medgyesi" version="2"/>
  <node action="modify" id="3423382092" lat="46.3736429" lon="18.149423" timestamp="2015-03-28T12:43:12Z" uid="1740278" user="czunami" version="1"/>
  <node action="modify" id="3423399493" lat="46.3736155" lon="18.1494366" timestamp="2015-03-28T12:43:12Z" uid="1740278" user="czunami" version="1"/>
  <node action="modify" id="3423399494" lat="46.3736458" lon="18.1495644" timestamp="2015-03-28T12:43:12Z" uid="1740278" user="czunami" version="1"/>
  <node action="modify" id="3423399495" lat="46.3735349" lon="18.1496197" timestamp="2015-03-28T12:43:12Z" uid="1740278" user="czunami" version="1"/>
  <node action="modify" id="3423399496" lat="46.3735039" lon="18.1494888" timestamp="2015-03-28T12:43:13Z" uid="1740278" user="czunami" version="1"/>
  <node action="modify" id="3423399497" lat="46.3734753" lon="18.149503" timestamp="2015-03-28T12:43:13Z" uid="1740278" user="czunami" version="1"/>
  <node action="modify" id="3423399498" lat="46.3734552" lon="18.1494182" timestamp="2015-03-28T12:43:13Z" uid="1740278" user="czunami" version="1"/>
  <node action="modify" id="3423399499" lat="46.3734864" lon="18.1494026" timestamp="2015-03-28T12:43:13Z" uid="1740278" user="czunami" version="1"/>
  <node action="modify" id="3423399500" lat="46.3734523" lon="18.1492591" timestamp="2015-03-28T12:43:13Z" uid="1740278" user="czunami" version="1"/>
  <node action="modify" id="3423382090" lat="46.3735604" lon="18.149204" timestamp="2018-04-23T05:23:39Z" uid="7530849" user="Zsolt Medgyesi" version="2"/>
  <!-- OSM link: https://osm.org/way/335220903 -->
  <!-- Original coordinates: POINT (46.372436 18.1480223) -->
  <!-- OSM <-> POI distance: 147.56089683 m-->
  <!-- Checker good: {not_in_water}; bad {}-->
  <!-- Original tags: 'amenity':'fuel'; 'building':'yes'; 'building:levels':'1'; 'layer':'1'; 'name':'Avia'; 'website':'http://www.avia.hu'; 'wheelchair':'yes';  -->
  <!-- JOSM magic link: http://localhost:8111/load_object?new_layer=false&objects=w335220903&addtags=%7Caddr%3Acity%3DDomb%C3%B3v%C3%A1r%7Caddr%3Acountry%3DHU%7Caddr%3Ahousenumber%3D1%7Caddr%3Apostcode%3D7200%7Caddr%3Astreet%3DK%C3%B3rh%C3%A1z%20utca%7Camenity%3Dfuel%7Cbrand%3DAvia%7Cbuilding%3Dyes%7Cbuilding%3Alevels%3D1%7Cemail%3Dinfo%40tankszer.hu%7Cfacebook%3Dhttps%3A//www.facebook.com/AVIAHungary%7Cfuel%3Adiesel%3Dyes%7Cfuel%3Aoctane_95%3Dyes%7Cimport%3Dosm_poi_matchmaker%7Clayer%3D1%7Cname%3DAvia%7Coperator%3DAVIA%20Hung%C3%A1ria%20Kft.%7Cpayment%3Amastercard%3Dyes%7Cpayment%3Avisa%3Dyes%7Cphone%3D%2B3674679031%7Csource%3Awww.avia.hu%3Adate%3D2018-11-03%7Cwebsite%3Dhttps%3A//www.avia.hu/toltoallomas/%3Fid%3D3%7Cwheelchair%3Dyes%7Cyoutube%3Dhttps%3A//www.youtube.com/channel/UCjvjkjf2RgmKBuTnKSXk-Rg -->
  <way action="modify" id="335220903" timestamp="2017-09-12T09:10:19Z" uid="8635934" user="osm_poi_matchmaker" version="6">
    <nd ref="3423382090"/>
    <nd ref="3423382091"/>
    <nd ref="3423399506"/>
    <nd ref="3423382092"/>
    <nd ref="3423399493"/>
    <nd ref="3423399494"/>
    <nd ref="3423399495"/>
    <nd ref="3423399496"/>
    <nd ref="3423399497"/>
    <nd ref="3423399498"/>
    <nd ref="3423399499"/>
    <nd ref="3423399500"/>
    <nd ref="3423382090"/>
    <tag k="addr:city" v="Dombóvár"/>
    <tag k="addr:country" v="HU"/>
    <tag k="addr:housenumber" v="1"/>
    <tag k="addr:postcode" v="7200"/>
    <tag k="addr:street" v="Kórház utca"/>
    <tag k="amenity" v="fuel"/>
    <tag k="brand" v="Avia"/>
    <tag k="building" v="yes"/>
    <tag k="building:levels" v="1"/>
    <tag k="email" v="info@tankszer.hu"/>
    <tag k="facebook" v="https://www.facebook.com/AVIAHungary"/>
    <tag k="fuel:diesel" v="yes"/>
    <tag k="fuel:octane_95" v="yes"/>
    <tag k="import" v="osm_poi_matchmaker"/>
    <tag k="layer" v="1"/>
    <tag k="name" v="Avia"/>
    <tag k="operator" v="AVIA Hungária Kft."/>
    <tag k="payment:mastercard" v="yes"/>
    <tag k="payment:visa" v="yes"/>
    <tag k="phone" v="+3674679031"/>
    <tag k="source:www.avia.hu:date" v="2018-11-03"/>
    <tag k="website" v="https://www.avia.hu/toltoallomas/?id=3"/>
    <tag k="wheelchair" v="yes"/>
    <tag k="youtube" v="https://www.youtube.com/channel/UCjvjkjf2RgmKBuTnKSXk-Rg"/>
  </way>
  <!-- Original coordinates: POINT (46.9469324 18.2296874) -->
  <!-- OSM <-> POI distance: None m-->
  <!-- Checker good: {not_in_water}; bad {}-->
  <!-- Original tags:  -->
  <!-- JOSM magic link: http://localhost:8111/load_object?new_layer=false&objects=n-19&addtags=%7Caddr%3Acity%3DEnying%7Caddr%3Acountry%3DHU%7Caddr%3Ahousenumber%3D119%7Caddr%3Apostcode%3D8131%7Caddr%3Astreet%3DD%C3%B3zsa%20Gy%C3%B6rgy%20%C3%BAt%7Camenity%3Dfuel%7Cbrand%3DAvia%7Cemail%3Droyappetrol%40gmail.com%7Cfacebook%3Dhttps%3A//www.facebook.com/AVIAHungary%7Cfuel%3Adiesel%3Dyes%7Cfuel%3Aoctane_95%3Dyes%7Cimport%3Dosm_poi_matchmaker%7Cname%3DAvia%7Coperator%3DAVIA%20Hung%C3%A1ria%20Kft.%7Cpayment%3Amastercard%3Dyes%7Cpayment%3Avisa%3Dyes%7Cphone%3D%2B3622572092%7Csource%3Awww.avia.hu%3Adate%3D2018-11-03%7Cwebsite%3Dhttps%3A//www.avia.hu/toltoallomas/%3Fid%3D123%7Cyoutube%3Dhttps%3A//www.youtube.com/channel/UCjvjkjf2RgmKBuTnKSXk-Rg -->
  <node action="modify" id="-19" lat="46.9469324" lon="18.2296874" timestamp="2018-11-03T14:29:45Z" uid="8635934" user="osm_poi_matchmaker" version="99999">
    <tag k="addr:city" v="Enying"/>
    <tag k="addr:country" v="HU"/>
    <tag k="addr:housenumber" v="119"/>
    <tag k="addr:postcode" v="8131"/>
    <tag k="addr:street" v="Dózsa György út"/>
    <tag k="amenity" v="fuel"/>
    <tag k="brand" v="Avia"/>
    <tag k="email" v="royappetrol@gmail.com"/>
    <tag k="facebook" v="https://www.facebook.com/AVIAHungary"/>
    <tag k="fuel:diesel" v="yes"/>
    <tag k="fuel:octane_95" v="yes"/>
    <tag k="import" v="osm_poi_matchmaker"/>
    <tag k="name" v="Avia"/>
    <tag k="operator" v="AVIA Hungária Kft."/>
    <tag k="payment:mastercard" v="yes"/>
    <tag k="payment:visa" v="yes"/>
    <tag k="phone" v="+3622572092"/>
    <tag k="source:www.avia.hu:date" v="2018-11-03"/>
    <tag k="website" v="https://www.avia.hu/toltoallomas/?id=123"/>
    <tag k="youtube" v="https://www.youtube.com/channel/UCjvjkjf2RgmKBuTnKSXk-Rg"/>
  </node>
  <node action="modify" id="2387126750" lat="47.381771" lon="18.9050541" timestamp="2014-06-20T10:50:04Z" uid="695901" user="Cinegember" version="2"/>
  <node action="modify" id="2924649153" lat="47.3818643" lon="18.9050054" timestamp="2014-06-20T10:49:59Z" uid="695901" user="Cinegember" version="1"/>
  <node action="modify" id="2924649156" lat="47.3818807" lon="18.9050742" timestamp="2014-06-20T10:49:59Z" uid="695901" user="Cinegember" version="1"/>
  <node action="modify" id="2387126757" lat="47.3819027" lon="18.9050627" timestamp="2014-06-20T10:50:04Z" uid="695901" user="Cinegember" version="2"/>
  <node action="modify" id="2387126761" lat="47.3819608" lon="18.9053058" timestamp="2014-06-20T10:50:04Z" uid="695901" user="Cinegember" version="2"/>
  <node action="modify" id="2924649159" lat="47.3819039" lon="18.9053355" timestamp="2014-06-20T10:49:59Z" uid="695901" user="Cinegember" version="1"/>
  <node action="modify" id="2924649158" lat="47.3818969" lon="18.9053059" timestamp="2014-06-20T10:49:59Z" uid="695901" user="Cinegember" version="1"/>
  <node action="modify" id="2387126754" lat="47.3818385" lon="18.9053363" timestamp="2014-06-20T10:50:04Z" uid="695901" user="Cinegember" version="2"/>
  <node action="modify" id="2924649150" lat="47.3817855" lon="18.9051149" timestamp="2014-06-20T10:49:59Z" uid="695901" user="Cinegember" version="1"/>
  <node action="modify" id="2387126750" lat="47.381771" lon="18.9050541" timestamp="2014-06-20T10:50:04Z" uid="695901" user="Cinegember" version="2"/>
  <!-- OSM link: https://osm.org/way/230182255 -->
  <!-- Original coordinates: POINT (47.38187568671469 18.90533030033112) -->
  <!-- OSM <-> POI distance: 0.94890336 m-->
  <!-- Checker good: {not_in_water}; bad {}-->
  <!-- Original tags: 'addr:city':'Érd'; 'addr:country':'HU'; 'addr:postcode':'2030'; 'addr:street':'Szent László tér'; 'amenity':'fuel'; 'brand':'AVIA'; 'building':'yes'; 'fuel:lpg':'yes'; 'name':'AVIA'; 'opening_hours':'Mo-Fr 6:00-18:00, Sa 6:00-13:00'; 'website':'http://www.avia.hu';  -->
  <!-- JOSM magic link: http://localhost:8111/load_object?new_layer=false&objects=w230182255&addtags=%7Caddr%3Acity%3D%C3%89rd%7Caddr%3Acountry%3DHU%7Caddr%3Ahousenumber%3D1%7Caddr%3Apostcode%3D2030%7Caddr%3Astreet%3DSzent%20L%C3%A1szl%C3%B3%20t%C3%A9r%7Camenity%3Dfuel%7Cbrand%3DAvia%7Cbuilding%3Dyes%7Cemail%3Dzamboesgozon%40avia.hu%7Cfacebook%3Dhttps%3A//www.facebook.com/AVIAHungary%7Cfuel%3Adiesel%3Dyes%7Cfuel%3Alpg%3Dyes%7Cfuel%3Aoctane_95%3Dyes%7Cimport%3Dosm_poi_matchmaker%7Cname%3DAvia%7Copening_hours%3DMo-Fr%206%3A00-18%3A00%2C%20Sa%206%3A00-13%3A00%7Coperator%3DAVIA%20Hung%C3%A1ria%20Kft.%7Cpayment%3Amastercard%3Dyes%7Cpayment%3Avisa%3Dyes%7Cphone%3D%2B36203967870%7Csource%3Awww.avia.hu%3Adate%3D2018-11-03%7Cwebsite%3Dhttps%3A//www.avia.hu/toltoallomas/%3Fid%3D67%7Cyoutube%3Dhttps%3A//www.youtube.com/channel/UCjvjkjf2RgmKBuTnKSXk-Rg -->
  <way action="modify" id="230182255" timestamp="2015-06-01T05:55:17Z" uid="8635934" user="osm_poi_matchmaker" version="5">
    <nd ref="2387126750"/>
    <nd ref="2924649153"/>
    <nd ref="2924649156"/>
    <nd ref="2387126757"/>
    <nd ref="2387126761"/>
    <nd ref="2924649159"/>
    <nd ref="2924649158"/>
    <nd ref="2387126754"/>
    <nd ref="2924649150"/>
    <nd ref="2387126750"/>
    <tag k="addr:city" v="Érd"/>
    <tag k="addr:country" v="HU"/>
    <tag k="addr:housenumber" v="1"/>
    <tag k="addr:postcode" v="2030"/>
    <tag k="addr:street" v="Szent László tér"/>
    <tag k="amenity" v="fuel"/>
    <tag k="brand" v="Avia"/>
    <tag k="building" v="yes"/>
    <tag k="email" v="zamboesgozon@avia.hu"/>
    <tag k="facebook" v="https://www.facebook.com/AVIAHungary"/>
    <tag k="fuel:diesel" v="yes"/>
    <tag k="fuel:lpg" v="yes"/>
    <tag k="fuel:octane_95" v="yes"/>
    <tag k="import" v="osm_poi_matchmaker"/>
    <tag k="name" v="Avia"/>
    <tag k="opening_hours" v="Mo-Fr 6:00-18:00, Sa 6:00-13:00"/>
    <tag k="operator" v="AVIA Hungária Kft."/>
    <tag k="payment:mastercard" v="yes"/>
    <tag k="payment:visa" v="yes"/>
    <tag k="phone" v="+36203967870"/>
    <tag k="source:www.avia.hu:date" v="2018-11-03"/>
    <tag k="website" v="https://www.avia.hu/toltoallomas/?id=67"/>
    <tag k="youtube" v="https://www.youtube.com/channel/UCjvjkjf2RgmKBuTnKSXk-Rg"/>
  </way>
  <!-- OSM link: https://osm.org/node/2007242256 -->
  <!-- Original coordinates: POINT (48.32901 21.0965) -->
  <!-- OSM <-> POI distance: 35.51329406 m-->
  <!-- Checker good: {not_in_water}; bad {}-->
  <!-- Original tags: 'amenity':'fuel';  -->
  <!-- JOSM magic link: http://localhost:8111/load_object?new_layer=false&objects=n2007242256&addtags=%7Caddr%3Acity%3DForr%C3%B3%7Caddr%3Acountry%3DHU%7Caddr%3Ahousenumber%3D1%7Caddr%3Apostcode%3D3849%7Caddr%3Astreet%3DSz%C3%A9chenyi%20utca%7Camenity%3Dfuel%7Cbrand%3DAvia%7Cemail%3Dabaepker%40enternet.hu%7Cfacebook%3Dhttps%3A//www.facebook.com/AVIAHungary%7Cfuel%3Adiesel%3Dyes%7Cfuel%3Aoctane_95%3Dyes%7Cimport%3Dosm_poi_matchmaker%7Cname%3DAvia%7Coperator%3DAVIA%20Hung%C3%A1ria%20Kft.%7Cpayment%3Amastercard%3Dyes%7Cpayment%3Avisa%3Dyes%7Cphone%3D%2B3646587299%7Csource%3Awww.avia.hu%3Adate%3D2018-11-03%7Cwebsite%3Dhttps%3A//www.avia.hu/toltoallomas/%3Fid%3D28%7Cyoutube%3Dhttps%3A//www.youtube.com/channel/UCjvjkjf2RgmKBuTnKSXk-Rg -->
  <node action="modify" id="2007242256" lat="48.3292965948772" lon="21.0967119970633" timestamp="2012-11-10T22:34:28Z" uid="8635934" user="osm_poi_matchmaker" version="6">
    <tag k="addr:city" v="Forró"/>
    <tag k="addr:country" v="HU"/>
    <tag k="addr:housenumber" v="1"/>
    <tag k="addr:postcode" v="3849"/>
    <tag k="addr:street" v="Széchenyi utca"/>
    <tag k="amenity" v="fuel"/>
    <tag k="brand" v="Avia"/>
    <tag k="email" v="abaepker@enternet.hu"/>
    <tag k="facebook" v="https://www.facebook.com/AVIAHungary"/>
    <tag k="fuel:diesel" v="yes"/>
    <tag k="fuel:octane_95" v="yes"/>
    <tag k="import" v="osm_poi_matchmaker"/>
    <tag k="name" v="Avia"/>
    <tag k="operator" v="AVIA Hungária Kft."/>
    <tag k="payment:mastercard" v="yes"/>
    <tag k="payment:visa" v="yes"/>
    <tag k="phone" v="+3646587299"/>
    <tag k="source:www.avia.hu:date" v="2018-11-03"/>
    <tag k="website" v="https://www.avia.hu/toltoallomas/?id=28"/>
    <tag k="youtube" v="https://www.youtube.com/channel/UCjvjkjf2RgmKBuTnKSXk-Rg"/>
  </node>
  <!-- OSM link: https://osm.org/node/4855752833 -->
  <!-- Original coordinates: POINT (47.775872 19.947977) -->
  <!-- OSM <-> POI distance: 11.68469903 m-->
  <!-- Checker good: {not_in_water}; bad {}-->
  <!-- Original tags: 'amenity':'fuel'; 'brand':'AVIA';  -->
  <!-- JOSM magic link: http://localhost:8111/load_object?new_layer=false&objects=n4855752833&addtags=%7Caddr%3Acity%3DGy%C3%B6ngy%C3%B6s%7Caddr%3Acountry%3DHU%7Caddr%3Ahousenumber%3D78%7Caddr%3Apostcode%3D3200%7Caddr%3Astreet%3DSzurdokpart%20%C3%BAt%7Camenity%3Dfuel%7Cbrand%3DAvia%7Cemail%3Dboaribenzinkut%40gmail.com%7Cfacebook%3Dhttps%3A//www.facebook.com/AVIAHungary%7Cfuel%3Adiesel%3Dyes%7Cfuel%3Aoctane_95%3Dyes%7Cimport%3Dosm_poi_matchmaker%7Cname%3DAvia%7Coperator%3DAVIA%20Hung%C3%A1ria%20Kft.%7Cpayment%3Amastercard%3Dyes%7Cpayment%3Avisa%3Dyes%7Cphone%3D%2B3637300528%7Csource%3Awww.avia.hu%3Adate%3D2018-11-03%7Cwebsite%3Dhttps%3A//www.avia.hu/toltoallomas/%3Fid%3D35%7Cyoutube%3Dhttps%3A//www.youtube.com/channel/UCjvjkjf2RgmKBuTnKSXk-Rg -->
  <node action="modify" id="4855752833" lat="47.7759066948994" lon="19.9481245972232" timestamp="2017-05-15T13:33:27Z" uid="8635934" user="osm_poi_matchmaker" version="1">
    <tag k="addr:city" v="Gyöngyös"/>
    <tag k="addr:country" v="HU"/>
    <tag k="addr:housenumber" v="78"/>
    <tag k="addr:postcode" v="3200"/>
    <tag k="addr:street" v="Szurdokpart út"/>
    <tag k="amenity" v="fuel"/>
    <tag k="brand" v="Avia"/>
    <tag k="email" v="boaribenzinkut@gmail.com"/>
    <tag k="facebook" v="https://www.facebook.com/AVIAHungary"/>
    <tag k="fuel:diesel" v="yes"/>
    <tag k="fuel:octane_95" v="yes"/>
    <tag k="import" v="osm_poi_matchmaker"/>
    <tag k="name" v="Avia"/>
    <tag k="operator" v="AVIA Hungária Kft."/>
    <tag k="payment:mastercard" v="yes"/>
    <tag k="payment:visa" v="yes"/>
    <tag k="phone" v="+3637300528"/>
    <tag k="source:www.avia.hu:date" v="2018-11-03"/>
    <tag k="website" v="https://www.avia.hu/toltoallomas/?id=35"/>
    <tag k="youtube" v="https://www.youtube.com/channel/UCjvjkjf2RgmKBuTnKSXk-Rg"/>
  </node>
  <!-- Original coordinates: POINT (47.67494572942535 17.67264604568481) -->
  <!-- OSM <-> POI distance: None m-->
  <!-- Checker good: {not_in_water}; bad {}-->
  <!-- Original tags:  -->
  <!-- JOSM magic link: http://localhost:8111/load_object?new_layer=false&objects=n-23&addtags=%7Caddr%3Acity%3DGy%C5%91r%7Caddr%3Acountry%3DHU%7Caddr%3Ahousenumber%3D75%7Caddr%3Apostcode%3D9028%7Caddr%3Astreet%3DFeh%C3%A9rv%C3%A1ri%20%C3%BAt%7Camenity%3Dfuel%7Cbrand%3DAvia%7Cemail%3Daviagyor%40gmail.com%7Cfacebook%3Dhttps%3A//www.facebook.com/AVIAHungary%7Cfuel%3Adiesel%3Dyes%7Cfuel%3Aoctane_95%3Dyes%7Cimport%3Dosm_poi_matchmaker%7Cname%3DAvia%7Coperator%3DAVIA%20Hung%C3%A1ria%20Kft.%7Cpayment%3Amastercard%3Dyes%7Cpayment%3Avisa%3Dyes%7Cphone%3D%2B3696410327%7Csource%3Awww.avia.hu%3Adate%3D2018-11-03%7Cwebsite%3Dhttps%3A//www.avia.hu/toltoallomas/%3Fid%3D76%7Cyoutube%3Dhttps%3A//www.youtube.com/channel/UCjvjkjf2RgmKBuTnKSXk-Rg -->
  <node action="modify" id="-23" lat="47.67494572942535" lon="17.672646045684814" timestamp="2018-11-03T14:29:45Z" uid="8635934" user="osm_poi_matchmaker" version="99999">
    <tag k="addr:city" v="Győr"/>
    <tag k="addr:country" v="HU"/>
    <tag k="addr:housenumber" v="75"/>
    <tag k="addr:postcode" v="9028"/>
    <tag k="addr:street" v="Fehérvári út"/>
    <tag k="amenity" v="fuel"/>
    <tag k="brand" v="Avia"/>
    <tag k="email" v="aviagyor@gmail.com"/>
    <tag k="facebook" v="https://www.facebook.com/AVIAHungary"/>
    <tag k="fuel:diesel" v="yes"/>
    <tag k="fuel:octane_95" v="yes"/>
    <tag k="import" v="osm_poi_matchmaker"/>
    <tag k="name" v="Avia"/>
    <tag k="operator" v="AVIA Hungária Kft."/>
    <tag k="payment:mastercard" v="yes"/>
    <tag k="payment:visa" v="yes"/>
    <tag k="phone" v="+3696410327"/>
    <tag k="source:www.avia.hu:date" v="2018-11-03"/>
    <tag k="website" v="https://www.avia.hu/toltoallomas/?id=76"/>
    <tag k="youtube" v="https://www.youtube.com/channel/UCjvjkjf2RgmKBuTnKSXk-Rg"/>
  </node>
  <!-- OSM link: https://osm.org/node/2688867841 -->
  <!-- Original coordinates: POINT (47.69199 21.67209) -->
  <!-- OSM <-> POI distance: 17.68616883 m-->
  <!-- Checker good: {not_in_water}; bad {}-->
  <!-- Original tags: 'addr:city':'Hajdúhadház'; 'addr:housenumber':'56'; 'addr:postcode':'4242'; 'addr:street':'Dr. Földi János utca'; 'amenity':'fuel'; 'brand':'AVIA'; 'name':'AVIA'; 'phone':'+3652583048'; 'website':'http://www.avia.hu';  -->
  <!-- JOSM magic link: http://localhost:8111/load_object?new_layer=false&objects=n2688867841&addtags=%7Caddr%3Acity%3DHajd%C3%BAhadh%C3%A1z%7Caddr%3Acountry%3DHU%7Caddr%3Ahousenumber%3D56%7Caddr%3Apostcode%3D4242%7Caddr%3Astreet%3DF%C3%B6ldi%20J%C3%A1nos%20utca%7Camenity%3Dfuel%7Cbrand%3DAvia%7Cemail%3Dpostmaster%40dozsaszovetkezet.t-online.hu%7Cfacebook%3Dhttps%3A//www.facebook.com/AVIAHungary%7Cfuel%3Adiesel%3Dyes%7Cfuel%3Aoctane_95%3Dyes%7Cimport%3Dosm_poi_matchmaker%7Cname%3DAvia%7Coperator%3DAVIA%20Hung%C3%A1ria%20Kft.%7Cpayment%3Amastercard%3Dyes%7Cpayment%3Avisa%3Dyes%7Cphone%3D%2B3652583048%7Csource%3Awww.avia.hu%3Adate%3D2018-11-03%7Cwebsite%3Dhttps%3A//www.avia.hu/toltoallomas/%3Fid%3D29%7Cyoutube%3Dhttps%3A//www.youtube.com/channel/UCjvjkjf2RgmKBuTnKSXk-Rg -->
  <node action="modify" id="2688867841" lat="47.6918989949028" lon="21.6722837969832" timestamp="2015-03-15T10:50:00Z" uid="8635934" user="osm_poi_matchmaker" version="3">
    <tag k="addr:city" v="Hajdúhadház"/>
    <tag k="addr:country" v="HU"/>
    <tag k="addr:housenumber" v="56"/>
    <tag k="addr:postcode" v="4242"/>
    <tag k="addr:street" v="Földi János utca"/>
    <tag k="amenity" v="fuel"/>
    <tag k="brand" v="Avia"/>
    <tag k="email" v="postmaster@dozsaszovetkezet.t-online.hu"/>
    <tag k="facebook" v="https://www.facebook.com/AVIAHungary"/>
    <tag k="fuel:diesel" v="yes"/>
    <tag k="fuel:octane_95" v="yes"/>
    <tag k="import" v="osm_poi_matchmaker"/>
    <tag k="name" v="Avia"/>
    <tag k="operator" v="AVIA Hungária Kft."/>
    <tag k="payment:mastercard" v="yes"/>
    <tag k="payment:visa" v="yes"/>
    <tag k="phone" v="+3652583048"/>
    <tag k="source:www.avia.hu:date" v="2018-11-03"/>
    <tag k="website" v="https://www.avia.hu/toltoallomas/?id=29"/>
    <tag k="youtube" v="https://www.youtube.com/channel/UCjvjkjf2RgmKBuTnKSXk-Rg"/>
  </node>
  <node action="modify" id="4645843524" lat="45.9449192" lon="18.9450229" timestamp="2017-01-30T21:48:16Z" uid="1559158" user="vakulya" version="1"/>
  <node action="modify" id="4645843525" lat="45.9449041" lon="18.9451143" timestamp="2017-01-30T21:48:16Z" uid="1559158" user="vakulya" version="1"/>
  <node action="modify" id="4645843526" lat="45.9447281" lon="18.9450542" timestamp="2017-01-30T21:48:16Z" uid="1559158" user="vakulya" version="1"/>
  <node action="modify" id="4645843527" lat="45.9447432" lon="18.9449628" timestamp="2017-01-30T21:48:16Z" uid="1559158" user="vakulya" version="1"/>
  <node action="modify" id="4645843524" lat="45.9449192" lon="18.9450229" timestamp="2017-01-30T21:48:16Z" uid="1559158" user="vakulya" version="1"/>
  <!-- OSM link: https://osm.org/way/470409859 -->
  <!-- Original coordinates: POINT (45.94474164603746 18.94551515579224) -->
  <!-- OSM <-> POI distance: 34.32888294 m-->
  <!-- Checker good: {not_in_water}; bad {}-->
  <!-- Original tags: 'addr:city':'Hercegszántó'; 'amenity':'fuel'; 'brand':'Avia'; 'building':'retail'; 'fuel:diesel':'yes'; 'fuel:lpg':'yes'; 'fuel:octane_95':'yes'; 'fuel:octane_98':'yes'; 'name':'Avia'; 'opening_hours':'Mo-Su 06:00-21:00'; 'website':'http://www.avia.hu/';  -->
  <!-- JOSM magic link: http://localhost:8111/load_object?new_layer=false&objects=w470409859&addtags=%7Caddr%3Acity%3DHercegsz%C3%A1nt%C3%B3%7Caddr%3Aconscriptionnumber%3D1216/2%7Caddr%3Acountry%3DHU%7Caddr%3Apostcode%3D6525%7Camenity%3Dfuel%7Cbrand%3DAvia%7Cbuilding%3Dretail%7Cemail%3Dbaja%40lamarin.hu%7Cfacebook%3Dhttps%3A//www.facebook.com/AVIAHungary%7Cfuel%3Adiesel%3Dyes%7Cfuel%3Alpg%3Dyes%7Cfuel%3Aoctane_95%3Dyes%7Cfuel%3Aoctane_98%3Dyes%7Cimport%3Dosm_poi_matchmaker%7Cname%3DAvia%7Copening_hours%3DMo-Su%2006%3A00-21%3A00%7Coperator%3DAVIA%20Hung%C3%A1ria%20Kft.%7Cpayment%3Amastercard%3Dyes%7Cpayment%3Avisa%3Dyes%7Cphone%3D%2B3679522730%7Csource%3Awww.avia.hu%3Adate%3D2018-11-03%7Cwebsite%3Dhttps%3A//www.avia.hu/toltoallomas/%3Fid%3D64%7Cyoutube%3Dhttps%3A//www.youtube.com/channel/UCjvjkjf2RgmKBuTnKSXk-Rg -->
  <way action="modify" id="470409859" timestamp="2017-01-30T22:48:50Z" uid="8635934" user="osm_poi_matchmaker" version="2">
    <nd ref="4645843524"/>
    <nd ref="4645843525"/>
    <nd ref="4645843526"/>
    <nd ref="4645843527"/>
    <nd ref="4645843524"/>
    <tag k="addr:city" v="Hercegszántó"/>
    <tag k="addr:conscriptionnumber" v="1216/2"/>
    <tag k="addr:country" v="HU"/>
    <tag k="addr:postcode" v="6525"/>
    <tag k="amenity" v="fuel"/>
    <tag k="brand" v="Avia"/>
    <tag k="building" v="retail"/>
    <tag k="email" v="baja@lamarin.hu"/>
    <tag k="facebook" v="https://www.facebook.com/AVIAHungary"/>
    <tag k="fuel:diesel" v="yes"/>
    <tag k="fuel:lpg" v="yes"/>
    <tag k="fuel:octane_95" v="yes"/>
    <tag k="fuel:octane_98" v="yes"/>
    <tag k="import" v="osm_poi_matchmaker"/>
    <tag k="name" v="Avia"/>
    <tag k="opening_hours" v="Mo-Su 06:00-21:00"/>
    <tag k="operator" v="AVIA Hungária Kft."/>
    <tag k="payment:mastercard" v="yes"/>
    <tag k="payment:visa" v="yes"/>
    <tag k="phone" v="+3679522730"/>
    <tag k="source:www.avia.hu:date" v="2018-11-03"/>
    <tag k="website" v="https://www.avia.hu/toltoallomas/?id=64"/>
    <tag k="youtube" v="https://www.youtube.com/channel/UCjvjkjf2RgmKBuTnKSXk-Rg"/>
  </way>
  <!-- OSM link: https://osm.org/node/1498877205 -->
  <!-- Original coordinates: POINT (48.094175 20.96659) -->
  <!-- OSM <-> POI distance: 28.24969121 m-->
  <!-- Checker good: {not_in_water}; bad {}-->
  <!-- Original tags: 'amenity':'fuel'; 'brand':'AVIA'; 'name':'AVIA'; 'website':'http://www.avia.hu';  -->
  <!-- JOSM magic link: http://localhost:8111/load_object?new_layer=false&objects=n1498877205&addtags=%7Caddr%3Acity%3DHern%C3%A1dkak%7Caddr%3Acountry%3DHU%7Caddr%3Ahousenumber%3D1/A%7Caddr%3Apostcode%3D3563%7Caddr%3Astreet%3DSz%C3%A9chenyi%20utca%7Camenity%3Dfuel%7Cbrand%3DAvia%7Cemail%3Dbenzolkft%40freemail.hu%7Cfacebook%3Dhttps%3A//www.facebook.com/AVIAHungary%7Cfuel%3Adiesel%3Dyes%7Cfuel%3Aoctane_95%3Dyes%7Cimport%3Dosm_poi_matchmaker%7Cname%3DAvia%7Coperator%3DAVIA%20Hung%C3%A1ria%20Kft.%7Cpayment%3Amastercard%3Dyes%7Cpayment%3Avisa%3Dyes%7Cphone%3D%2B36209823188%7Csource%3Awww.avia.hu%3Adate%3D2018-11-03%7Cwebsite%3Dhttps%3A//www.avia.hu/toltoallomas/%3Fid%3D41%7Cyoutube%3Dhttps%3A//www.youtube.com/channel/UCjvjkjf2RgmKBuTnKSXk-Rg -->
  <node action="modify" id="1498877205" lat="48.0942223948865" lon="20.9669636970814" timestamp="2015-03-15T10:50:01Z" uid="8635934" user="osm_poi_matchmaker" version="3">
    <tag k="addr:city" v="Hernádkak"/>
    <tag k="addr:country" v="HU"/>
    <tag k="addr:housenumber" v="1/A"/>
    <tag k="addr:postcode" v="3563"/>
    <tag k="addr:street" v="Széchenyi utca"/>
    <tag k="amenity" v="fuel"/>
    <tag k="brand" v="Avia"/>
    <tag k="email" v="benzolkft@freemail.hu"/>
    <tag k="facebook" v="https://www.facebook.com/AVIAHungary"/>
    <tag k="fuel:diesel" v="yes"/>
    <tag k="fuel:octane_95" v="yes"/>
    <tag k="import" v="osm_poi_matchmaker"/>
    <tag k="name" v="Avia"/>
    <tag k="operator" v="AVIA Hungária Kft."/>
    <tag k="payment:mastercard" v="yes"/>
    <tag k="payment:visa" v="yes"/>
    <tag k="phone" v="+36209823188"/>
    <tag k="source:www.avia.hu:date" v="2018-11-03"/>
    <tag k="website" v="https://www.avia.hu/toltoallomas/?id=41"/>
    <tag k="youtube" v="https://www.youtube.com/channel/UCjvjkjf2RgmKBuTnKSXk-Rg"/>
  </node>
  <!-- OSM link: https://osm.org/node/3440814440 -->
  <!-- Original coordinates: POINT (46.1470901828 18.3530044556) -->
  <!-- OSM <-> POI distance: 1.96900709 m-->
  <!-- Checker good: {not_in_water}; bad {}-->
  <!-- Original tags: 'amenity':'fuel'; 'source':'turistautak.hu'; 'source:date':'2015-01-12'; 'toilets:wheelchair':'yes'; 'url':'http://turistautak.hu/poi.php?id=11245'; 'wheelchair':'yes';  -->
  <!-- JOSM magic link: http://localhost:8111/load_object?new_layer=false&objects=n3440814440&addtags=%7Caddr%3Acity%3DHossz%C3%BAhet%C3%A9ny%7Caddr%3Acountry%3DHU%7Caddr%3Ahousenumber%3D40%7Caddr%3Apostcode%3D7694%7Caddr%3Astreet%3DSz%C3%A9chenyi%20utca%7Camenity%3Dfuel%7Cbrand%3DAvia%7Cemail%3Drobert.sebok%40echo-sprint.hu%7Cfacebook%3Dhttps%3A//www.facebook.com/AVIAHungary%7Cfuel%3Adiesel%3Dyes%7Cfuel%3Aoctane_95%3Dyes%7Cimport%3Dosm_poi_matchmaker%7Cname%3DAvia%7Coperator%3DAVIA%20Hung%C3%A1ria%20Kft.%7Cpayment%3Amastercard%3Dyes%7Cpayment%3Avisa%3Dyes%7Cphone%3D%2B36303750795%7Csource%3Dturistautak.hu%7Csource%3Adate%3D2015-01-12%7Csource%3Awww.avia.hu%3Adate%3D2018-11-03%7Ctoilets%3Awheelchair%3Dyes%7Curl%3Dhttp%3A//turistautak.hu/poi.php%3Fid%3D11245%7Cwebsite%3Dhttps%3A//www.avia.hu/toltoallomas/%3Fid%3D107%7Cwheelchair%3Dyes%7Cyoutube%3Dhttps%3A//www.youtube.com/channel/UCjvjkjf2RgmKBuTnKSXk-Rg -->
  <node action="modify" id="3440814440" lat="46.1470779949718" lon="18.3530229974452" timestamp="2017-08-18T08:54:45Z" uid="8635934" user="osm_poi_matchmaker" version="2">
    <tag k="addr:city" v="Hosszúhetény"/>
    <tag k="addr:country" v="HU"/>
    <tag k="addr:housenumber" v="40"/>
    <tag k="addr:postcode" v="7694"/>
    <tag k="addr:street" v="Széchenyi utca"/>
    <tag k="amenity" v="fuel"/>
    <tag k="brand" v="Avia"/>
    <tag k="email" v="robert.sebok@echo-sprint.hu"/>
    <tag k="facebook" v="https://www.facebook.com/AVIAHungary"/>
    <tag k="fuel:diesel" v="yes"/>
    <tag k="fuel:octane_95" v="yes"/>
    <tag k="import" v="osm_poi_matchmaker"/>
    <tag k="name" v="Avia"/>
    <tag k="operator" v="AVIA Hungária Kft."/>
    <tag k="payment:mastercard" v="yes"/>
    <tag k="payment:visa" v="yes"/>
    <tag k="phone" v="+36303750795"/>
    <tag k="source" v="turistautak.hu"/>
    <tag k="source:date" v="2015-01-12"/>
    <tag k="source:www.avia.hu:date" v="2018-11-03"/>
    <tag k="toilets:wheelchair" v="yes"/>
    <tag k="url" v="http://turistautak.hu/poi.php?id=11245"/>
    <tag k="website" v="https://www.avia.hu/toltoallomas/?id=107"/>
    <tag k="wheelchair" v="yes"/>
    <tag k="youtube" v="https://www.youtube.com/channel/UCjvjkjf2RgmKBuTnKSXk-Rg"/>
  </node>
  <!-- Original coordinates: POINT (47.6695339 19.4266194) -->
  <!-- OSM <-> POI distance: None m-->
  <!-- Checker good: {not_in_water}; bad {}-->
  <!-- Original tags:  -->
  <!-- JOSM magic link: http://localhost:8111/load_object?new_layer=false&objects=n-28&addtags=%7Caddr%3Acity%3DIklad%7Caddr%3Acountry%3DHU%7Caddr%3Apostcode%3D2181%7Camenity%3Dfuel%7Cbrand%3DAvia%7Cemail%3Dgoldoilkerkft%40gmail.com%7Cfacebook%3Dhttps%3A//www.facebook.com/AVIAHungary%7Cfuel%3Adiesel%3Dyes%7Cfuel%3Aoctane_95%3Dyes%7Cimport%3Dosm_poi_matchmaker%7Cname%3DAvia%7Coperator%3DAVIA%20Hung%C3%A1ria%20Kft.%7Cpayment%3Amastercard%3Dyes%7Cpayment%3Avisa%3Dyes%7Cphone%3D%2B36202769846%7Csource%3Awww.avia.hu%3Adate%3D2018-11-03%7Cwebsite%3Dhttps%3A//www.avia.hu/toltoallomas/%3Fid%3D130%7Cyoutube%3Dhttps%3A//www.youtube.com/channel/UCjvjkjf2RgmKBuTnKSXk-Rg -->
  <node action="modify" id="-28" lat="47.6695339" lon="19.4266194" timestamp="2018-11-03T14:29:45Z" uid="8635934" user="osm_poi_matchmaker" version="99999">
    <tag k="addr:city" v="Iklad"/>
    <tag k="addr:country" v="HU"/>
    <tag k="addr:postcode" v="2181"/>
    <tag k="amenity" v="fuel"/>
    <tag k="brand" v="Avia"/>
    <tag k="email" v="goldoilkerkft@gmail.com"/>
    <tag k="facebook" v="https://www.facebook.com/AVIAHungary"/>
    <tag k="fuel:diesel" v="yes"/>
    <tag k="fuel:octane_95" v="yes"/>
    <tag k="import" v="osm_poi_matchmaker"/>
    <tag k="name" v="Avia"/>
    <tag k="operator" v="AVIA Hungária Kft."/>
    <tag k="payment:mastercard" v="yes"/>
    <tag k="payment:visa" v="yes"/>
    <tag k="phone" v="+36202769846"/>
    <tag k="source:www.avia.hu:date" v="2018-11-03"/>
    <tag k="website" v="https://www.avia.hu/toltoallomas/?id=130"/>
    <tag k="youtube" v="https://www.youtube.com/channel/UCjvjkjf2RgmKBuTnKSXk-Rg"/>
  </node>
  <node action="modify" id="2985739275" lat="47.356818" lon="20.0948952" timestamp="2014-07-29T08:13:17Z" uid="127829" user="KaloRobi" version="2"/>
  <node action="modify" id="2987447820" lat="47.3568186" lon="20.0950432" timestamp="2014-07-30T08:20:44Z" uid="127829" user="KaloRobi" version="1"/>
  <node action="modify" id="2987447821" lat="47.3573165" lon="20.0950218" timestamp="2014-07-30T08:20:44Z" uid="127829" user="KaloRobi" version="1"/>
  <node action="modify" id="2987447822" lat="47.3573074" lon="20.0942922" timestamp="2014-07-30T08:20:44Z" uid="127829" user="KaloRobi" version="1"/>
  <node action="modify" id="2987447823" lat="47.3573692" lon="20.0942949" timestamp="2014-07-30T08:20:44Z" uid="127829" user="KaloRobi" version="1"/>
  <node action="modify" id="2987447824" lat="47.3573674" lon="20.0937826" timestamp="2014-07-30T08:20:44Z" uid="127829" user="KaloRobi" version="1"/>
  <node action="modify" id="1180600926" lat="47.3571913" lon="20.0937794" timestamp="2014-07-30T07:54:46Z" uid="127829" user="KaloRobi" version="2"/>
  <node action="modify" id="1180523478" lat="47.3568112" lon="20.093772" timestamp="2014-07-30T08:18:57Z" uid="127829" user="KaloRobi" version="4"/>
  <node action="modify" id="2985739275" lat="47.356818" lon="20.0948952" timestamp="2014-07-29T08:13:17Z" uid="127829" user="KaloRobi" version="2"/>
  <!-- OSM link: https://osm.org/way/295073891 -->
  <!-- Original coordinates: POINT (47.358585 20.094) -->
  <!-- OSM <-> POI distance: 135.30490563 m-->
  <!-- Checker good: {not_in_water}; bad {}-->
  <!-- Original tags: 'amenity':'fuel'; 'name':'Avia';  -->
  <!-- JOSM magic link: http://localhost:8111/load_object?new_layer=false&objects=w295073891&addtags=%7Caddr%3Acity%3DJ%C3%A1szals%C3%B3szentgy%C3%B6rgy%7Caddr%3Acountry%3DHU%7Caddr%3Ahousenumber%3D1/C%7Caddr%3Apostcode%3D5054%7Caddr%3Astreet%3DB%C3%A9ke%20%C3%BAt%7Camenity%3Dfuel%7Cbrand%3DAvia%7Cemail%3Dj.s.autonafta%40gmail.hu%7Cfacebook%3Dhttps%3A//www.facebook.com/AVIAHungary%7Cfuel%3Adiesel%3Dyes%7Cfuel%3Aoctane_95%3Dyes%7Cimport%3Dosm_poi_matchmaker%7Cname%3DAvia%7Coperator%3DAVIA%20Hung%C3%A1ria%20Kft.%7Cpayment%3Amastercard%3Dyes%7Cpayment%3Avisa%3Dyes%7Cphone%3D%2B36303731046%7Csource%3Awww.avia.hu%3Adate%3D2018-11-03%7Cwebsite%3Dhttps%3A//www.avia.hu/toltoallomas/%3Fid%3D129%7Cyoutube%3Dhttps%3A//www.youtube.com/channel/UCjvjkjf2RgmKBuTnKSXk-Rg -->
  <way action="modify" id="295073891" timestamp="2018-06-02T19:37:07Z" uid="8635934" user="osm_poi_matchmaker" version="3">
    <nd ref="2985739275"/>
    <nd ref="2987447820"/>
    <nd ref="2987447821"/>
    <nd ref="2987447822"/>
    <nd ref="2987447823"/>
    <nd ref="2987447824"/>
    <nd ref="1180600926"/>
    <nd ref="1180523478"/>
    <nd ref="2985739275"/>
    <tag k="addr:city" v="Jászalsószentgyörgy"/>
    <tag k="addr:country" v="HU"/>
    <tag k="addr:housenumber" v="1/C"/>
    <tag k="addr:postcode" v="5054"/>
    <tag k="addr:street" v="Béke út"/>
    <tag k="amenity" v="fuel"/>
    <tag k="brand" v="Avia"/>
    <tag k="email" v="j.s.autonafta@gmail.hu"/>
    <tag k="facebook" v="https://www.facebook.com/AVIAHungary"/>
    <tag k="fuel:diesel" v="yes"/>
    <tag k="fuel:octane_95" v="yes"/>
    <tag k="import" v="osm_poi_matchmaker"/>
    <tag k="name" v="Avia"/>
    <tag k="operator" v="AVIA Hungária Kft."/>
    <tag k="payment:mastercard" v="yes"/>
    <tag k="payment:visa" v="yes"/>
    <tag k="phone" v="+36303731046"/>
    <tag k="source:www.avia.hu:date" v="2018-11-03"/>
    <tag k="website" v="https://www.avia.hu/toltoallomas/?id=129"/>
    <tag k="youtube" v="https://www.youtube.com/channel/UCjvjkjf2RgmKBuTnKSXk-Rg"/>
  </way>
  <!-- OSM link: https://osm.org/node/2314425456 -->
  <!-- Original coordinates: POINT (47.49033 19.89146) -->
  <!-- OSM <-> POI distance: 29.86994794 m-->
  <!-- Checker good: {not_in_water}; bad {}-->
  <!-- Original tags: 'amenity':'fuel'; 'brand':'AVIA'; 'name':'AVIA'; 'website':'http://www.avia.hu';  -->
  <!-- JOSM magic link: http://localhost:8111/load_object?new_layer=false&objects=n2314425456&addtags=%7Caddr%3Acity%3DJ%C3%A1szber%C3%A9ny%7Caddr%3Acountry%3DHU%7Caddr%3Ahousenumber%3D3%7Caddr%3Apostcode%3D5100%7Caddr%3Astreet%3DNagyk%C3%A1tai%20%C3%BAt%7Camenity%3Dfuel%7Cbrand%3DAvia%7Cemail%3Dludvardi%40berenyauto.hu%7Cfacebook%3Dhttps%3A//www.facebook.com/AVIAHungary%7Cfuel%3Adiesel%3Dyes%7Cfuel%3Aoctane_95%3Dyes%7Cimport%3Dosm_poi_matchmaker%7Cname%3DAvia%7Coperator%3DAVIA%20Hung%C3%A1ria%20Kft.%7Cpayment%3Amastercard%3Dyes%7Cpayment%3Avisa%3Dyes%7Cphone%3D%2B3657515022%7Csource%3Awww.avia.hu%3Adate%3D2018-11-03%7Cwebsite%3Dhttps%3A//www.avia.hu/toltoallomas/%3Fid%3D87%7Cyoutube%3Dhttps%3A//www.youtube.com/channel/UCjvjkjf2RgmKBuTnKSXk-Rg -->
  <node action="modify" id="2314425456" lat="47.4905815949112" lon="19.8913206972311" timestamp="2016-02-29T09:23:36Z" uid="8635934" user="osm_poi_matchmaker" version="3">
    <tag k="addr:city" v="Jászberény"/>
    <tag k="addr:country" v="HU"/>
    <tag k="addr:housenumber" v="3"/>
    <tag k="addr:postcode" v="5100"/>
    <tag k="addr:street" v="Nagykátai út"/>
    <tag k="amenity" v="fuel"/>
    <tag k="brand" v="Avia"/>
    <tag k="email" v="ludvardi@berenyauto.hu"/>
    <tag k="facebook" v="https://www.facebook.com/AVIAHungary"/>
    <tag k="fuel:diesel" v="yes"/>
    <tag k="fuel:octane_95" v="yes"/>
    <tag k="import" v="osm_poi_matchmaker"/>
    <tag k="name" v="Avia"/>
    <tag k="operator" v="AVIA Hungária Kft."/>
    <tag k="payment:mastercard" v="yes"/>
    <tag k="payment:visa" v="yes"/>
    <tag k="phone" v="+3657515022"/>
    <tag k="source:www.avia.hu:date" v="2018-11-03"/>
    <tag k="website" v="https://www.avia.hu/toltoallomas/?id=87"/>
    <tag k="youtube" v="https://www.youtube.com/channel/UCjvjkjf2RgmKBuTnKSXk-Rg"/>
  </node>
  <!-- Original coordinates: POINT (47.578773 19.736515) -->
  <!-- OSM <-> POI distance: None m-->
  <!-- Checker good: {not_in_water}; bad {}-->
  <!-- Original tags:  -->
  <!-- JOSM magic link: http://localhost:8111/load_object?new_layer=false&objects=n-31&addtags=%7Caddr%3Acity%3DJ%C3%A1szf%C3%A9nyszaru%7Caddr%3Aconscriptionnumber%3D05/150%7Caddr%3Acountry%3DHU%7Caddr%3Apostcode%3D5126%7Camenity%3Dfuel%7Cbrand%3DAvia%7Cemail%3Dgoldoilkerkft%40gmail.com%7Cfacebook%3Dhttps%3A//www.facebook.com/AVIAHungary%7Cfuel%3Adiesel%3Dyes%7Cfuel%3Aoctane_95%3Dyes%7Cimport%3Dosm_poi_matchmaker%7Cname%3DAvia%7Coperator%3DAVIA%20Hung%C3%A1ria%20Kft.%7Cpayment%3Amastercard%3Dyes%7Cpayment%3Avisa%3Dyes%7Csource%3Awww.avia.hu%3Adate%3D2018-11-03%7Cwebsite%3Dhttps%3A//www.avia.hu/toltoallomas/%3Fid%3D43%7Cyoutube%3Dhttps%3A//www.youtube.com/channel/UCjvjkjf2RgmKBuTnKSXk-Rg -->
  <node action="modify" id="-31" lat="47.578773" lon="19.736515" timestamp="2018-11-03T14:29:45Z" uid="8635934" user="osm_poi_matchmaker" version="99999">
    <tag k="addr:city" v="Jászfényszaru"/>
    <tag k="addr:conscriptionnumber" v="05/150"/>
    <tag k="addr:country" v="HU"/>
    <tag k="addr:postcode" v="5126"/>
    <tag k="amenity" v="fuel"/>
    <tag k="brand" v="Avia"/>
    <tag k="email" v="goldoilkerkft@gmail.com"/>
    <tag k="facebook" v="https://www.facebook.com/AVIAHungary"/>
    <tag k="fuel:diesel" v="yes"/>
    <tag k="fuel:octane_95" v="yes"/>
    <tag k="import" v="osm_poi_matchmaker"/>
    <tag k="name" v="Avia"/>
    <tag k="operator" v="AVIA Hungária Kft."/>
    <tag k="payment:mastercard" v="yes"/>
    <tag k="payment:visa" v="yes"/>
    <tag k="source:www.avia.hu:date" v="2018-11-03"/>
    <tag k="website" v="https://www.avia.hu/toltoallomas/?id=43"/>
    <tag k="youtube" v="https://www.youtube.com/channel/UCjvjkjf2RgmKBuTnKSXk-Rg"/>
  </node>
  <node action="modify" id="4518054216" lat="47.2455048" lon="18.6955395" timestamp="2016-11-23T21:29:06Z" uid="1559158" user="vakulya" version="1"/>
  <node action="modify" id="4518054217" lat="47.2455663" lon="18.6954408" timestamp="2016-11-23T21:29:06Z" uid="1559158" user="vakulya" version="1"/>
  <node action="modify" id="4518054218" lat="47.2455504" lon="18.6954194" timestamp="2016-11-23T21:29:06Z" uid="1559158" user="vakulya" version="1"/>
  <node action="modify" id="4518054219" lat="47.245592" lon="18.6953526" timestamp="2016-11-23T21:29:06Z" uid="1559158" user="vakulya" version="1"/>
  <node action="modify" id="4518054230" lat="47.2455787" lon="18.6953346" timestamp="2016-11-23T21:29:06Z" uid="1559158" user="vakulya" version="1"/>
  <node action="modify" id="4518054231" lat="47.2454879" lon="18.6952086" timestamp="2016-11-23T21:29:06Z" uid="1559158" user="vakulya" version="1"/>
  <node action="modify" id="4518054220" lat="47.2454759" lon="18.6951923" timestamp="2016-11-23T21:29:06Z" uid="1559158" user="vakulya" version="1"/>
  <node action="modify" id="4518054221" lat="47.2453717" lon="18.6953597" timestamp="2016-11-23T21:29:06Z" uid="1559158" user="vakulya" version="1"/>
  <node action="modify" id="4518054216" lat="47.2455048" lon="18.6955395" timestamp="2016-11-23T21:29:06Z" uid="1559158" user="vakulya" version="1"/>
  <!-- OSM link: https://osm.org/way/455398698 -->
  <!-- Original coordinates: POINT (47.245595 18.69539) -->
  <!-- OSM <-> POI distance: 2.15482702 m-->
  <!-- Checker good: {not_in_water}; bad {}-->
  <!-- Original tags: 'amenity':'fuel'; 'brand':'Agip'; 'building':'retail'; 'name':'Agip'; 'website':'http://www.eni.com/';  -->
  <!-- JOSM magic link: http://localhost:8111/load_object?new_layer=false&objects=w455398698&addtags=%7Caddr%3Acity%3DK%C3%A1poln%C3%A1sny%C3%A9k%7Caddr%3Acountry%3DHU%7Caddr%3Apostcode%3D2475%7Caddr%3Astreet%3D7%20f%C5%91%C3%BAt%7Camenity%3Dfuel%7Cbrand%3DAvia%7Cbuilding%3Dretail%7Cemail%3Dorszagkft%40t-online.hu%7Cfacebook%3Dhttps%3A//www.facebook.com/AVIAHungary%7Cfuel%3Adiesel%3Dyes%7Cfuel%3Aoctane_95%3Dyes%7Cimport%3Dosm_poi_matchmaker%7Cname%3DAvia%7Coperator%3DAVIA%20Hung%C3%A1ria%20Kft.%7Cpayment%3Amastercard%3Dyes%7Cpayment%3Avisa%3Dyes%7Cphone%3D%2B3622574011%7Csource%3Awww.avia.hu%3Adate%3D2018-11-03%7Cwebsite%3Dhttps%3A//www.avia.hu/toltoallomas/%3Fid%3D119%7Cyoutube%3Dhttps%3A//www.youtube.com/channel/UCjvjkjf2RgmKBuTnKSXk-Rg -->
  <way action="modify" id="455398698" timestamp="2016-11-23T22:29:08Z" uid="8635934" user="osm_poi_matchmaker" version="1">
    <nd ref="4518054216"/>
    <nd ref="4518054217"/>
    <nd ref="4518054218"/>
    <nd ref="4518054219"/>
    <nd ref="4518054230"/>
    <nd ref="4518054231"/>
    <nd ref="4518054220"/>
    <nd ref="4518054221"/>
    <nd ref="4518054216"/>
    <tag k="addr:city" v="Kápolnásnyék"/>
    <tag k="addr:country" v="HU"/>
    <tag k="addr:postcode" v="2475"/>
    <tag k="addr:street" v="7 főút"/>
    <tag k="amenity" v="fuel"/>
    <tag k="brand" v="Avia"/>
    <tag k="building" v="retail"/>
    <tag k="email" v="orszagkft@t-online.hu"/>
    <tag k="facebook" v="https://www.facebook.com/AVIAHungary"/>
    <tag k="fuel:diesel" v="yes"/>
    <tag k="fuel:octane_95" v="yes"/>
    <tag k="import" v="osm_poi_matchmaker"/>
    <tag k="name" v="Avia"/>
    <tag k="operator" v="AVIA Hungária Kft."/>
    <tag k="payment:mastercard" v="yes"/>
    <tag k="payment:visa" v="yes"/>
    <tag k="phone" v="+3622574011"/>
    <tag k="source:www.avia.hu:date" v="2018-11-03"/>
    <tag k="website" v="https://www.avia.hu/toltoallomas/?id=119"/>
    <tag k="youtube" v="https://www.youtube.com/channel/UCjvjkjf2RgmKBuTnKSXk-Rg"/>
  </way>
  <!-- OSM link: https://osm.org/node/348038162 -->
  <!-- Original coordinates: POINT (46.35311127799832 17.68734455108643) -->
  <!-- OSM <-> POI distance: 29.44705046 m-->
  <!-- Checker good: {not_in_water}; bad {}-->
  <!-- Original tags: 'amenity':'fuel'; 'name':'AVIA benzinkút';  -->
  <!-- JOSM magic link: http://localhost:8111/load_object?new_layer=false&objects=n348038162&addtags=%7Caddr%3Acity%3DKaposf%C5%91%7Caddr%3Aconscriptionnumber%3D643/5%7Caddr%3Acountry%3DHU%7Caddr%3Apostcode%3D7523%7Camenity%3Dfuel%7Cbrand%3DAvia%7Cemail%3Davia%40kapospetrol.hu%7Cfacebook%3Dhttps%3A//www.facebook.com/AVIAHungary%7Cfuel%3Adiesel%3Dyes%7Cfuel%3Aoctane_95%3Dyes%7Cimport%3Dosm_poi_matchmaker%7Cname%3DAvia%7Coperator%3DAVIA%20Hung%C3%A1ria%20Kft.%7Cpayment%3Amastercard%3Dyes%7Cpayment%3Avisa%3Dyes%7Cphone%3D%2B36307566687%7Csource%3Awww.avia.hu%3Adate%3D2018-11-03%7Cwebsite%3Dhttps%3A//www.avia.hu/toltoallomas/%3Fid%3D20%7Cyoutube%3Dhttps%3A//www.youtube.com/channel/UCjvjkjf2RgmKBuTnKSXk-Rg -->
  <node action="modify" id="348038162" lat="46.3533076949621" lon="17.6870871975379" timestamp="2017-12-02T18:02:59Z" uid="8635934" user="osm_poi_matchmaker" version="2">
    <tag k="addr:city" v="Kaposfő"/>
    <tag k="addr:conscriptionnumber" v="643/5"/>
    <tag k="addr:country" v="HU"/>
    <tag k="addr:postcode" v="7523"/>
    <tag k="amenity" v="fuel"/>
    <tag k="brand" v="Avia"/>
    <tag k="email" v="avia@kapospetrol.hu"/>
    <tag k="facebook" v="https://www.facebook.com/AVIAHungary"/>
    <tag k="fuel:diesel" v="yes"/>
    <tag k="fuel:octane_95" v="yes"/>
    <tag k="import" v="osm_poi_matchmaker"/>
    <tag k="name" v="Avia"/>
    <tag k="operator" v="AVIA Hungária Kft."/>
    <tag k="payment:mastercard" v="yes"/>
    <tag k="payment:visa" v="yes"/>
    <tag k="phone" v="+36307566687"/>
    <tag k="source:www.avia.hu:date" v="2018-11-03"/>
    <tag k="website" v="https://www.avia.hu/toltoallomas/?id=20"/>
    <tag k="youtube" v="https://www.youtube.com/channel/UCjvjkjf2RgmKBuTnKSXk-Rg"/>
  </node>
  <!-- Original coordinates: POINT (46.7053452 19.8499916) -->
  <!-- OSM <-> POI distance: None m-->
  <!-- Checker good: {not_in_water}; bad {}-->
  <!-- Original tags:  -->
  <!-- JOSM magic link: http://localhost:8111/load_object?new_layer=false&objects=n-34&addtags=%7Caddr%3Acity%3DKiskunf%C3%A9legyh%C3%A1za%7Caddr%3Acountry%3DHU%7Caddr%3Ahousenumber%3D89%7Caddr%3Apostcode%3D6100%7Caddr%3Astreet%3DSzegedi%20%C3%BAt%7Camenity%3Dfuel%7Cbrand%3DAvia%7Cemail%3Dpostmaster%40tanker1.t-online.hu%7Cfacebook%3Dhttps%3A//www.facebook.com/AVIAHungary%7Cfuel%3Adiesel%3Dyes%7Cfuel%3Aoctane_95%3Dyes%7Cimport%3Dosm_poi_matchmaker%7Cname%3DAvia%7Coperator%3DAVIA%20Hung%C3%A1ria%20Kft.%7Cpayment%3Amastercard%3Dyes%7Cpayment%3Avisa%3Dyes%7Cphone%3D%2B36302168639%7Csource%3Awww.avia.hu%3Adate%3D2018-11-03%7Cwebsite%3Dhttps%3A//www.avia.hu/toltoallomas/%3Fid%3D60%7Cyoutube%3Dhttps%3A//www.youtube.com/channel/UCjvjkjf2RgmKBuTnKSXk-Rg -->
  <node action="modify" id="-34" lat="46.7053452" lon="19.8499916" timestamp="2018-11-03T14:29:45Z" uid="8635934" user="osm_poi_matchmaker" version="99999">
    <tag k="addr:city" v="Kiskunfélegyháza"/>
    <tag k="addr:country" v="HU"/>
    <tag k="addr:housenumber" v="89"/>
    <tag k="addr:postcode" v="6100"/>
    <tag k="addr:street" v="Szegedi út"/>
    <tag k="amenity" v="fuel"/>
    <tag k="brand" v="Avia"/>
    <tag k="email" v="postmaster@tanker1.t-online.hu"/>
    <tag k="facebook" v="https://www.facebook.com/AVIAHungary"/>
    <tag k="fuel:diesel" v="yes"/>
    <tag k="fuel:octane_95" v="yes"/>
    <tag k="import" v="osm_poi_matchmaker"/>
    <tag k="name" v="Avia"/>
    <tag k="operator" v="AVIA Hungária Kft."/>
    <tag k="payment:mastercard" v="yes"/>
    <tag k="payment:visa" v="yes"/>
    <tag k="phone" v="+36302168639"/>
    <tag k="source:www.avia.hu:date" v="2018-11-03"/>
    <tag k="website" v="https://www.avia.hu/toltoallomas/?id=60"/>
    <tag k="youtube" v="https://www.youtube.com/channel/UCjvjkjf2RgmKBuTnKSXk-Rg"/>
  </node>
  <!-- OSM link: https://osm.org/node/4872047436 -->
  <!-- Original coordinates: POINT (46.41984 19.47833) -->
  <!-- OSM <-> POI distance: 15.63902617 m-->
  <!-- Checker good: {not_in_water}; bad {}-->
  <!-- Original tags: 'amenity':'fuel';  -->
  <!-- JOSM magic link: http://localhost:8111/load_object?new_layer=false&objects=n4872047436&addtags=%7Caddr%3Acity%3DKiskunhalas%7Caddr%3Acountry%3DHU%7Caddr%3Ahousenumber%3D21%7Caddr%3Apostcode%3D6400%7Caddr%3Astreet%3DTin%C3%B3di%20utca%7Camenity%3Dfuel%7Cbrand%3DAvia%7Cemail%3Dbaja%40lamarin.hu%7Cfacebook%3Dhttps%3A//www.facebook.com/AVIAHungary%7Cfuel%3Adiesel%3Dyes%7Cfuel%3Aoctane_95%3Dyes%7Cimport%3Dosm_poi_matchmaker%7Cname%3DAvia%7Coperator%3DAVIA%20Hung%C3%A1ria%20Kft.%7Cpayment%3Amastercard%3Dyes%7Cpayment%3Avisa%3Dyes%7Cphone%3D%2B36305752027%7Csource%3Awww.avia.hu%3Adate%3D2018-11-03%7Cwebsite%3Dhttps%3A//www.avia.hu/toltoallomas/%3Fid%3D62%7Cyoutube%3Dhttps%3A//www.youtube.com/channel/UCjvjkjf2RgmKBuTnKSXk-Rg -->
  <node action="modify" id="4872047436" lat="46.4199715949589" lon="19.4782579972886" timestamp="2017-05-23T12:24:53Z" uid="8635934" user="osm_poi_matchmaker" version="1">
    <tag k="addr:city" v="Kiskunhalas"/>
    <tag k="addr:country" v="HU"/>
    <tag k="addr:housenumber" v="21"/>
    <tag k="addr:postcode" v="6400"/>
    <tag k="addr:street" v="Tinódi utca"/>
    <tag k="amenity" v="fuel"/>
    <tag k="brand" v="Avia"/>
    <tag k="email" v="baja@lamarin.hu"/>
    <tag k="facebook" v="https://www.facebook.com/AVIAHungary"/>
    <tag k="fuel:diesel" v="yes"/>
    <tag k="fuel:octane_95" v="yes"/>
    <tag k="import" v="osm_poi_matchmaker"/>
    <tag k="name" v="Avia"/>
    <tag k="operator" v="AVIA Hungária Kft."/>
    <tag k="payment:mastercard" v="yes"/>
    <tag k="payment:visa" v="yes"/>
    <tag k="phone" v="+36305752027"/>
    <tag k="source:www.avia.hu:date" v="2018-11-03"/>
    <tag k="website" v="https://www.avia.hu/toltoallomas/?id=62"/>
    <tag k="youtube" v="https://www.youtube.com/channel/UCjvjkjf2RgmKBuTnKSXk-Rg"/>
  </node>
  <!-- OSM link: https://osm.org/node/3295037725 -->
  <!-- Original coordinates: POINT (47.1728 18.9927) -->
  <!-- OSM <-> POI distance: 23.60023063 m-->
  <!-- Checker good: {not_in_water}; bad {}-->
  <!-- Original tags: 'amenity':'fuel'; 'brand':'AVIA'; 'name':'AVIA'; 'website':'http://www.avia.hu';  -->
  <!-- JOSM magic link: http://localhost:8111/load_object?new_layer=false&objects=n3295037725&addtags=%7Caddr%3Acity%3DKiskunlach%C3%A1za%7Caddr%3Aconscriptionnumber%3D090/1%7Caddr%3Acountry%3DHU%7Caddr%3Apostcode%3D2340%7Caddr%3Astreet%3DR%C3%A1ckevei%20%C3%BAt%7Camenity%3Dfuel%7Cbrand%3DAvia%7Cemail%3Dzsoniko%40avia.hu%7Cfacebook%3Dhttps%3A//www.facebook.com/AVIAHungary%7Cfuel%3Adiesel%3Dyes%7Cfuel%3Aoctane_95%3Dyes%7Cimport%3Dosm_poi_matchmaker%7Cname%3DAvia%7Coperator%3DAVIA%20Hung%C3%A1ria%20Kft.%7Cpayment%3Amastercard%3Dyes%7Cpayment%3Avisa%3Dyes%7Cphone%3D%2B3624511690%7Csource%3Awww.avia.hu%3Adate%3D2018-11-03%7Cwebsite%3Dhttps%3A//www.avia.hu/toltoallomas/%3Fid%3D16%7Cyoutube%3Dhttps%3A//www.youtube.com/channel/UCjvjkjf2RgmKBuTnKSXk-Rg -->
  <node action="modify" id="3295037725" lat="47.1728459949249" lon="18.9930047973562" timestamp="2015-03-15T10:49:59Z" uid="8635934" user="osm_poi_matchmaker" version="2">
    <tag k="addr:city" v="Kiskunlacháza"/>
    <tag k="addr:conscriptionnumber" v="090/1"/>
    <tag k="addr:country" v="HU"/>
    <tag k="addr:postcode" v="2340"/>
    <tag k="addr:street" v="Ráckevei út"/>
    <tag k="amenity" v="fuel"/>
    <tag k="brand" v="Avia"/>
    <tag k="email" v="zsoniko@avia.hu"/>
    <tag k="facebook" v="https://www.facebook.com/AVIAHungary"/>
    <tag k="fuel:diesel" v="yes"/>
    <tag k="fuel:octane_95" v="yes"/>
    <tag k="import" v="osm_poi_matchmaker"/>
    <tag k="name" v="Avia"/>
    <tag k="operator" v="AVIA Hungária Kft."/>
    <tag k="payment:mastercard" v="yes"/>
    <tag k="payment:visa" v="yes"/>
    <tag k="phone" v="+3624511690"/>
    <tag k="source:www.avia.hu:date" v="2018-11-03"/>
    <tag k="website" v="https://www.avia.hu/toltoallomas/?id=16"/>
    <tag k="youtube" v="https://www.youtube.com/channel/UCjvjkjf2RgmKBuTnKSXk-Rg"/>
  </node>
  <!-- Original coordinates: POINT (47.540445 18.337543) -->
  <!-- OSM <-> POI distance: None m-->
  <!-- Checker good: {not_in_water}; bad {}-->
  <!-- Original tags:  -->
  <!-- JOSM magic link: http://localhost:8111/load_object?new_layer=false&objects=n-37&addtags=%7Caddr%3Acity%3DK%C3%B6rnye%7Caddr%3Aconscriptionnumber%3D0633/21%7Caddr%3Acountry%3DHU%7Caddr%3Apostcode%3D2851%7Camenity%3Dfuel%7Cbrand%3DAvia%7Cemail%3Dbaracskaigep%40gmail.com%7Cfacebook%3Dhttps%3A//www.facebook.com/AVIAHungary%7Cfuel%3Adiesel%3Dyes%7Cfuel%3Aoctane_95%3Dyes%7Cimport%3Dosm_poi_matchmaker%7Cname%3DAvia%7Coperator%3DAVIA%20Hung%C3%A1ria%20Kft.%7Cpayment%3Amastercard%3Dyes%7Cpayment%3Avisa%3Dyes%7Cphone%3D%2B36209176840%7Csource%3Awww.avia.hu%3Adate%3D2018-11-03%7Cwebsite%3Dhttps%3A//www.avia.hu/toltoallomas/%3Fid%3D126%7Cyoutube%3Dhttps%3A//www.youtube.com/channel/UCjvjkjf2RgmKBuTnKSXk-Rg -->
  <node action="modify" id="-37" lat="47.540445" lon="18.337543" timestamp="2018-11-03T14:29:45Z" uid="8635934" user="osm_poi_matchmaker" version="99999">
    <tag k="addr:city" v="Környe"/>
    <tag k="addr:conscriptionnumber" v="0633/21"/>
    <tag k="addr:country" v="HU"/>
    <tag k="addr:postcode" v="2851"/>
    <tag k="amenity" v="fuel"/>
    <tag k="brand" v="Avia"/>
    <tag k="email" v="baracskaigep@gmail.com"/>
    <tag k="facebook" v="https://www.facebook.com/AVIAHungary"/>
    <tag k="fuel:diesel" v="yes"/>
    <tag k="fuel:octane_95" v="yes"/>
    <tag k="import" v="osm_poi_matchmaker"/>
    <tag k="name" v="Avia"/>
    <tag k="operator" v="AVIA Hungária Kft."/>
    <tag k="payment:mastercard" v="yes"/>
    <tag k="payment:visa" v="yes"/>
    <tag k="phone" v="+36209176840"/>
    <tag k="source:www.avia.hu:date" v="2018-11-03"/>
    <tag k="website" v="https://www.avia.hu/toltoallomas/?id=126"/>
    <tag k="youtube" v="https://www.youtube.com/channel/UCjvjkjf2RgmKBuTnKSXk-Rg"/>
  </node>
  <!-- Original coordinates: POINT (47.390675 16.551771) -->
  <!-- OSM <-> POI distance: None m-->
  <!-- Checker good: {not_in_water}; bad {}-->
  <!-- Original tags:  -->
  <!-- JOSM magic link: http://localhost:8111/load_object?new_layer=false&objects=n-38&addtags=%7Caddr%3Acity%3DK%C5%91szeg%7Caddr%3Acountry%3DHU%7Caddr%3Ahousenumber%3D42%7Caddr%3Apostcode%3D9730%7Caddr%3Astreet%3DAls%C3%B3%20k%C3%B6r%C3%BAt%7Camenity%3Dfuel%7Cbrand%3DAvia%7Cemail%3Daviadiesel%40avia.hu%7Cfacebook%3Dhttps%3A//www.facebook.com/AVIAHungary%7Cfuel%3Adiesel%3Dyes%7Cfuel%3Aoctane_95%3Dyes%7Cimport%3Dosm_poi_matchmaker%7Cname%3DAvia%7Coperator%3DAVIA%20Hung%C3%A1ria%20Kft.%7Cpayment%3Amastercard%3Dyes%7Cpayment%3Avisa%3Dyes%7Cphone%3D%2B3694505391%7Csource%3Awww.avia.hu%3Adate%3D2018-11-03%7Cwebsite%3Dhttps%3A//www.avia.hu/toltoallomas/%3Fid%3D10%7Cyoutube%3Dhttps%3A//www.youtube.com/channel/UCjvjkjf2RgmKBuTnKSXk-Rg -->
  <node action="modify" id="-38" lat="47.390675" lon="16.551771" timestamp="2018-11-03T14:29:45Z" uid="8635934" user="osm_poi_matchmaker" version="99999">
    <tag k="addr:city" v="Kőszeg"/>
    <tag k="addr:country" v="HU"/>
    <tag k="addr:housenumber" v="42"/>
    <tag k="addr:postcode" v="9730"/>
    <tag k="addr:street" v="Alsó körút"/>
    <tag k="amenity" v="fuel"/>
    <tag k="brand" v="Avia"/>
    <tag k="email" v="aviadiesel@avia.hu"/>
    <tag k="facebook" v="https://www.facebook.com/AVIAHungary"/>
    <tag k="fuel:diesel" v="yes"/>
    <tag k="fuel:octane_95" v="yes"/>
    <tag k="import" v="osm_poi_matchmaker"/>
    <tag k="name" v="Avia"/>
    <tag k="operator" v="AVIA Hungária Kft."/>
    <tag k="payment:mastercard" v="yes"/>
    <tag k="payment:visa" v="yes"/>
    <tag k="phone" v="+3694505391"/>
    <tag k="source:www.avia.hu:date" v="2018-11-03"/>
    <tag k="website" v="https://www.avia.hu/toltoallomas/?id=10"/>
    <tag k="youtube" v="https://www.youtube.com/channel/UCjvjkjf2RgmKBuTnKSXk-Rg"/>
  </node>
  <!-- OSM link: https://osm.org/node/2007066505 -->
  <!-- Original coordinates: POINT (47.032826 19.542944) -->
  <!-- OSM <-> POI distance: 12.33118658 m-->
  <!-- Checker good: {not_in_water}; bad {}-->
  <!-- Original tags: 'amenity':'fuel';  -->
  <!-- JOSM magic link: http://localhost:8111/load_object?new_layer=false&objects=n2007066505&addtags=%7Caddr%3Acity%3DLajosmizse%7Caddr%3Acountry%3DHU%7Caddr%3Apostcode%3D6050%7Camenity%3Dfuel%7Cbrand%3DAvia%7Cemail%3Dduoil%40freemail.hu%7Cfacebook%3Dhttps%3A//www.facebook.com/AVIAHungary%7Cfuel%3Adiesel%3Dyes%7Cfuel%3Aoctane_95%3Dyes%7Cimport%3Dosm_poi_matchmaker%7Cname%3DAvia%7Coperator%3DAVIA%20Hung%C3%A1ria%20Kft.%7Cpayment%3Amastercard%3Dyes%7Cpayment%3Avisa%3Dyes%7Cphone%3D%2B3676356200%7Csource%3Awww.avia.hu%3Adate%3D2018-11-03%7Cwebsite%3Dhttps%3A//www.avia.hu/toltoallomas/%3Fid%3D48%7Cyoutube%3Dhttps%3A//www.youtube.com/channel/UCjvjkjf2RgmKBuTnKSXk-Rg -->
  <node action="modify" id="2007066505" lat="47.032934194931" lon="19.5429796972796" timestamp="2012-11-10T19:44:32Z" uid="8635934" user="osm_poi_matchmaker" version="1">
    <tag k="addr:city" v="Lajosmizse"/>
    <tag k="addr:country" v="HU"/>
    <tag k="addr:postcode" v="6050"/>
    <tag k="amenity" v="fuel"/>
    <tag k="brand" v="Avia"/>
    <tag k="email" v="duoil@freemail.hu"/>
    <tag k="facebook" v="https://www.facebook.com/AVIAHungary"/>
    <tag k="fuel:diesel" v="yes"/>
    <tag k="fuel:octane_95" v="yes"/>
    <tag k="import" v="osm_poi_matchmaker"/>
    <tag k="name" v="Avia"/>
    <tag k="operator" v="AVIA Hungária Kft."/>
    <tag k="payment:mastercard" v="yes"/>
    <tag k="payment:visa" v="yes"/>
    <tag k="phone" v="+3676356200"/>
    <tag k="source:www.avia.hu:date" v="2018-11-03"/>
    <tag k="website" v="https://www.avia.hu/toltoallomas/?id=48"/>
    <tag k="youtube" v="https://www.youtube.com/channel/UCjvjkjf2RgmKBuTnKSXk-Rg"/>
  </node>
  <node action="modify" id="2030038998" lat="47.8998792" lon="17.201823" timestamp="2012-11-24T13:04:38Z" uid="381122" user="herrbert74" version="1"/>
  <node action="modify" id="2030038991" lat="47.8998253" lon="17.2019176" timestamp="2012-11-24T13:04:38Z" uid="381122" user="herrbert74" version="1"/>
  <node action="modify" id="2030038973" lat="47.8997338" lon="17.2018016" timestamp="2012-11-24T13:04:38Z" uid="381122" user="herrbert74" version="1"/>
  <node action="modify" id="2030038969" lat="47.8996546" lon="17.2019406" timestamp="2012-11-24T13:04:38Z" uid="381122" user="herrbert74" version="1"/>
  <node action="modify" id="2030038967" lat="47.8996024" lon="17.2018746" timestamp="2012-11-24T13:04:38Z" uid="381122" user="herrbert74" version="1"/>
  <node action="modify" id="2030038975" lat="47.8997355" lon="17.201641" timestamp="2012-11-24T13:04:38Z" uid="381122" user="herrbert74" version="1"/>
  <node action="modify" id="2030038998" lat="47.8998792" lon="17.201823" timestamp="2012-11-24T13:04:38Z" uid="381122" user="herrbert74" version="1"/>
  <!-- OSM link: https://osm.org/way/192450011 -->
  <!-- Original coordinates: POINT (47.899722 17.201486) -->
  <!-- OSM <-> POI distance: 11.6518718 m-->
  <!-- Checker good: {not_in_water}; bad {}-->
  <!-- Original tags: 'amenity':'fuel'; 'building':'yes'; 'operator':'Avia';  -->
  <!-- JOSM magic link: http://localhost:8111/load_object?new_layer=false&objects=w192450011&addtags=%7Caddr%3Acity%3DLev%C3%A9l%7Caddr%3Acountry%3DHU%7Caddr%3Ahousenumber%3D8%7Caddr%3Apostcode%3D9221%7Caddr%3Astreet%3DSzerviz%20utca%7Camenity%3Dfuel%7Cbrand%3DAvia%7Cbuilding%3Dyes%7Cemail%3Daviadiesel%40avia.hu%7Cfacebook%3Dhttps%3A//www.facebook.com/AVIAHungary%7Cfuel%3Adiesel%3Dyes%7Cfuel%3Aoctane_95%3Dyes%7Cimport%3Dosm_poi_matchmaker%7Cname%3DAvia%7Coperator%3DAVIA%20Hung%C3%A1ria%20Kft.%7Cpayment%3Amastercard%3Dyes%7Cpayment%3Avisa%3Dyes%7Cphone%3D%2B3696229393%7Csource%3Awww.avia.hu%3Adate%3D2018-11-03%7Cwebsite%3Dhttps%3A//www.avia.hu/toltoallomas/%3Fid%3D17%7Cyoutube%3Dhttps%3A//www.youtube.com/channel/UCjvjkjf2RgmKBuTnKSXk-Rg -->
  <way action="modify" id="192450011" timestamp="2012-11-24T14:04:40Z" uid="8635934" user="osm_poi_matchmaker" version="1">
    <nd ref="2030038998"/>
    <nd ref="2030038991"/>
    <nd ref="2030038973"/>
    <nd ref="2030038969"/>
    <nd ref="2030038967"/>
    <nd ref="2030038975"/>
    <nd ref="2030038998"/>
    <tag k="addr:city" v="Levél"/>
    <tag k="addr:country" v="HU"/>
    <tag k="addr:housenumber" v="8"/>
    <tag k="addr:postcode" v="9221"/>
    <tag k="addr:street" v="Szerviz utca"/>
    <tag k="amenity" v="fuel"/>
    <tag k="brand" v="Avia"/>
    <tag k="building" v="yes"/>
    <tag k="email" v="aviadiesel@avia.hu"/>
    <tag k="facebook" v="https://www.facebook.com/AVIAHungary"/>
    <tag k="fuel:diesel" v="yes"/>
    <tag k="fuel:octane_95" v="yes"/>
    <tag k="import" v="osm_poi_matchmaker"/>
    <tag k="name" v="Avia"/>
    <tag k="operator" v="AVIA Hungária Kft."/>
    <tag k="payment:mastercard" v="yes"/>
    <tag k="payment:visa" v="yes"/>
    <tag k="phone" v="+3696229393"/>
    <tag k="source:www.avia.hu:date" v="2018-11-03"/>
    <tag k="website" v="https://www.avia.hu/toltoallomas/?id=17"/>
    <tag k="youtube" v="https://www.youtube.com/channel/UCjvjkjf2RgmKBuTnKSXk-Rg"/>
  </way>
  <!-- Original coordinates: POINT (46.59135470715854 17.40480065345764) -->
  <!-- OSM <-> POI distance: None m-->
  <!-- Checker good: {not_in_water}; bad {}-->
  <!-- Original tags:  -->
  <!-- JOSM magic link: http://localhost:8111/load_object?new_layer=false&objects=n-41&addtags=%7Caddr%3Acity%3DMarcali%7Caddr%3Acountry%3DHU%7Caddr%3Ahousenumber%3D97%7Caddr%3Apostcode%3D8700%7Caddr%3Astreet%3DBerzsenyi%20%C3%BAt%7Camenity%3Dfuel%7Cbrand%3DAvia%7Cemail%3Dandrea.mihalics%40gmail.com%7Cfacebook%3Dhttps%3A//www.facebook.com/AVIAHungary%7Cfuel%3Adiesel%3Dyes%7Cfuel%3Aoctane_95%3Dyes%7Cimport%3Dosm_poi_matchmaker%7Cname%3DAvia%7Coperator%3DAVIA%20Hung%C3%A1ria%20Kft.%7Cpayment%3Amastercard%3Dyes%7Cpayment%3Avisa%3Dyes%7Cphone%3D%2B3685510005%7Csource%3Awww.avia.hu%3Adate%3D2018-11-03%7Cwebsite%3Dhttps%3A//www.avia.hu/toltoallomas/%3Fid%3D33%7Cyoutube%3Dhttps%3A//www.youtube.com/channel/UCjvjkjf2RgmKBuTnKSXk-Rg -->
  <node action="modify" id="-41" lat="46.59135470715854" lon="17.40480065345764" timestamp="2018-11-03T14:29:45Z" uid="8635934" user="osm_poi_matchmaker" version="99999">
    <tag k="addr:city" v="Marcali"/>
    <tag k="addr:country" v="HU"/>
    <tag k="addr:housenumber" v="97"/>
    <tag k="addr:postcode" v="8700"/>
    <tag k="addr:street" v="Berzsenyi út"/>
    <tag k="amenity" v="fuel"/>
    <tag k="brand" v="Avia"/>
    <tag k="email" v="andrea.mihalics@gmail.com"/>
    <tag k="facebook" v="https://www.facebook.com/AVIAHungary"/>
    <tag k="fuel:diesel" v="yes"/>
    <tag k="fuel:octane_95" v="yes"/>
    <tag k="import" v="osm_poi_matchmaker"/>
    <tag k="name" v="Avia"/>
    <tag k="operator" v="AVIA Hungária Kft."/>
    <tag k="payment:mastercard" v="yes"/>
    <tag k="payment:visa" v="yes"/>
    <tag k="phone" v="+3685510005"/>
    <tag k="source:www.avia.hu:date" v="2018-11-03"/>
    <tag k="website" v="https://www.avia.hu/toltoallomas/?id=33"/>
    <tag k="youtube" v="https://www.youtube.com/channel/UCjvjkjf2RgmKBuTnKSXk-Rg"/>
  </node>
  <!-- OSM link: https://osm.org/node/320586750 -->
  <!-- Original coordinates: POINT (47.321874 18.784955) -->
  <!-- OSM <-> POI distance: 42.68424398 m-->
  <!-- Checker good: {not_in_water}; bad {}-->
  <!-- Original tags: 'amenity':'fuel'; 'brand':'Avia'; 'wheelchair':'yes';  -->
  <!-- JOSM magic link: http://localhost:8111/load_object?new_layer=false&objects=n320586750&addtags=%7Caddr%3Acity%3DMartonv%C3%A1s%C3%A1r%7Caddr%3Acountry%3DHU%7Caddr%3Ahousenumber%3D31%7Caddr%3Apostcode%3D2462%7Caddr%3Astreet%3DBajcsy-Zsilinszky%20Endre%20utca%7Camenity%3Dfuel%7Cbrand%3DAvia%7Cemail%3Dorszagkft%40t-online.hu%7Cfacebook%3Dhttps%3A//www.facebook.com/AVIAHungary%7Cfuel%3Adiesel%3Dyes%7Cfuel%3Aoctane_95%3Dyes%7Cimport%3Dosm_poi_matchmaker%7Cname%3DAvia%7Coperator%3DAVIA%20Hung%C3%A1ria%20Kft.%7Cpayment%3Amastercard%3Dyes%7Cpayment%3Avisa%3Dyes%7Cphone%3D%2B36306803817%7Csource%3Awww.avia.hu%3Adate%3D2018-11-03%7Cwebsite%3Dhttps%3A//www.avia.hu/toltoallomas/%3Fid%3D135%7Cwheelchair%3Dyes%7Cyoutube%3Dhttps%3A//www.youtube.com/channel/UCjvjkjf2RgmKBuTnKSXk-Rg -->
  <node action="modify" id="320586750" lat="47.3222568949184" lon="18.7849952973851" timestamp="2018-03-31T09:23:29Z" uid="8635934" user="osm_poi_matchmaker" version="4">
    <tag k="addr:city" v="Martonvásár"/>
    <tag k="addr:country" v="HU"/>
    <tag k="addr:housenumber" v="31"/>
    <tag k="addr:postcode" v="2462"/>
    <tag k="addr:street" v="Bajcsy-Zsilinszky Endre utca"/>
    <tag k="amenity" v="fuel"/>
    <tag k="brand" v="Avia"/>
    <tag k="email" v="orszagkft@t-online.hu"/>
    <tag k="facebook" v="https://www.facebook.com/AVIAHungary"/>
    <tag k="fuel:diesel" v="yes"/>
    <tag k="fuel:octane_95" v="yes"/>
    <tag k="import" v="osm_poi_matchmaker"/>
    <tag k="name" v="Avia"/>
    <tag k="operator" v="AVIA Hungária Kft."/>
    <tag k="payment:mastercard" v="yes"/>
    <tag k="payment:visa" v="yes"/>
    <tag k="phone" v="+36306803817"/>
    <tag k="source:www.avia.hu:date" v="2018-11-03"/>
    <tag k="website" v="https://www.avia.hu/toltoallomas/?id=135"/>
    <tag k="wheelchair" v="yes"/>
    <tag k="youtube" v="https://www.youtube.com/channel/UCjvjkjf2RgmKBuTnKSXk-Rg"/>
  </node>
  <!-- Original coordinates: POINT (47.9540454 20.0696581) -->
  <!-- OSM <-> POI distance: None m-->
  <!-- Checker good: {not_in_water}; bad {}-->
  <!-- Original tags:  -->
  <!-- JOSM magic link: http://localhost:8111/load_object?new_layer=false&objects=n-43&addtags=%7Caddr%3Acity%3DM%C3%A1traderecske%7Caddr%3Aconscriptionnumber%3D0183/3%7Caddr%3Acountry%3DHU%7Caddr%3Apostcode%3D3246%7Caddr%3Astreet%3DKossuth%20%C3%BAt%7Camenity%3Dfuel%7Cbrand%3DAvia%7Cemail%3Dsimonrobert367%40t-online.hu%7Cfacebook%3Dhttps%3A//www.facebook.com/AVIAHungary%7Cfuel%3Adiesel%3Dyes%7Cfuel%3Aoctane_95%3Dyes%7Cimport%3Dosm_poi_matchmaker%7Cname%3DAvia%7Coperator%3DAVIA%20Hung%C3%A1ria%20Kft.%7Cpayment%3Amastercard%3Dyes%7Cpayment%3Avisa%3Dyes%7Cphone%3D%2B36304192545%7Csource%3Awww.avia.hu%3Adate%3D2018-11-03%7Cwebsite%3Dhttps%3A//www.avia.hu/toltoallomas/%3Fid%3D122%7Cyoutube%3Dhttps%3A//www.youtube.com/channel/UCjvjkjf2RgmKBuTnKSXk-Rg -->
  <node action="modify" id="-43" lat="47.9540454" lon="20.0696581" timestamp="2018-11-03T14:29:45Z" uid="8635934" user="osm_poi_matchmaker" version="99999">
    <tag k="addr:city" v="Mátraderecske"/>
    <tag k="addr:conscriptionnumber" v="0183/3"/>
    <tag k="addr:country" v="HU"/>
    <tag k="addr:postcode" v="3246"/>
    <tag k="addr:street" v="Kossuth út"/>
    <tag k="amenity" v="fuel"/>
    <tag k="brand" v="Avia"/>
    <tag k="email" v="simonrobert367@t-online.hu"/>
    <tag k="facebook" v="https://www.facebook.com/AVIAHungary"/>
    <tag k="fuel:diesel" v="yes"/>
    <tag k="fuel:octane_95" v="yes"/>
    <tag k="import" v="osm_poi_matchmaker"/>
    <tag k="name" v="Avia"/>
    <tag k="operator" v="AVIA Hungária Kft."/>
    <tag k="payment:mastercard" v="yes"/>
    <tag k="payment:visa" v="yes"/>
    <tag k="phone" v="+36304192545"/>
    <tag k="source:www.avia.hu:date" v="2018-11-03"/>
    <tag k="website" v="https://www.avia.hu/toltoallomas/?id=122"/>
    <tag k="youtube" v="https://www.youtube.com/channel/UCjvjkjf2RgmKBuTnKSXk-Rg"/>
  </node>
  <!-- Original coordinates: POINT (46.753976 21.430879) -->
  <!-- OSM <-> POI distance: None m-->
  <!-- Checker good: {not_in_water}; bad {}-->
  <!-- Original tags:  -->
  <!-- JOSM magic link: http://localhost:8111/load_object?new_layer=false&objects=n-44&addtags=%7Caddr%3Acity%3DM%C3%A9hker%C3%A9k%7Caddr%3Acountry%3DHU%7Caddr%3Apostcode%3D5726%7Camenity%3Dfuel%7Cbrand%3DAvia%7Cemail%3Dalfoldtank%40gmail.com%7Cfacebook%3Dhttps%3A//www.facebook.com/AVIAHungary%7Cfuel%3Adiesel%3Dyes%7Cfuel%3Aoctane_95%3Dyes%7Cimport%3Dosm_poi_matchmaker%7Cname%3DAvia%7Coperator%3DAVIA%20Hung%C3%A1ria%20Kft.%7Cpayment%3Amastercard%3Dyes%7Cpayment%3Avisa%3Dyes%7Cphone%3D%2B36302992873%7Csource%3Awww.avia.hu%3Adate%3D2018-11-03%7Cwebsite%3Dhttps%3A//www.avia.hu/toltoallomas/%3Fid%3D125%7Cyoutube%3Dhttps%3A//www.youtube.com/channel/UCjvjkjf2RgmKBuTnKSXk-Rg -->
  <node action="modify" id="-44" lat="46.753976" lon="21.430879" timestamp="2018-11-03T14:29:45Z" uid="8635934" user="osm_poi_matchmaker" version="99999">
    <tag k="addr:city" v="Méhkerék"/>
    <tag k="addr:country" v="HU"/>
    <tag k="addr:postcode" v="5726"/>
    <tag k="amenity" v="fuel"/>
    <tag k="brand" v="Avia"/>
    <tag k="email" v="alfoldtank@gmail.com"/>
    <tag k="facebook" v="https://www.facebook.com/AVIAHungary"/>
    <tag k="fuel:diesel" v="yes"/>
    <tag k="fuel:octane_95" v="yes"/>
    <tag k="import" v="osm_poi_matchmaker"/>
    <tag k="name" v="Avia"/>
    <tag k="operator" v="AVIA Hungária Kft."/>
    <tag k="payment:mastercard" v="yes"/>
    <tag k="payment:visa" v="yes"/>
    <tag k="phone" v="+36302992873"/>
    <tag k="source:www.avia.hu:date" v="2018-11-03"/>
    <tag k="website" v="https://www.avia.hu/toltoallomas/?id=125"/>
    <tag k="youtube" v="https://www.youtube.com/channel/UCjvjkjf2RgmKBuTnKSXk-Rg"/>
  </node>
  <!-- OSM link: https://osm.org/node/2313702318 -->
  <!-- Original coordinates: POINT (47.432239 19.460342) -->
  <!-- OSM <-> POI distance: 71.77969386 m-->
  <!-- Checker good: {not_in_water}; bad {}-->
  <!-- Original tags: 'amenity':'fuel'; 'brand':'AVIA'; 'name':'AVIA'; 'website':'http://www.avia.hu'; 'wheelchair':'yes';  -->
  <!-- JOSM magic link: http://localhost:8111/load_object?new_layer=false&objects=n2313702318&addtags=%7Caddr%3Acity%3DMende%7Caddr%3Acountry%3DHU%7Caddr%3Ahousenumber%3D24%7Caddr%3Apostcode%3D2235%7Caddr%3Astreet%3DOrsz%C3%A1g%20%C3%BAt%7Camenity%3Dfuel%7Cbrand%3DAvia%7Cemail%3Dzsoniko%40avia.hu%7Cfacebook%3Dhttps%3A//www.facebook.com/AVIAHungary%7Cfuel%3Adiesel%3Dyes%7Cfuel%3Aoctane_95%3Dyes%7Cimport%3Dosm_poi_matchmaker%7Cname%3DAvia%7Coperator%3DAVIA%20Hung%C3%A1ria%20Kft.%7Cpayment%3Amastercard%3Dyes%7Cpayment%3Avisa%3Dyes%7Cphone%3D%2B36205504776%7Csource%3Awww.avia.hu%3Adate%3D2018-11-03%7Cwebsite%3Dhttps%3A//www.avia.hu/toltoallomas/%3Fid%3D108%7Cwheelchair%3Dyes%7Cyoutube%3Dhttps%3A//www.youtube.com/channel/UCjvjkjf2RgmKBuTnKSXk-Rg -->
  <node action="modify" id="2313702318" lat="47.4325790949137" lon="19.461153097291" timestamp="2015-12-09T16:54:30Z" uid="8635934" user="osm_poi_matchmaker" version="3">
    <tag k="addr:city" v="Mende"/>
    <tag k="addr:country" v="HU"/>
    <tag k="addr:housenumber" v="24"/>
    <tag k="addr:postcode" v="2235"/>
    <tag k="addr:street" v="Ország út"/>
    <tag k="amenity" v="fuel"/>
    <tag k="brand" v="Avia"/>
    <tag k="email" v="zsoniko@avia.hu"/>
    <tag k="facebook" v="https://www.facebook.com/AVIAHungary"/>
    <tag k="fuel:diesel" v="yes"/>
    <tag k="fuel:octane_95" v="yes"/>
    <tag k="import" v="osm_poi_matchmaker"/>
    <tag k="name" v="Avia"/>
    <tag k="operator" v="AVIA Hungária Kft."/>
    <tag k="payment:mastercard" v="yes"/>
    <tag k="payment:visa" v="yes"/>
    <tag k="phone" v="+36205504776"/>
    <tag k="source:www.avia.hu:date" v="2018-11-03"/>
    <tag k="website" v="https://www.avia.hu/toltoallomas/?id=108"/>
    <tag k="wheelchair" v="yes"/>
    <tag k="youtube" v="https://www.youtube.com/channel/UCjvjkjf2RgmKBuTnKSXk-Rg"/>
  </node>
  <!-- Original coordinates: POINT (46.5134420418 20.1938541234) -->
  <!-- OSM <-> POI distance: None m-->
  <!-- Checker good: {not_in_water}; bad {}-->
  <!-- Original tags:  -->
  <!-- JOSM magic link: http://localhost:8111/load_object?new_layer=false&objects=n-46&addtags=%7Caddr%3Acity%3DMindszent%7Caddr%3Acountry%3DHU%7Caddr%3Ahousenumber%3D016%7Caddr%3Apostcode%3D6630%7Caddr%3Astreet%3DV%C3%A1s%C3%A1rhelyi%20%C3%BAt%7Camenity%3Dfuel%7Cbrand%3DAvia%7Cemail%3Diris%40iristrade.hu%7Cfacebook%3Dhttps%3A//www.facebook.com/AVIAHungary%7Cfuel%3Adiesel%3Dyes%7Cfuel%3Aoctane_95%3Dyes%7Cimport%3Dosm_poi_matchmaker%7Cname%3DAvia%7Coperator%3DAVIA%20Hung%C3%A1ria%20Kft.%7Cpayment%3Amastercard%3Dyes%7Cpayment%3Avisa%3Dyes%7Cphone%3D%2B3662225465%7Csource%3Awww.avia.hu%3Adate%3D2018-11-03%7Cwebsite%3Dhttps%3A//www.avia.hu/toltoallomas/%3Fid%3D22%7Cyoutube%3Dhttps%3A//www.youtube.com/channel/UCjvjkjf2RgmKBuTnKSXk-Rg -->
  <node action="modify" id="-46" lat="46.5134420418" lon="20.1938541234" timestamp="2018-11-03T14:29:45Z" uid="8635934" user="osm_poi_matchmaker" version="99999">
    <tag k="addr:city" v="Mindszent"/>
    <tag k="addr:country" v="HU"/>
    <tag k="addr:housenumber" v="016"/>
    <tag k="addr:postcode" v="6630"/>
    <tag k="addr:street" v="Vásárhelyi út"/>
    <tag k="amenity" v="fuel"/>
    <tag k="brand" v="Avia"/>
    <tag k="email" v="iris@iristrade.hu"/>
    <tag k="facebook" v="https://www.facebook.com/AVIAHungary"/>
    <tag k="fuel:diesel" v="yes"/>
    <tag k="fuel:octane_95" v="yes"/>
    <tag k="import" v="osm_poi_matchmaker"/>
    <tag k="name" v="Avia"/>
    <tag k="operator" v="AVIA Hungária Kft."/>
    <tag k="payment:mastercard" v="yes"/>
    <tag k="payment:visa" v="yes"/>
    <tag k="phone" v="+3662225465"/>
    <tag k="source:www.avia.hu:date" v="2018-11-03"/>
    <tag k="website" v="https://www.avia.hu/toltoallomas/?id=22"/>
    <tag k="youtube" v="https://www.youtube.com/channel/UCjvjkjf2RgmKBuTnKSXk-Rg"/>
  </node>
  <!-- Original coordinates: POINT (48.0875546 20.8140621) -->
  <!-- OSM <-> POI distance: None m-->
  <!-- Checker good: {not_in_water}; bad {}-->
  <!-- Original tags:  -->
  <!-- JOSM magic link: http://localhost:8111/load_object?new_layer=false&objects=n-47&addtags=%7Caddr%3Acity%3DMiskolc%7Caddr%3Aconscriptionnumber%3D0235/72%7Caddr%3Acountry%3DHU%7Caddr%3Apostcode%3D3528%7Camenity%3Dfuel%7Cbrand%3DAvia%7Cemail%3Dtakker%40chello.hu%7Cfacebook%3Dhttps%3A//www.facebook.com/AVIAHungary%7Cfuel%3Adiesel%3Dyes%7Cfuel%3Aoctane_95%3Dyes%7Cimport%3Dosm_poi_matchmaker%7Cname%3DAvia%7Coperator%3DAVIA%20Hung%C3%A1ria%20Kft.%7Cpayment%3Amastercard%3Dyes%7Cpayment%3Avisa%3Dyes%7Cphone%3D%2B3646505572%7Csource%3Awww.avia.hu%3Adate%3D2018-11-03%7Cwebsite%3Dhttps%3A//www.avia.hu/toltoallomas/%3Fid%3D37%7Cyoutube%3Dhttps%3A//www.youtube.com/channel/UCjvjkjf2RgmKBuTnKSXk-Rg -->
  <node action="modify" id="-47" lat="48.0875546" lon="20.8140621" timestamp="2018-11-03T14:29:45Z" uid="8635934" user="osm_poi_matchmaker" version="99999">
    <tag k="addr:city" v="Miskolc"/>
    <tag k="addr:conscriptionnumber" v="0235/72"/>
    <tag k="addr:country" v="HU"/>
    <tag k="addr:postcode" v="3528"/>
    <tag k="amenity" v="fuel"/>
    <tag k="brand" v="Avia"/>
    <tag k="email" v="takker@chello.hu"/>
    <tag k="facebook" v="https://www.facebook.com/AVIAHungary"/>
    <tag k="fuel:diesel" v="yes"/>
    <tag k="fuel:octane_95" v="yes"/>
    <tag k="import" v="osm_poi_matchmaker"/>
    <tag k="name" v="Avia"/>
    <tag k="operator" v="AVIA Hungária Kft."/>
    <tag k="payment:mastercard" v="yes"/>
    <tag k="payment:visa" v="yes"/>
    <tag k="phone" v="+3646505572"/>
    <tag k="source:www.avia.hu:date" v="2018-11-03"/>
    <tag k="website" v="https://www.avia.hu/toltoallomas/?id=37"/>
    <tag k="youtube" v="https://www.youtube.com/channel/UCjvjkjf2RgmKBuTnKSXk-Rg"/>
  </node>
  <!-- Original coordinates: POINT (47.995547 19.343189) -->
  <!-- OSM <-> POI distance: None m-->
  <!-- Checker good: {not_in_water}; bad {}-->
  <!-- Original tags:  -->
  <!-- JOSM magic link: http://localhost:8111/load_object?new_layer=false&objects=n-48&addtags=%7Caddr%3Acity%3DMohora%7Caddr%3Acountry%3DHU%7Caddr%3Ahousenumber%3D47/C%7Caddr%3Apostcode%3D2698%7Caddr%3Astreet%3DR%C3%A1k%C3%B3czi%20%C3%BAt%7Camenity%3Dfuel%7Cbrand%3DAvia%7Cemail%3Deurotp%40gmail.hu%7Cfacebook%3Dhttps%3A//www.facebook.com/AVIAHungary%7Cfuel%3Adiesel%3Dyes%7Cfuel%3Aoctane_95%3Dyes%7Cimport%3Dosm_poi_matchmaker%7Cname%3DAvia%7Coperator%3DAVIA%20Hung%C3%A1ria%20Kft.%7Cpayment%3Amastercard%3Dyes%7Cpayment%3Avisa%3Dyes%7Cphone%3D%2B3635372387%7Csource%3Awww.avia.hu%3Adate%3D2018-11-03%7Cwebsite%3Dhttps%3A//www.avia.hu/toltoallomas/%3Fid%3D89%7Cyoutube%3Dhttps%3A//www.youtube.com/channel/UCjvjkjf2RgmKBuTnKSXk-Rg -->
  <node action="modify" id="-48" lat="47.995547" lon="19.343189" timestamp="2018-11-03T14:29:45Z" uid="8635934" user="osm_poi_matchmaker" version="99999">
    <tag k="addr:city" v="Mohora"/>
    <tag k="addr:country" v="HU"/>
    <tag k="addr:housenumber" v="47/C"/>
    <tag k="addr:postcode" v="2698"/>
    <tag k="addr:street" v="Rákóczi út"/>
    <tag k="amenity" v="fuel"/>
    <tag k="brand" v="Avia"/>
    <tag k="email" v="eurotp@gmail.hu"/>
    <tag k="facebook" v="https://www.facebook.com/AVIAHungary"/>
    <tag k="fuel:diesel" v="yes"/>
    <tag k="fuel:octane_95" v="yes"/>
    <tag k="import" v="osm_poi_matchmaker"/>
    <tag k="name" v="Avia"/>
    <tag k="operator" v="AVIA Hungária Kft."/>
    <tag k="payment:mastercard" v="yes"/>
    <tag k="payment:visa" v="yes"/>
    <tag k="phone" v="+3635372387"/>
    <tag k="source:www.avia.hu:date" v="2018-11-03"/>
    <tag k="website" v="https://www.avia.hu/toltoallomas/?id=89"/>
    <tag k="youtube" v="https://www.youtube.com/channel/UCjvjkjf2RgmKBuTnKSXk-Rg"/>
  </node>
  <!-- Original coordinates: POINT (47.035365 16.641687) -->
  <!-- OSM <-> POI distance: None m-->
  <!-- Checker good: {not_in_water}; bad {}-->
  <!-- Original tags:  -->
  <!-- JOSM magic link: http://localhost:8111/load_object?new_layer=false&objects=n-49&addtags=%7Caddr%3Acity%3DMolnaszecs%C5%91d%7Caddr%3Acountry%3DHU%7Caddr%3Ahousenumber%3D96%7Caddr%3Apostcode%3D9912%7Caddr%3Astreet%3DPet%C5%91fi%20S%C3%A1ndor%20utca%7Camenity%3Dfuel%7Cbrand%3DAvia%7Cemail%3Dkemeny.bistro%40freemail.hu%7Cfacebook%3Dhttps%3A//www.facebook.com/AVIAHungary%7Cfuel%3Adiesel%3Dyes%7Cfuel%3Aoctane_95%3Dyes%7Cimport%3Dosm_poi_matchmaker%7Cname%3DAvia%7Coperator%3DAVIA%20Hung%C3%A1ria%20Kft.%7Cpayment%3Amastercard%3Dyes%7Cpayment%3Avisa%3Dyes%7Cphone%3D%2B36302500841%7Csource%3Awww.avia.hu%3Adate%3D2018-11-03%7Cwebsite%3Dhttps%3A//www.avia.hu/toltoallomas/%3Fid%3D21%7Cyoutube%3Dhttps%3A//www.youtube.com/channel/UCjvjkjf2RgmKBuTnKSXk-Rg -->
  <node action="modify" id="-49" lat="47.035365" lon="16.641687" timestamp="2018-11-03T14:29:45Z" uid="8635934" user="osm_poi_matchmaker" version="99999">
    <tag k="addr:city" v="Molnaszecsőd"/>
    <tag k="addr:country" v="HU"/>
    <tag k="addr:housenumber" v="96"/>
    <tag k="addr:postcode" v="9912"/>
    <tag k="addr:street" v="Petőfi Sándor utca"/>
    <tag k="amenity" v="fuel"/>
    <tag k="brand" v="Avia"/>
    <tag k="email" v="kemeny.bistro@freemail.hu"/>
    <tag k="facebook" v="https://www.facebook.com/AVIAHungary"/>
    <tag k="fuel:diesel" v="yes"/>
    <tag k="fuel:octane_95" v="yes"/>
    <tag k="import" v="osm_poi_matchmaker"/>
    <tag k="name" v="Avia"/>
    <tag k="operator" v="AVIA Hungária Kft."/>
    <tag k="payment:mastercard" v="yes"/>
    <tag k="payment:visa" v="yes"/>
    <tag k="phone" v="+36302500841"/>
    <tag k="source:www.avia.hu:date" v="2018-11-03"/>
    <tag k="website" v="https://www.avia.hu/toltoallomas/?id=21"/>
    <tag k="youtube" v="https://www.youtube.com/channel/UCjvjkjf2RgmKBuTnKSXk-Rg"/>
  </node>
  <!-- OSM link: https://osm.org/node/5169788747 -->
  <!-- Original coordinates: POINT (47.75607 17.42327) -->
  <!-- OSM <-> POI distance: 15.65684271 m-->
  <!-- Checker good: {not_in_water}; bad {}-->
  <!-- Original tags: 'amenity':'fuel'; 'brand':'Avia'; 'name':'Avia'; 'opening_hours':'Mo-Fr 08:00-17:00; Sa 08:00-12:00; Su, PH off'; 'operator':'AVIA Hungária Kft.';  -->
  <!-- JOSM magic link: http://localhost:8111/load_object?new_layer=false&objects=n5169788747&addtags=%7Caddr%3Acity%3DMosonszentmikl%C3%B3s%7Caddr%3Acountry%3DHU%7Caddr%3Ahousenumber%3D15%7Caddr%3Apostcode%3D9183%7Caddr%3Astreet%3DB%C3%A9ke%20%C3%BAt%7Camenity%3Dfuel%7Cbrand%3DAvia%7Cemail%3Dzsete1%40freemail.hu%7Cfacebook%3Dhttps%3A//www.facebook.com/AVIAHungary%7Cfuel%3Adiesel%3Dyes%7Cfuel%3Aoctane_95%3Dyes%7Cimport%3Dosm_poi_matchmaker%7Cname%3DAvia%7Copening_hours%3DMo-Fr%2008%3A00-17%3A00%3B%20Sa%2008%3A00-12%3A00%3B%20Su%2C%20PH%20off%7Coperator%3DAVIA%20Hung%C3%A1ria%20Kft.%7Cpayment%3Amastercard%3Dyes%7Cpayment%3Avisa%3Dyes%7Cphone%3D%2B3696360021%7Csource%3Awww.avia.hu%3Adate%3D2018-11-03%7Cwebsite%3Dhttps%3A//www.avia.hu/toltoallomas/%3Fid%3D32%7Cyoutube%3Dhttps%3A//www.youtube.com/channel/UCjvjkjf2RgmKBuTnKSXk-Rg -->
  <node action="modify" id="5169788747" lat="47.7561882949001" lon="17.4233835975746" timestamp="2017-10-15T19:06:12Z" uid="8635934" user="osm_poi_matchmaker" version="1">
    <tag k="addr:city" v="Mosonszentmiklós"/>
    <tag k="addr:country" v="HU"/>
    <tag k="addr:housenumber" v="15"/>
    <tag k="addr:postcode" v="9183"/>
    <tag k="addr:street" v="Béke út"/>
    <tag k="amenity" v="fuel"/>
    <tag k="brand" v="Avia"/>
    <tag k="email" v="zsete1@freemail.hu"/>
    <tag k="facebook" v="https://www.facebook.com/AVIAHungary"/>
    <tag k="fuel:diesel" v="yes"/>
    <tag k="fuel:octane_95" v="yes"/>
    <tag k="import" v="osm_poi_matchmaker"/>
    <tag k="name" v="Avia"/>
    <tag k="opening_hours" v="Mo-Fr 08:00-17:00; Sa 08:00-12:00; Su, PH off"/>
    <tag k="operator" v="AVIA Hungária Kft."/>
    <tag k="payment:mastercard" v="yes"/>
    <tag k="payment:visa" v="yes"/>
    <tag k="phone" v="+3696360021"/>
    <tag k="source:www.avia.hu:date" v="2018-11-03"/>
    <tag k="website" v="https://www.avia.hu/toltoallomas/?id=32"/>
    <tag k="youtube" v="https://www.youtube.com/channel/UCjvjkjf2RgmKBuTnKSXk-Rg"/>
  </node>
  <!-- OSM link: https://osm.org/node/1718424656 -->
  <!-- Original coordinates: POINT (47.407917 19.743029) -->
  <!-- OSM <-> POI distance: 2.81164148 m-->
  <!-- Checker good: {not_in_water}; bad {}-->
  <!-- Original tags: 'addr:city':'Nagykáta'; 'addr:housenumber':'61/a'; 'addr:postcode':'2760'; 'addr:street':'Jászberényi út'; 'amenity':'fuel'; 'brand':'AVIA'; 'fuel:diesel':'yes'; 'fuel:octane_95':'yes'; 'fuel:octane_98':'yes'; 'name':'AVIA'; 'opening_hours':'Mo-Su 04:30-22:00'; 'operator':'AVIA - Zsonikó Kft'; 'website':'http://www.avia.hu';  -->
  <!-- JOSM magic link: http://localhost:8111/load_object?new_layer=false&objects=n1718424656&addtags=%7Caddr%3Acity%3DNagyk%C3%A1ta%7Caddr%3Acountry%3DHU%7Caddr%3Ahousenumber%3D61/A%7Caddr%3Apostcode%3D2760%7Caddr%3Astreet%3DJ%C3%A1szber%C3%A9nyi%20%C3%BAt%7Camenity%3Dfuel%7Cbrand%3DAvia%7Cemail%3Dzsoniko%40avia.hu%7Cfacebook%3Dhttps%3A//www.facebook.com/AVIAHungary%7Cfuel%3Adiesel%3Dyes%7Cfuel%3Aoctane_95%3Dyes%7Cfuel%3Aoctane_98%3Dyes%7Cimport%3Dosm_poi_matchmaker%7Cname%3DAvia%7Copening_hours%3DMo-Su%2004%3A30-22%3A00%7Coperator%3DAVIA%20Hung%C3%A1ria%20Kft.%7Cpayment%3Amastercard%3Dyes%7Cpayment%3Avisa%3Dyes%7Cphone%3D%2B36205504776%7Csource%3Awww.avia.hu%3Adate%3D2018-11-03%7Cwebsite%3Dhttps%3A//www.avia.hu/toltoallomas/%3Fid%3D110%7Cyoutube%3Dhttps%3A//www.youtube.com/channel/UCjvjkjf2RgmKBuTnKSXk-Rg -->
  <node action="modify" id="1718424656" lat="47.4079295949148" lon="19.7430613972517" timestamp="2016-03-03T12:23:40Z" uid="8635934" user="osm_poi_matchmaker" version="5">
    <tag k="addr:city" v="Nagykáta"/>
    <tag k="addr:country" v="HU"/>
    <tag k="addr:housenumber" v="61/A"/>
    <tag k="addr:postcode" v="2760"/>
    <tag k="addr:street" v="Jászberényi út"/>
    <tag k="amenity" v="fuel"/>
    <tag k="brand" v="Avia"/>
    <tag k="email" v="zsoniko@avia.hu"/>
    <tag k="facebook" v="https://www.facebook.com/AVIAHungary"/>
    <tag k="fuel:diesel" v="yes"/>
    <tag k="fuel:octane_95" v="yes"/>
    <tag k="fuel:octane_98" v="yes"/>
    <tag k="import" v="osm_poi_matchmaker"/>
    <tag k="name" v="Avia"/>
    <tag k="opening_hours" v="Mo-Su 04:30-22:00"/>
    <tag k="operator" v="AVIA Hungária Kft."/>
    <tag k="payment:mastercard" v="yes"/>
    <tag k="payment:visa" v="yes"/>
    <tag k="phone" v="+36205504776"/>
    <tag k="source:www.avia.hu:date" v="2018-11-03"/>
    <tag k="website" v="https://www.avia.hu/toltoallomas/?id=110"/>
    <tag k="youtube" v="https://www.youtube.com/channel/UCjvjkjf2RgmKBuTnKSXk-Rg"/>
  </node>
  <!-- OSM link: https://osm.org/node/4386767289 -->
  <!-- Original coordinates: POINT (47.52120029409542 19.26353931427002) -->
  <!-- OSM <-> POI distance: 127.82997974 m-->
  <!-- Checker good: {not_in_water}; bad {}-->
  <!-- Original tags: 'amenity':'fuel'; 'name':'AVIA';  -->
  <!-- JOSM magic link: http://localhost:8111/load_object?new_layer=false&objects=n4386767289&addtags=%7Caddr%3Acity%3DNagytarcsa%7Caddr%3Acountry%3DHU%7Caddr%3Apostcode%3D2142%7Camenity%3Dfuel%7Cbrand%3DAvia%7Cemail%3Daviamotel.nagytarcsa%40freemail.hu%7Cfacebook%3Dhttps%3A//www.facebook.com/AVIAHungary%7Cfuel%3Adiesel%3Dyes%7Cfuel%3Aoctane_95%3Dyes%7Cimport%3Dosm_poi_matchmaker%7Cname%3DAvia%7Coperator%3DAVIA%20Hung%C3%A1ria%20Kft.%7Cpayment%3Amastercard%3Dyes%7Cpayment%3Avisa%3Dyes%7Cphone%3D%2B36205089009%7Csource%3Awww.avia.hu%3Adate%3D2018-11-03%7Cwebsite%3Dhttps%3A//www.avia.hu/toltoallomas/%3Fid%3D68%7Cyoutube%3Dhttps%3A//www.youtube.com/channel/UCjvjkjf2RgmKBuTnKSXk-Rg -->
  <node action="modify" id="4386767289" lat="47.5223153949099" lon="19.2631253973186" timestamp="2016-09-06T07:47:09Z" uid="8635934" user="osm_poi_matchmaker" version="1">
    <tag k="addr:city" v="Nagytarcsa"/>
    <tag k="addr:country" v="HU"/>
    <tag k="addr:postcode" v="2142"/>
    <tag k="amenity" v="fuel"/>
    <tag k="brand" v="Avia"/>
    <tag k="email" v="aviamotel.nagytarcsa@freemail.hu"/>
    <tag k="facebook" v="https://www.facebook.com/AVIAHungary"/>
    <tag k="fuel:diesel" v="yes"/>
    <tag k="fuel:octane_95" v="yes"/>
    <tag k="import" v="osm_poi_matchmaker"/>
    <tag k="name" v="Avia"/>
    <tag k="operator" v="AVIA Hungária Kft."/>
    <tag k="payment:mastercard" v="yes"/>
    <tag k="payment:visa" v="yes"/>
    <tag k="phone" v="+36205089009"/>
    <tag k="source:www.avia.hu:date" v="2018-11-03"/>
    <tag k="website" v="https://www.avia.hu/toltoallomas/?id=68"/>
    <tag k="youtube" v="https://www.youtube.com/channel/UCjvjkjf2RgmKBuTnKSXk-Rg"/>
  </node>
  <node action="modify" id="5284157682" lat="47.6843057" lon="21.8903693" timestamp="2017-12-14T14:17:44Z" uid="622084" user="ITineris" version="1"/>
  <node action="modify" id="5284157667" lat="47.684251" lon="21.8904086" timestamp="2017-12-14T14:17:44Z" uid="622084" user="ITineris" version="1"/>
  <node action="modify" id="5284157683" lat="47.6841904" lon="21.890452" timestamp="2017-12-14T14:17:44Z" uid="622084" user="ITineris" version="1"/>
  <node action="modify" id="5284157684" lat="47.6842029" lon="21.8904904" timestamp="2017-12-14T14:17:44Z" uid="622084" user="ITineris" version="1"/>
  <node action="modify" id="5284157685" lat="47.6841273" lon="21.8905446" timestamp="2017-12-14T14:17:44Z" uid="622084" user="ITineris" version="1"/>
  <node action="modify" id="5284157686" lat="47.6842414" lon="21.8908956" timestamp="2017-12-14T14:17:44Z" uid="622084" user="ITineris" version="1"/>
  <node action="modify" id="5284157687" lat="47.6843226" lon="21.8908374" timestamp="2017-12-14T14:17:44Z" uid="622084" user="ITineris" version="1"/>
  <node action="modify" id="5284157688" lat="47.6842669" lon="21.8906661" timestamp="2017-12-14T14:17:44Z" uid="622084" user="ITineris" version="1"/>
  <node action="modify" id="5284157689" lat="47.6843766" lon="21.8905875" timestamp="2017-12-14T14:17:44Z" uid="622084" user="ITineris" version="1"/>
  <node action="modify" id="5284157682" lat="47.6843057" lon="21.8903693" timestamp="2017-12-14T14:17:44Z" uid="622084" user="ITineris" version="1"/>
  <!-- OSM link: https://osm.org/way/546845631 -->
  <!-- Original coordinates: POINT (47.6846628 21.8911262) -->
  <!-- OSM <-> POI distance: 43.57101231 m-->
  <!-- Checker good: {not_in_water}; bad {}-->
  <!-- Original tags: 'amenity':'fuel'; 'building':'yes'; 'fixme':'verify'; 'name':'Nyírolaj'; 'toilets:wheelchair':'no'; 'wheelchair':'no';  -->
  <!-- JOSM magic link: http://localhost:8111/load_object?new_layer=false&objects=w546845631&addtags=%7Caddr%3Acity%3DNy%C3%ADradony%7Caddr%3Acountry%3DHU%7Caddr%3Apostcode%3D4254%7Camenity%3Dfuel%7Cbrand%3DAvia%7Cbuilding%3Dyes%7Cemail%3Dzsolt.csuhai%40gmail.com%7Cfacebook%3Dhttps%3A//www.facebook.com/AVIAHungary%7Cfixme%3Dverify%7Cfuel%3Adiesel%3Dyes%7Cfuel%3Aoctane_95%3Dyes%7Cimport%3Dosm_poi_matchmaker%7Cname%3DAvia%7Coperator%3DAVIA%20Hung%C3%A1ria%20Kft.%7Cpayment%3Amastercard%3Dyes%7Cpayment%3Avisa%3Dyes%7Cphone%3D%2B3652203470%7Csource%3Awww.avia.hu%3Adate%3D2018-11-03%7Ctoilets%3Awheelchair%3Dno%7Cwebsite%3Dhttps%3A//www.avia.hu/toltoallomas/%3Fid%3D131%7Cwheelchair%3Dno%7Cyoutube%3Dhttps%3A//www.youtube.com/channel/UCjvjkjf2RgmKBuTnKSXk-Rg -->
  <way action="modify" id="546845631" timestamp="2017-12-14T15:17:50Z" uid="8635934" user="osm_poi_matchmaker" version="1">
    <nd ref="5284157682"/>
    <nd ref="5284157667"/>
    <nd ref="5284157683"/>
    <nd ref="5284157684"/>
    <nd ref="5284157685"/>
    <nd ref="5284157686"/>
    <nd ref="5284157687"/>
    <nd ref="5284157688"/>
    <nd ref="5284157689"/>
    <nd ref="5284157682"/>
    <tag k="addr:city" v="Nyíradony"/>
    <tag k="addr:country" v="HU"/>
    <tag k="addr:postcode" v="4254"/>
    <tag k="amenity" v="fuel"/>
    <tag k="brand" v="Avia"/>
    <tag k="building" v="yes"/>
    <tag k="email" v="zsolt.csuhai@gmail.com"/>
    <tag k="facebook" v="https://www.facebook.com/AVIAHungary"/>
    <tag k="fixme" v="verify"/>
    <tag k="fuel:diesel" v="yes"/>
    <tag k="fuel:octane_95" v="yes"/>
    <tag k="import" v="osm_poi_matchmaker"/>
    <tag k="name" v="Avia"/>
    <tag k="operator" v="AVIA Hungária Kft."/>
    <tag k="payment:mastercard" v="yes"/>
    <tag k="payment:visa" v="yes"/>
    <tag k="phone" v="+3652203470"/>
    <tag k="source:www.avia.hu:date" v="2018-11-03"/>
    <tag k="toilets:wheelchair" v="no"/>
    <tag k="website" v="https://www.avia.hu/toltoallomas/?id=131"/>
    <tag k="wheelchair" v="no"/>
    <tag k="youtube" v="https://www.youtube.com/channel/UCjvjkjf2RgmKBuTnKSXk-Rg"/>
  </way>
  <!-- OSM link: https://osm.org/node/4940558609 -->
  <!-- Original coordinates: POINT (46.9003214 20.398521) -->
  <!-- OSM <-> POI distance: 10.96102402 m-->
  <!-- Checker good: {not_in_water}; bad {}-->
  <!-- Original tags:  -->
  <!-- JOSM magic link: http://localhost:8111/load_object?new_layer=false&objects=n4940558609&addtags=%7Caddr%3Acity%3D%C3%96cs%C3%B6d%7Caddr%3Acountry%3DHU%7Caddr%3Ahousenumber%3D1%7Caddr%3Apostcode%3D5451%7Caddr%3Astreet%3DBem%20%C3%BAt%7Camenity%3Dfuel%7Cbrand%3DAvia%7Cemail%3Drolytransspedkft%40gmail.com%7Cfacebook%3Dhttps%3A//www.facebook.com/AVIAHungary%7Cfuel%3Adiesel%3Dyes%7Cfuel%3Aoctane_95%3Dyes%7Cimport%3Dosm_poi_matchmaker%7Cname%3DAvia%7Coperator%3DAVIA%20Hung%C3%A1ria%20Kft.%7Cpayment%3Amastercard%3Dyes%7Cpayment%3Avisa%3Dyes%7Cphone%3D%2B36703105584%7Csource%3Awww.avia.hu%3Adate%3D2018-11-03%7Cwebsite%3Dhttps%3A//www.avia.hu/toltoallomas/%3Fid%3D127%7Cyoutube%3Dhttps%3A//www.youtube.com/channel/UCjvjkjf2RgmKBuTnKSXk-Rg -->
  <node action="modify" id="4940558609" lat="46.900400394937" lon="20.3986072971605" timestamp="2017-08-09T18:59:41Z" uid="8635934" user="osm_poi_matchmaker" version="2">
    <tag k="addr:city" v="Öcsöd"/>
    <tag k="addr:country" v="HU"/>
    <tag k="addr:housenumber" v="1"/>
    <tag k="addr:postcode" v="5451"/>
    <tag k="addr:street" v="Bem út"/>
    <tag k="amenity" v="fuel"/>
    <tag k="brand" v="Avia"/>
    <tag k="email" v="rolytransspedkft@gmail.com"/>
    <tag k="facebook" v="https://www.facebook.com/AVIAHungary"/>
    <tag k="fuel:diesel" v="yes"/>
    <tag k="fuel:octane_95" v="yes"/>
    <tag k="import" v="osm_poi_matchmaker"/>
    <tag k="name" v="Avia"/>
    <tag k="operator" v="AVIA Hungária Kft."/>
    <tag k="payment:mastercard" v="yes"/>
    <tag k="payment:visa" v="yes"/>
    <tag k="phone" v="+36703105584"/>
    <tag k="source:www.avia.hu:date" v="2018-11-03"/>
    <tag k="website" v="https://www.avia.hu/toltoallomas/?id=127"/>
    <tag k="youtube" v="https://www.youtube.com/channel/UCjvjkjf2RgmKBuTnKSXk-Rg"/>
  </node>
  <!-- OSM link: https://osm.org/node/895788164 -->
  <!-- Original coordinates: POINT (47.6907 19.2559) -->
  <!-- OSM <-> POI distance: 13.8985473 m-->
  <!-- Checker good: {not_in_water}; bad {}-->
  <!-- Original tags: 'amenity':'fuel'; 'brand':'AVIA'; 'fuel:95':'yes'; 'fuel:diesel':'yes'; 'fuel:e85':'yes'; 'fuel:lpg':'yes'; 'name':'AVIA'; 'website':'http://www.avia.hu'; 'wheelchair':'limited';  -->
  <!-- JOSM magic link: http://localhost:8111/load_object?new_layer=false&objects=n895788164&addtags=%7Caddr%3Acity%3D%C5%90rbotty%C3%A1n%7Caddr%3Aconscriptionnumber%3D9733/2%7Caddr%3Acountry%3DHU%7Caddr%3Apostcode%3D2162%7Caddr%3Astreet%3DF%C5%91%20%C3%BAt%7Camenity%3Dfuel%7Cbrand%3DAvia%7Cemail%3Dzsoniko%40avia.hu%7Cfacebook%3Dhttps%3A//www.facebook.com/AVIAHungary%7Cfuel%3A95%3Dyes%7Cfuel%3Adiesel%3Dyes%7Cfuel%3Ae85%3Dyes%7Cfuel%3Alpg%3Dyes%7Cfuel%3Aoctane_95%3Dyes%7Cimport%3Dosm_poi_matchmaker%7Cname%3DAvia%7Coperator%3DAVIA%20Hung%C3%A1ria%20Kft.%7Cpayment%3Amastercard%3Dyes%7Cpayment%3Avisa%3Dyes%7Cphone%3D%2B36209792560%7Csource%3Awww.avia.hu%3Adate%3D2018-11-03%7Cwebsite%3Dhttps%3A//www.avia.hu/toltoallomas/%3Fid%3D113%7Cwheelchair%3Dlimited%7Cyoutube%3Dhttps%3A//www.youtube.com/channel/UCjvjkjf2RgmKBuTnKSXk-Rg -->
  <node action="modify" id="895788164" lat="47.6906791949028" lon="19.2560830973195" timestamp="2017-04-10T15:36:45Z" uid="8635934" user="osm_poi_matchmaker" version="4">
    <tag k="addr:city" v="Őrbottyán"/>
    <tag k="addr:conscriptionnumber" v="9733/2"/>
    <tag k="addr:country" v="HU"/>
    <tag k="addr:postcode" v="2162"/>
    <tag k="addr:street" v="Fő út"/>
    <tag k="amenity" v="fuel"/>
    <tag k="brand" v="Avia"/>
    <tag k="email" v="zsoniko@avia.hu"/>
    <tag k="facebook" v="https://www.facebook.com/AVIAHungary"/>
    <tag k="fuel:95" v="yes"/>
    <tag k="fuel:diesel" v="yes"/>
    <tag k="fuel:e85" v="yes"/>
    <tag k="fuel:lpg" v="yes"/>
    <tag k="fuel:octane_95" v="yes"/>
    <tag k="import" v="osm_poi_matchmaker"/>
    <tag k="name" v="Avia"/>
    <tag k="operator" v="AVIA Hungária Kft."/>
    <tag k="payment:mastercard" v="yes"/>
    <tag k="payment:visa" v="yes"/>
    <tag k="phone" v="+36209792560"/>
    <tag k="source:www.avia.hu:date" v="2018-11-03"/>
    <tag k="website" v="https://www.avia.hu/toltoallomas/?id=113"/>
    <tag k="wheelchair" v="limited"/>
    <tag k="youtube" v="https://www.youtube.com/channel/UCjvjkjf2RgmKBuTnKSXk-Rg"/>
  </node>
  <!-- OSM link: https://osm.org/node/2472557724 -->
  <!-- Original coordinates: POINT (46.83793139 16.41830027) -->
  <!-- OSM <-> POI distance: 9.70778703 m-->
  <!-- Checker good: {not_in_water}; bad {}-->
  <!-- Original tags: 'amenity':'fuel'; 'building':'yes'; 'name':'AVIA';  -->
  <!-- JOSM magic link: http://localhost:8111/load_object?new_layer=false&objects=n2472557724&addtags=%7Caddr%3Acity%3D%C5%90riszentp%C3%A9ter%7Caddr%3Acountry%3DHU%7Caddr%3Apostcode%3D9941%7Camenity%3Dfuel%7Cbrand%3DAvia%7Cbuilding%3Dyes%7Cemail%3Dorsegiafesz%40gmail.com%7Cfacebook%3Dhttps%3A//www.facebook.com/AVIAHungary%7Cfuel%3Adiesel%3Dyes%7Cfuel%3Aoctane_95%3Dyes%7Cimport%3Dosm_poi_matchmaker%7Cname%3DAvia%7Coperator%3DAVIA%20Hung%C3%A1ria%20Kft.%7Cpayment%3Amastercard%3Dyes%7Cpayment%3Avisa%3Dyes%7Cphone%3D%2B3694428390%7Csource%3Awww.avia.hu%3Adate%3D2018-11-03%7Cwebsite%3Dhttps%3A//www.avia.hu/toltoallomas/%3Fid%3D55%7Cyoutube%3Dhttps%3A//www.youtube.com/channel/UCjvjkjf2RgmKBuTnKSXk-Rg -->
  <node action="modify" id="2472557724" lat="46.8379602949397" lon="16.4184206977145" timestamp="2016-07-08T09:06:39Z" uid="8635934" user="osm_poi_matchmaker" version="3">
    <tag k="addr:city" v="Őriszentpéter"/>
    <tag k="addr:country" v="HU"/>
    <tag k="addr:postcode" v="9941"/>
    <tag k="amenity" v="fuel"/>
    <tag k="brand" v="Avia"/>
    <tag k="building" v="yes"/>
    <tag k="email" v="orsegiafesz@gmail.com"/>
    <tag k="facebook" v="https://www.facebook.com/AVIAHungary"/>
    <tag k="fuel:diesel" v="yes"/>
    <tag k="fuel:octane_95" v="yes"/>
    <tag k="import" v="osm_poi_matchmaker"/>
    <tag k="name" v="Avia"/>
    <tag k="operator" v="AVIA Hungária Kft."/>
    <tag k="payment:mastercard" v="yes"/>
    <tag k="payment:visa" v="yes"/>
    <tag k="phone" v="+3694428390"/>
    <tag k="source:www.avia.hu:date" v="2018-11-03"/>
    <tag k="website" v="https://www.avia.hu/toltoallomas/?id=55"/>
    <tag k="youtube" v="https://www.youtube.com/channel/UCjvjkjf2RgmKBuTnKSXk-Rg"/>
  </node>
  <!-- Original coordinates: POINT (47.32863 17.03829) -->
  <!-- OSM <-> POI distance: None m-->
  <!-- Checker good: {not_in_water}; bad {}-->
  <!-- Original tags:  -->
  <!-- JOSM magic link: http://localhost:8111/load_object?new_layer=false&objects=n-57&addtags=%7Caddr%3Acity%3DOstffyasszonyfa%7Caddr%3Acountry%3DHU%7Caddr%3Ahousenumber%3D24%7Caddr%3Apostcode%3D9512%7Caddr%3Astreet%3DBajcsy-Zsilinszky%20Endre%20utca%7Camenity%3Dfuel%7Cbrand%3DAvia%7Cemail%3Daviadiesel%40avia.hu%7Cfacebook%3Dhttps%3A//www.facebook.com/AVIAHungary%7Cfuel%3Adiesel%3Dyes%7Cfuel%3Aoctane_95%3Dyes%7Cimport%3Dosm_poi_matchmaker%7Cname%3DAvia%7Coperator%3DAVIA%20Hung%C3%A1ria%20Kft.%7Cpayment%3Amastercard%3Dyes%7Cpayment%3Avisa%3Dyes%7Cphone%3D%2B3695394305%7Csource%3Awww.avia.hu%3Adate%3D2018-11-03%7Cwebsite%3Dhttps%3A//www.avia.hu/toltoallomas/%3Fid%3D8%7Cyoutube%3Dhttps%3A//www.youtube.com/channel/UCjvjkjf2RgmKBuTnKSXk-Rg -->
  <node action="modify" id="-57" lat="47.32863" lon="17.03829" timestamp="2018-11-03T14:29:45Z" uid="8635934" user="osm_poi_matchmaker" version="99999">
    <tag k="addr:city" v="Ostffyasszonyfa"/>
    <tag k="addr:country" v="HU"/>
    <tag k="addr:housenumber" v="24"/>
    <tag k="addr:postcode" v="9512"/>
    <tag k="addr:street" v="Bajcsy-Zsilinszky Endre utca"/>
    <tag k="amenity" v="fuel"/>
    <tag k="brand" v="Avia"/>
    <tag k="email" v="aviadiesel@avia.hu"/>
    <tag k="facebook" v="https://www.facebook.com/AVIAHungary"/>
    <tag k="fuel:diesel" v="yes"/>
    <tag k="fuel:octane_95" v="yes"/>
    <tag k="import" v="osm_poi_matchmaker"/>
    <tag k="name" v="Avia"/>
    <tag k="operator" v="AVIA Hungária Kft."/>
    <tag k="payment:mastercard" v="yes"/>
    <tag k="payment:visa" v="yes"/>
    <tag k="phone" v="+3695394305"/>
    <tag k="source:www.avia.hu:date" v="2018-11-03"/>
    <tag k="website" v="https://www.avia.hu/toltoallomas/?id=8"/>
    <tag k="youtube" v="https://www.youtube.com/channel/UCjvjkjf2RgmKBuTnKSXk-Rg"/>
  </node>
  <node action="modify" id="5141529712" lat="47.3281152" lon="17.497094" timestamp="2017-10-01T15:11:32Z" uid="622084" user="ITineris" version="1"/>
  <node action="modify" id="5141529713" lat="47.328098" lon="17.4970686" timestamp="2017-10-01T15:11:32Z" uid="622084" user="ITineris" version="1"/>
  <node action="modify" id="5141529714" lat="47.3280643" lon="17.4970708" timestamp="2017-10-01T15:11:32Z" uid="622084" user="ITineris" version="1"/>
  <node action="modify" id="5141529715" lat="47.3280111" lon="17.4969913" timestamp="2017-10-01T15:11:32Z" uid="622084" user="ITineris" version="1"/>
  <node action="modify" id="5141529716" lat="47.3279684" lon="17.4970564" timestamp="2017-10-01T15:11:32Z" uid="622084" user="ITineris" version="1"/>
  <node action="modify" id="5141529717" lat="47.3280246" lon="17.4971338" timestamp="2017-10-01T15:11:32Z" uid="622084" user="ITineris" version="1"/>
  <node action="modify" id="5141529718" lat="47.3280186" lon="17.497189" timestamp="2017-10-01T15:11:32Z" uid="622084" user="ITineris" version="1"/>
  <node action="modify" id="5141529719" lat="47.3280358" lon="17.4972144" timestamp="2017-10-01T15:11:32Z" uid="622084" user="ITineris" version="1"/>
  <node action="modify" id="5141529712" lat="47.3281152" lon="17.497094" timestamp="2017-10-01T15:11:32Z" uid="622084" user="ITineris" version="1"/>
  <!-- OSM link: https://osm.org/way/529234987 -->
  <!-- Original coordinates: POINT (47.32798 17.49718) -->
  <!-- OSM <-> POI distance: 4.34481177 m-->
  <!-- Checker good: {not_in_water}; bad {}-->
  <!-- Original tags: 'amenity':'fuel'; 'building':'yes'; 'operator':'Avia';  -->
  <!-- JOSM magic link: http://localhost:8111/load_object?new_layer=false&objects=w529234987&addtags=%7Caddr%3Acity%3DP%C3%A1pa%7Caddr%3Aconscriptionnumber%3D661%7Caddr%3Acountry%3DHU%7Caddr%3Apostcode%3D8500%7Caddr%3Astreet%3DH%C3%B3doska%20major%7Camenity%3Dfuel%7Cbrand%3DAvia%7Cbuilding%3Dyes%7Cemail%3Dfo-tix2003bt%40wdsl.hu%7Cfacebook%3Dhttps%3A//www.facebook.com/AVIAHungary%7Cfuel%3Adiesel%3Dyes%7Cfuel%3Aoctane_95%3Dyes%7Cimport%3Dosm_poi_matchmaker%7Cname%3DAvia%7Coperator%3DAVIA%20Hung%C3%A1ria%20Kft.%7Cpayment%3Amastercard%3Dyes%7Cpayment%3Avisa%3Dyes%7Cphone%3D%2B36209530066%7Csource%3Awww.avia.hu%3Adate%3D2018-11-03%7Cwebsite%3Dhttps%3A//www.avia.hu/toltoallomas/%3Fid%3D19%7Cyoutube%3Dhttps%3A//www.youtube.com/channel/UCjvjkjf2RgmKBuTnKSXk-Rg -->
  <way action="modify" id="529234987" timestamp="2017-10-01T17:11:35Z" uid="8635934" user="osm_poi_matchmaker" version="1">
    <nd ref="5141529712"/>
    <nd ref="5141529713"/>
    <nd ref="5141529714"/>
    <nd ref="5141529715"/>
    <nd ref="5141529716"/>
    <nd ref="5141529717"/>
    <nd ref="5141529718"/>
    <nd ref="5141529719"/>
    <nd ref="5141529712"/>
    <tag k="addr:city" v="Pápa"/>
    <tag k="addr:conscriptionnumber" v="661"/>
    <tag k="addr:country" v="HU"/>
    <tag k="addr:postcode" v="8500"/>
    <tag k="addr:street" v="Hódoska major"/>
    <tag k="amenity" v="fuel"/>
    <tag k="brand" v="Avia"/>
    <tag k="building" v="yes"/>
    <tag k="email" v="fo-tix2003bt@wdsl.hu"/>
    <tag k="facebook" v="https://www.facebook.com/AVIAHungary"/>
    <tag k="fuel:diesel" v="yes"/>
    <tag k="fuel:octane_95" v="yes"/>
    <tag k="import" v="osm_poi_matchmaker"/>
    <tag k="name" v="Avia"/>
    <tag k="operator" v="AVIA Hungária Kft."/>
    <tag k="payment:mastercard" v="yes"/>
    <tag k="payment:visa" v="yes"/>
    <tag k="phone" v="+36209530066"/>
    <tag k="source:www.avia.hu:date" v="2018-11-03"/>
    <tag k="website" v="https://www.avia.hu/toltoallomas/?id=19"/>
    <tag k="youtube" v="https://www.youtube.com/channel/UCjvjkjf2RgmKBuTnKSXk-Rg"/>
  </way>
  <!-- Original coordinates: POINT (47.886078 21.101965) -->
  <!-- OSM <-> POI distance: None m-->
  <!-- Checker good: {not_in_water}; bad {}-->
  <!-- Original tags:  -->
  <!-- JOSM magic link: http://localhost:8111/load_object?new_layer=false&objects=n-59&addtags=%7Caddr%3Acity%3DPolg%C3%A1r%7Caddr%3Acountry%3DHU%7Caddr%3Ahousenumber%3D7/A%7Caddr%3Apostcode%3D4090%7Caddr%3Astreet%3DTiszai%C3%BAti%20tanya%7Camenity%3Dfuel%7Cbrand%3DAvia%7Cemail%3Daliterkft%40gmail.com%7Cfacebook%3Dhttps%3A//www.facebook.com/AVIAHungary%7Cfuel%3Adiesel%3Dyes%7Cfuel%3Aoctane_95%3Dyes%7Cimport%3Dosm_poi_matchmaker%7Cname%3DAvia%7Coperator%3DAVIA%20Hung%C3%A1ria%20Kft.%7Cpayment%3Amastercard%3Dyes%7Cpayment%3Avisa%3Dyes%7Cphone%3D%2B36702577359%7Csource%3Awww.avia.hu%3Adate%3D2018-11-03%7Cwebsite%3Dhttps%3A//www.avia.hu/toltoallomas/%3Fid%3D128%7Cyoutube%3Dhttps%3A//www.youtube.com/channel/UCjvjkjf2RgmKBuTnKSXk-Rg -->
  <node action="modify" id="-59" lat="47.886078" lon="21.101965" timestamp="2018-11-03T14:29:45Z" uid="8635934" user="osm_poi_matchmaker" version="99999">
    <tag k="addr:city" v="Polgár"/>
    <tag k="addr:country" v="HU"/>
    <tag k="addr:housenumber" v="7/A"/>
    <tag k="addr:postcode" v="4090"/>
    <tag k="addr:street" v="Tiszaiúti tanya"/>
    <tag k="amenity" v="fuel"/>
    <tag k="brand" v="Avia"/>
    <tag k="email" v="aliterkft@gmail.com"/>
    <tag k="facebook" v="https://www.facebook.com/AVIAHungary"/>
    <tag k="fuel:diesel" v="yes"/>
    <tag k="fuel:octane_95" v="yes"/>
    <tag k="import" v="osm_poi_matchmaker"/>
    <tag k="name" v="Avia"/>
    <tag k="operator" v="AVIA Hungária Kft."/>
    <tag k="payment:mastercard" v="yes"/>
    <tag k="payment:visa" v="yes"/>
    <tag k="phone" v="+36702577359"/>
    <tag k="source:www.avia.hu:date" v="2018-11-03"/>
    <tag k="website" v="https://www.avia.hu/toltoallomas/?id=128"/>
    <tag k="youtube" v="https://www.youtube.com/channel/UCjvjkjf2RgmKBuTnKSXk-Rg"/>
  </node>
  <!-- OSM link: https://osm.org/node/368193160 -->
  <!-- Original coordinates: POINT (47.067773 18.309969) -->
  <!-- OSM <-> POI distance: 39.89188837 m-->
  <!-- Checker good: {not_in_water}; bad {}-->
  <!-- Original tags: 'amenity':'fuel'; 'name':'PJ'; 'operator':'PJ';  -->
  <!-- JOSM magic link: http://localhost:8111/load_object?new_layer=false&objects=n368193160&addtags=%7Caddr%3Acity%3DPolg%C3%A1rdi%7Caddr%3Acountry%3DHU%7Caddr%3Apostcode%3D8154%7Camenity%3Dfuel%7Cbrand%3DAvia%7Cemail%3D777agencykft%40gmail.com%7Cfacebook%3Dhttps%3A//www.facebook.com/AVIAHungary%7Cfuel%3Adiesel%3Dyes%7Cfuel%3Aoctane_95%3Dyes%7Cimport%3Dosm_poi_matchmaker%7Cname%3DAvia%7Coperator%3DAVIA%20Hung%C3%A1ria%20Kft.%7Cpayment%3Amastercard%3Dyes%7Cpayment%3Avisa%3Dyes%7Cphone%3D%2B3622576196%7Csource%3Awww.avia.hu%3Adate%3D2018-11-03%7Cwebsite%3Dhttps%3A//www.avia.hu/toltoallomas/%3Fid%3D46%7Cyoutube%3Dhttps%3A//www.youtube.com/channel/UCjvjkjf2RgmKBuTnKSXk-Rg -->
  <node action="modify" id="368193160" lat="47.0680153949295" lon="18.3103572974512" timestamp="2013-06-04T19:00:47Z" uid="8635934" user="osm_poi_matchmaker" version="2">
    <tag k="addr:city" v="Polgárdi"/>
    <tag k="addr:country" v="HU"/>
    <tag k="addr:postcode" v="8154"/>
    <tag k="amenity" v="fuel"/>
    <tag k="brand" v="Avia"/>
    <tag k="email" v="777agencykft@gmail.com"/>
    <tag k="facebook" v="https://www.facebook.com/AVIAHungary"/>
    <tag k="fuel:diesel" v="yes"/>
    <tag k="fuel:octane_95" v="yes"/>
    <tag k="import" v="osm_poi_matchmaker"/>
    <tag k="name" v="Avia"/>
    <tag k="operator" v="AVIA Hungária Kft."/>
    <tag k="payment:mastercard" v="yes"/>
    <tag k="payment:visa" v="yes"/>
    <tag k="phone" v="+3622576196"/>
    <tag k="source:www.avia.hu:date" v="2018-11-03"/>
    <tag k="website" v="https://www.avia.hu/toltoallomas/?id=46"/>
    <tag k="youtube" v="https://www.youtube.com/channel/UCjvjkjf2RgmKBuTnKSXk-Rg"/>
  </node>
  <node action="modify" id="5305369610" lat="46.2010388" lon="18.8213154" timestamp="2017-12-26T20:07:01Z" uid="622084" user="ITineris" version="1"/>
  <node action="modify" id="5305369611" lat="46.2008483" lon="18.8211746" timestamp="2017-12-26T20:07:01Z" uid="622084" user="ITineris" version="1"/>
  <node action="modify" id="5305369612" lat="46.2007788" lon="18.821371" timestamp="2017-12-26T20:07:01Z" uid="622084" user="ITineris" version="1"/>
  <node action="modify" id="5305369613" lat="46.2009693" lon="18.8215118" timestamp="2017-12-26T20:07:01Z" uid="622084" user="ITineris" version="1"/>
  <node action="modify" id="5305369610" lat="46.2010388" lon="18.8213154" timestamp="2017-12-26T20:07:01Z" uid="622084" user="ITineris" version="1"/>
  <!-- OSM link: https://osm.org/way/549217165 -->
  <!-- Original coordinates: POINT (46.201125 18.8198371) -->
  <!-- OSM <-> POI distance: 107.43590427 m-->
  <!-- Checker good: {not_in_water}; bad {}-->
  <!-- Original tags: 'amenity':'fuel'; 'building':'yes'; 'name':'Avia';  -->
  <!-- JOSM magic link: http://localhost:8111/load_object?new_layer=false&objects=w549217165&addtags=%7Caddr%3Acity%3DP%C3%B6rb%C3%B6ly%7Caddr%3Acountry%3DHU%7Caddr%3Ahousenumber%3D1%7Caddr%3Apostcode%3D7142%7Caddr%3Astreet%3DVad%C3%A1sz%20utca%7Camenity%3Dfuel%7Cbrand%3DAvia%7Cbuilding%3Dyes%7Cemail%3Dbaja%40lamarin.hu%7Cfacebook%3Dhttps%3A//www.facebook.com/AVIAHungary%7Cfuel%3Adiesel%3Dyes%7Cfuel%3Aoctane_95%3Dyes%7Cimport%3Dosm_poi_matchmaker%7Cname%3DAvia%7Coperator%3DAVIA%20Hung%C3%A1ria%20Kft.%7Cpayment%3Amastercard%3Dyes%7Cpayment%3Avisa%3Dyes%7Cphone%3D%2B36307776343%7Csource%3Awww.avia.hu%3Adate%3D2018-11-03%7Cwebsite%3Dhttps%3A//www.avia.hu/toltoallomas/%3Fid%3D63%7Cyoutube%3Dhttps%3A//www.youtube.com/channel/UCjvjkjf2RgmKBuTnKSXk-Rg -->
  <way action="modify" id="549217165" timestamp="2017-12-26T21:07:02Z" uid="8635934" user="osm_poi_matchmaker" version="1">
    <nd ref="5305369610"/>
    <nd ref="5305369611"/>
    <nd ref="5305369612"/>
    <nd ref="5305369613"/>
    <nd ref="5305369610"/>
    <tag k="addr:city" v="Pörböly"/>
    <tag k="addr:country" v="HU"/>
    <tag k="addr:housenumber" v="1"/>
    <tag k="addr:postcode" v="7142"/>
    <tag k="addr:street" v="Vadász utca"/>
    <tag k="amenity" v="fuel"/>
    <tag k="brand" v="Avia"/>
    <tag k="building" v="yes"/>
    <tag k="email" v="baja@lamarin.hu"/>
    <tag k="facebook" v="https://www.facebook.com/AVIAHungary"/>
    <tag k="fuel:diesel" v="yes"/>
    <tag k="fuel:octane_95" v="yes"/>
    <tag k="import" v="osm_poi_matchmaker"/>
    <tag k="name" v="Avia"/>
    <tag k="operator" v="AVIA Hungária Kft."/>
    <tag k="payment:mastercard" v="yes"/>
    <tag k="payment:visa" v="yes"/>
    <tag k="phone" v="+36307776343"/>
    <tag k="source:www.avia.hu:date" v="2018-11-03"/>
    <tag k="website" v="https://www.avia.hu/toltoallomas/?id=63"/>
    <tag k="youtube" v="https://www.youtube.com/channel/UCjvjkjf2RgmKBuTnKSXk-Rg"/>
  </way>
  <!-- OSM link: https://osm.org/node/3355562587 -->
  <!-- Original coordinates: POINT (47.41338 17.00303) -->
  <!-- OSM <-> POI distance: 16.55272155 m-->
  <!-- Checker good: {not_in_water}; bad {}-->
  <!-- Original tags: 'amenity':'fuel'; 'fixme':'resurvey, turistautak.hu source was old'; 'name':'Start'; 'source':'turistautak.hu'; 'url':'http://turistautak.hu/poi.php?id=22542';  -->
  <!-- JOSM magic link: http://localhost:8111/load_object?new_layer=false&objects=n3355562587&addtags=%7Caddr%3Acity%3DR%C3%A9pcelak%7Caddr%3Aconscriptionnumber%3D86%7Caddr%3Acountry%3DHU%7Caddr%3Apostcode%3D9653%7Caddr%3Astreet%3D076/15.%20hrsz%2086.%20sz%C3%A1m%C3%BA%20f%C5%91%C3%BAt%7Camenity%3Dfuel%7Cbrand%3DAvia%7Cemail%3Daviadiesel%40avia.hu%7Cfacebook%3Dhttps%3A//www.facebook.com/AVIAHungary%7Cfixme%3Dresurvey%2C%20turistautak.hu%20source%20was%20old%7Cfuel%3Adiesel%3Dyes%7Cfuel%3Aoctane_95%3Dyes%7Cimport%3Dosm_poi_matchmaker%7Cname%3DAvia%7Coperator%3DAVIA%20Hung%C3%A1ria%20Kft.%7Cpayment%3Amastercard%3Dyes%7Cpayment%3Avisa%3Dyes%7Cphone%3D%2B3695370580%7Csource%3Dturistautak.hu%7Csource%3Awww.avia.hu%3Adate%3D2018-11-03%7Curl%3Dhttp%3A//turistautak.hu/poi.php%3Fid%3D22542%7Cwebsite%3Dhttps%3A//www.avia.hu/toltoallomas/%3Fid%3D6%7Cyoutube%3Dhttps%3A//www.youtube.com/channel/UCjvjkjf2RgmKBuTnKSXk-Rg -->
  <node action="modify" id="3355562587" lat="47.4132312949145" lon="17.0030400976332" timestamp="2015-02-17T10:06:14Z" uid="8635934" user="osm_poi_matchmaker" version="1">
    <tag k="addr:city" v="Répcelak"/>
    <tag k="addr:conscriptionnumber" v="86"/>
    <tag k="addr:country" v="HU"/>
    <tag k="addr:postcode" v="9653"/>
    <tag k="addr:street" v="076/15. hrsz 86. számú főút"/>
    <tag k="amenity" v="fuel"/>
    <tag k="brand" v="Avia"/>
    <tag k="email" v="aviadiesel@avia.hu"/>
    <tag k="facebook" v="https://www.facebook.com/AVIAHungary"/>
    <tag k="fixme" v="resurvey, turistautak.hu source was old"/>
    <tag k="fuel:diesel" v="yes"/>
    <tag k="fuel:octane_95" v="yes"/>
    <tag k="import" v="osm_poi_matchmaker"/>
    <tag k="name" v="Avia"/>
    <tag k="operator" v="AVIA Hungária Kft."/>
    <tag k="payment:mastercard" v="yes"/>
    <tag k="payment:visa" v="yes"/>
    <tag k="phone" v="+3695370580"/>
    <tag k="source" v="turistautak.hu"/>
    <tag k="source:www.avia.hu:date" v="2018-11-03"/>
    <tag k="url" v="http://turistautak.hu/poi.php?id=22542"/>
    <tag k="website" v="https://www.avia.hu/toltoallomas/?id=6"/>
    <tag k="youtube" v="https://www.youtube.com/channel/UCjvjkjf2RgmKBuTnKSXk-Rg"/>
  </node>
  <!-- OSM link: https://osm.org/node/2510920571 -->
  <!-- Original coordinates: POINT (47.25158 16.91036) -->
  <!-- OSM <-> POI distance: 21.7179505 m-->
  <!-- Checker good: {not_in_water}; bad {}-->
  <!-- Original tags: 'amenity':'fuel'; 'name':'Avia';  -->
  <!-- JOSM magic link: http://localhost:8111/load_object?new_layer=false&objects=n2510920571&addtags=%7Caddr%3Acity%3DS%C3%A1rv%C3%A1r%7Caddr%3Acountry%3DHU%7Caddr%3Ahousenumber%3D18%7Caddr%3Apostcode%3D9600%7Caddr%3Astreet%3DIkerv%C3%A1ri%20%C3%BAt%7Camenity%3Dfuel%7Cbrand%3DAvia%7Cemail%3Daviadiesel%40avia.hu%7Cfacebook%3Dhttps%3A//www.facebook.com/AVIAHungary%7Cfuel%3Adiesel%3Dyes%7Cfuel%3Aoctane_95%3Dyes%7Cimport%3Dosm_poi_matchmaker%7Cname%3DAvia%7Coperator%3DAVIA%20Hung%C3%A1ria%20Kft.%7Cpayment%3Amastercard%3Dyes%7Cpayment%3Avisa%3Dyes%7Cphone%3D%2B3695326373%7Csource%3Awww.avia.hu%3Adate%3D2018-11-03%7Cwebsite%3Dhttps%3A//www.avia.hu/toltoallomas/%3Fid%3D4%7Cyoutube%3Dhttps%3A//www.youtube.com/channel/UCjvjkjf2RgmKBuTnKSXk-Rg -->
  <node action="modify" id="2510920571" lat="47.2514958949215" lon="16.910619697646" timestamp="2015-03-19T19:03:58Z" uid="8635934" user="osm_poi_matchmaker" version="4">
    <tag k="addr:city" v="Sárvár"/>
    <tag k="addr:country" v="HU"/>
    <tag k="addr:housenumber" v="18"/>
    <tag k="addr:postcode" v="9600"/>
    <tag k="addr:street" v="Ikervári út"/>
    <tag k="amenity" v="fuel"/>
    <tag k="brand" v="Avia"/>
    <tag k="email" v="aviadiesel@avia.hu"/>
    <tag k="facebook" v="https://www.facebook.com/AVIAHungary"/>
    <tag k="fuel:diesel" v="yes"/>
    <tag k="fuel:octane_95" v="yes"/>
    <tag k="import" v="osm_poi_matchmaker"/>
    <tag k="name" v="Avia"/>
    <tag k="operator" v="AVIA Hungária Kft."/>
    <tag k="payment:mastercard" v="yes"/>
    <tag k="payment:visa" v="yes"/>
    <tag k="phone" v="+3695326373"/>
    <tag k="source:www.avia.hu:date" v="2018-11-03"/>
    <tag k="website" v="https://www.avia.hu/toltoallomas/?id=4"/>
    <tag k="youtube" v="https://www.youtube.com/channel/UCjvjkjf2RgmKBuTnKSXk-Rg"/>
  </node>
  <!-- OSM link: https://osm.org/node/1259612355 -->
  <!-- Original coordinates: POINT (45.8579775257 18.2783961296) -->
  <!-- OSM <-> POI distance: 4.36616277 m-->
  <!-- Checker good: {not_in_water}; bad {}-->
  <!-- Original tags: 'amenity':'fuel'; 'fuel:diesel':'yes'; 'fuel:octane_95':'yes'; 'fuel:octane_98':'yes';  -->
  <!-- JOSM magic link: http://localhost:8111/load_object?new_layer=false&objects=n1259612355&addtags=%7Caddr%3Acity%3DSikl%C3%B3s%7Caddr%3Acountry%3DHU%7Caddr%3Ahousenumber%3D55%7Caddr%3Apostcode%3D7800%7Caddr%3Astreet%3DHark%C3%A1nyi%20utca%7Camenity%3Dfuel%7Cbrand%3DAvia%7Cemail%3Drobert.sebok%40echo-sprint.hu%7Cfacebook%3Dhttps%3A//www.facebook.com/AVIAHungary%7Cfuel%3Adiesel%3Dyes%7Cfuel%3Aoctane_95%3Dyes%7Cfuel%3Aoctane_98%3Dyes%7Cimport%3Dosm_poi_matchmaker%7Cname%3DAvia%7Coperator%3DAVIA%20Hung%C3%A1ria%20Kft.%7Cpayment%3Amastercard%3Dyes%7Cpayment%3Avisa%3Dyes%7Cphone%3D%2B3672579008%7Csource%3Awww.avia.hu%3Adate%3D2018-11-03%7Cwebsite%3Dhttps%3A//www.avia.hu/toltoallomas/%3Fid%3D106%7Cyoutube%3Dhttps%3A//www.youtube.com/channel/UCjvjkjf2RgmKBuTnKSXk-Rg -->
  <node action="modify" id="1259612355" lat="45.8579984949858" lon="18.2784437974556" timestamp="2012-01-22T16:56:02Z" uid="8635934" user="osm_poi_matchmaker" version="3">
    <tag k="addr:city" v="Siklós"/>
    <tag k="addr:country" v="HU"/>
    <tag k="addr:housenumber" v="55"/>
    <tag k="addr:postcode" v="7800"/>
    <tag k="addr:street" v="Harkányi utca"/>
    <tag k="amenity" v="fuel"/>
    <tag k="brand" v="Avia"/>
    <tag k="email" v="robert.sebok@echo-sprint.hu"/>
    <tag k="facebook" v="https://www.facebook.com/AVIAHungary"/>
    <tag k="fuel:diesel" v="yes"/>
    <tag k="fuel:octane_95" v="yes"/>
    <tag k="fuel:octane_98" v="yes"/>
    <tag k="import" v="osm_poi_matchmaker"/>
    <tag k="name" v="Avia"/>
    <tag k="operator" v="AVIA Hungária Kft."/>
    <tag k="payment:mastercard" v="yes"/>
    <tag k="payment:visa" v="yes"/>
    <tag k="phone" v="+3672579008"/>
    <tag k="source:www.avia.hu:date" v="2018-11-03"/>
    <tag k="website" v="https://www.avia.hu/toltoallomas/?id=106"/>
    <tag k="youtube" v="https://www.youtube.com/channel/UCjvjkjf2RgmKBuTnKSXk-Rg"/>
  </node>
  <!-- Original coordinates: POINT (46.891059 18.061753) -->
  <!-- OSM <-> POI distance: None m-->
  <!-- Checker good: {not_in_water}; bad {}-->
  <!-- Original tags:  -->
  <!-- JOSM magic link: http://localhost:8111/load_object?new_layer=false&objects=n-65&addtags=%7Caddr%3Acity%3DSi%C3%B3fok%7Caddr%3Acountry%3DHU%7Caddr%3Ahousenumber%3D45%7Caddr%3Apostcode%3D8611%7Caddr%3Astreet%3DVak%20Botty%C3%A1n%20utca%7Camenity%3Dfuel%7Cbrand%3DAvia%7Cemail%3Dzsoniko%40avia.hu%7Cfacebook%3Dhttps%3A//www.facebook.com/AVIAHungary%7Cfuel%3Adiesel%3Dyes%7Cfuel%3Aoctane_95%3Dyes%7Cimport%3Dosm_poi_matchmaker%7Cname%3DAvia%7Coperator%3DAVIA%20Hung%C3%A1ria%20Kft.%7Cpayment%3Amastercard%3Dyes%7Cpayment%3Avisa%3Dyes%7Cphone%3D%2B36205037943%7Csource%3Awww.avia.hu%3Adate%3D2018-11-03%7Cwebsite%3Dhttps%3A//www.avia.hu/toltoallomas/%3Fid%3D99%7Cyoutube%3Dhttps%3A//www.youtube.com/channel/UCjvjkjf2RgmKBuTnKSXk-Rg -->
  <node action="modify" id="-65" lat="46.891059" lon="18.061753" timestamp="2018-11-03T14:29:45Z" uid="8635934" user="osm_poi_matchmaker" version="99999">
    <tag k="addr:city" v="Siófok"/>
    <tag k="addr:country" v="HU"/>
    <tag k="addr:housenumber" v="45"/>
    <tag k="addr:postcode" v="8611"/>
    <tag k="addr:street" v="Vak Bottyán utca"/>
    <tag k="amenity" v="fuel"/>
    <tag k="brand" v="Avia"/>
    <tag k="email" v="zsoniko@avia.hu"/>
    <tag k="facebook" v="https://www.facebook.com/AVIAHungary"/>
    <tag k="fuel:diesel" v="yes"/>
    <tag k="fuel:octane_95" v="yes"/>
    <tag k="import" v="osm_poi_matchmaker"/>
    <tag k="name" v="Avia"/>
    <tag k="operator" v="AVIA Hungária Kft."/>
    <tag k="payment:mastercard" v="yes"/>
    <tag k="payment:visa" v="yes"/>
    <tag k="phone" v="+36205037943"/>
    <tag k="source:www.avia.hu:date" v="2018-11-03"/>
    <tag k="website" v="https://www.avia.hu/toltoallomas/?id=99"/>
    <tag k="youtube" v="https://www.youtube.com/channel/UCjvjkjf2RgmKBuTnKSXk-Rg"/>
  </node>
  <node action="modify" id="5182231726" lat="46.6834588" lon="17.771358" timestamp="2017-10-22T16:40:45Z" uid="2077889" user="zsolt d" version="1"/>
  <node action="modify" id="5182231723" lat="46.6834915" lon="17.7715039" timestamp="2017-10-22T16:40:45Z" uid="2077889" user="zsolt d" version="1"/>
  <node action="modify" id="5182231724" lat="46.6833479" lon="17.7715723" timestamp="2017-10-22T16:40:45Z" uid="2077889" user="zsolt d" version="1"/>
  <node action="modify" id="5182231725" lat="46.6833152" lon="17.7714264" timestamp="2017-10-22T16:40:45Z" uid="2077889" user="zsolt d" version="1"/>
  <node action="modify" id="5182231726" lat="46.6834588" lon="17.771358" timestamp="2017-10-22T16:40:45Z" uid="2077889" user="zsolt d" version="1"/>
  <!-- OSM link: https://osm.org/way/534319582 -->
  <!-- Original coordinates: POINT (46.6834 17.772239) -->
  <!-- OSM <-> POI distance: 51.18709167 m-->
  <!-- Checker good: {not_in_water}; bad {}-->
  <!-- Original tags: 'amenity':'fuel'; 'building':'yes';  -->
  <!-- JOSM magic link: http://localhost:8111/load_object?new_layer=false&objects=w534319582&addtags=%7Caddr%3Acity%3DSomogyt%C3%BAr%7Caddr%3Aconscriptionnumber%3D09/4%7Caddr%3Acountry%3DHU%7Caddr%3Apostcode%3D8683%7Camenity%3Dfuel%7Cbrand%3DAvia%7Cbuilding%3Dyes%7Cemail%3Dzsoniko%40avia.hu%7Cfacebook%3Dhttps%3A//www.facebook.com/AVIAHungary%7Cfuel%3Adiesel%3Dyes%7Cfuel%3Aoctane_95%3Dyes%7Cimport%3Dosm_poi_matchmaker%7Cname%3DAvia%7Coperator%3DAVIA%20Hung%C3%A1ria%20Kft.%7Cpayment%3Amastercard%3Dyes%7Cpayment%3Avisa%3Dyes%7Cphone%3D%2B36205730768%7Csource%3Awww.avia.hu%3Adate%3D2018-11-03%7Cwebsite%3Dhttps%3A//www.avia.hu/toltoallomas/%3Fid%3D112%7Cyoutube%3Dhttps%3A//www.youtube.com/channel/UCjvjkjf2RgmKBuTnKSXk-Rg -->
  <way action="modify" id="534319582" timestamp="2017-10-22T18:41:09Z" uid="8635934" user="osm_poi_matchmaker" version="1">
    <nd ref="5182231726"/>
    <nd ref="5182231723"/>
    <nd ref="5182231724"/>
    <nd ref="5182231725"/>
    <nd ref="5182231726"/>
    <tag k="addr:city" v="Somogytúr"/>
    <tag k="addr:conscriptionnumber" v="09/4"/>
    <tag k="addr:country" v="HU"/>
    <tag k="addr:postcode" v="8683"/>
    <tag k="amenity" v="fuel"/>
    <tag k="brand" v="Avia"/>
    <tag k="building" v="yes"/>
    <tag k="email" v="zsoniko@avia.hu"/>
    <tag k="facebook" v="https://www.facebook.com/AVIAHungary"/>
    <tag k="fuel:diesel" v="yes"/>
    <tag k="fuel:octane_95" v="yes"/>
    <tag k="import" v="osm_poi_matchmaker"/>
    <tag k="name" v="Avia"/>
    <tag k="operator" v="AVIA Hungária Kft."/>
    <tag k="payment:mastercard" v="yes"/>
    <tag k="payment:visa" v="yes"/>
    <tag k="phone" v="+36205730768"/>
    <tag k="source:www.avia.hu:date" v="2018-11-03"/>
    <tag k="website" v="https://www.avia.hu/toltoallomas/?id=112"/>
    <tag k="youtube" v="https://www.youtube.com/channel/UCjvjkjf2RgmKBuTnKSXk-Rg"/>
  </way>
  <!-- Original coordinates: POINT (47.08034 18.22582) -->
  <!-- OSM <-> POI distance: None m-->
  <!-- Checker good: {not_in_water}; bad {}-->
  <!-- Original tags:  -->
  <!-- JOSM magic link: http://localhost:8111/load_object?new_layer=false&objects=n-67&addtags=%7Caddr%3Acity%3DSzabadbatty%C3%A1n%7Caddr%3Aconscriptionnumber%3D09/5%7Caddr%3Acountry%3DHU%7Caddr%3Apostcode%3D8157%7Camenity%3Dfuel%7Cbrand%3DAvia%7Cemail%3Dkftroyap%40gmail.com%7Cfacebook%3Dhttps%3A//www.facebook.com/AVIAHungary%7Cfuel%3Adiesel%3Dyes%7Cfuel%3Aoctane_95%3Dyes%7Cimport%3Dosm_poi_matchmaker%7Cname%3DAvia%7Coperator%3DAVIA%20Hung%C3%A1ria%20Kft.%7Cpayment%3Amastercard%3Dyes%7Cpayment%3Avisa%3Dyes%7Cphone%3D%2B3622363415%7Csource%3Awww.avia.hu%3Adate%3D2018-11-03%7Cwebsite%3Dhttps%3A//www.avia.hu/toltoallomas/%3Fid%3D103%7Cyoutube%3Dhttps%3A//www.youtube.com/channel/UCjvjkjf2RgmKBuTnKSXk-Rg -->
  <node action="modify" id="-67" lat="47.08034" lon="18.22582" timestamp="2018-11-03T14:29:45Z" uid="8635934" user="osm_poi_matchmaker" version="99999">
    <tag k="addr:city" v="Szabadbattyán"/>
    <tag k="addr:conscriptionnumber" v="09/5"/>
    <tag k="addr:country" v="HU"/>
    <tag k="addr:postcode" v="8157"/>
    <tag k="amenity" v="fuel"/>
    <tag k="brand" v="Avia"/>
    <tag k="email" v="kftroyap@gmail.com"/>
    <tag k="facebook" v="https://www.facebook.com/AVIAHungary"/>
    <tag k="fuel:diesel" v="yes"/>
    <tag k="fuel:octane_95" v="yes"/>
    <tag k="import" v="osm_poi_matchmaker"/>
    <tag k="name" v="Avia"/>
    <tag k="operator" v="AVIA Hungária Kft."/>
    <tag k="payment:mastercard" v="yes"/>
    <tag k="payment:visa" v="yes"/>
    <tag k="phone" v="+3622363415"/>
    <tag k="source:www.avia.hu:date" v="2018-11-03"/>
    <tag k="website" v="https://www.avia.hu/toltoallomas/?id=103"/>
    <tag k="youtube" v="https://www.youtube.com/channel/UCjvjkjf2RgmKBuTnKSXk-Rg"/>
  </node>
  <!-- OSM link: https://osm.org/node/320586750 -->
  <!-- Original coordinates: POINT (47.321874 18.784955) -->
  <!-- OSM <-> POI distance: 42.68424398 m-->
  <!-- Checker good: {not_in_water}; bad {}-->
  <!-- Original tags:  -->
  <!-- JOSM magic link: http://localhost:8111/load_object?new_layer=false&objects=n320586750&addtags=%7Caddr%3Acity%3DSzab%C3%B3%20Brigitta%7Caddr%3Acountry%3DHU%7Caddr%3Apostcode%3D2462%7Camenity%3Dfuel%7Cbrand%3DAvia%7Cemail%3Dorszagkft%40t-online.hu%7Cfacebook%3Dhttps%3A//www.facebook.com/AVIAHungary%7Cfuel%3Adiesel%3Dyes%7Cfuel%3Aoctane_95%3Dyes%7Cimport%3Dosm_poi_matchmaker%7Cname%3DAvia%7Coperator%3DAVIA%20Hung%C3%A1ria%20Kft.%7Cpayment%3Amastercard%3Dyes%7Cpayment%3Avisa%3Dyes%7Cphone%3D%2B3622574011%7Csource%3Awww.avia.hu%3Adate%3D2018-11-03%7Cwebsite%3Dhttps%3A//www.avia.hu/toltoallomas/%3Fid%3D120%7Cyoutube%3Dhttps%3A//www.youtube.com/channel/UCjvjkjf2RgmKBuTnKSXk-Rg -->
  <node action="modify" id="320586750" lat="47.3222568949184" lon="18.7849952973851" timestamp="2018-03-31T09:23:29Z" uid="8635934" user="osm_poi_matchmaker" version="4">
    <tag k="addr:city" v="Szabó Brigitta"/>
    <tag k="addr:country" v="HU"/>
    <tag k="addr:postcode" v="2462"/>
    <tag k="amenity" v="fuel"/>
    <tag k="brand" v="Avia"/>
    <tag k="email" v="orszagkft@t-online.hu"/>
    <tag k="facebook" v="https://www.facebook.com/AVIAHungary"/>
    <tag k="fuel:diesel" v="yes"/>
    <tag k="fuel:octane_95" v="yes"/>
    <tag k="import" v="osm_poi_matchmaker"/>
    <tag k="name" v="Avia"/>
    <tag k="operator" v="AVIA Hungária Kft."/>
    <tag k="payment:mastercard" v="yes"/>
    <tag k="payment:visa" v="yes"/>
    <tag k="phone" v="+3622574011"/>
    <tag k="source:www.avia.hu:date" v="2018-11-03"/>
    <tag k="website" v="https://www.avia.hu/toltoallomas/?id=120"/>
    <tag k="youtube" v="https://www.youtube.com/channel/UCjvjkjf2RgmKBuTnKSXk-Rg"/>
  </node>
  <!-- OSM link: https://osm.org/node/281002225 -->
  <!-- Original coordinates: POINT (46.27441 18.36981) -->
  <!-- OSM <-> POI distance: 13.69848198 m-->
  <!-- Checker good: {not_in_water}; bad {}-->
  <!-- Original tags: 'amenity':'fuel'; 'brand':'Agip'; 'name':'Agip'; 'website':'http://www.eni.com';  -->
  <!-- JOSM magic link: http://localhost:8111/load_object?new_layer=false&objects=n281002225&addtags=%7Caddr%3Acity%3DSz%C3%A1szv%C3%A1r%7Caddr%3Aconscriptionnumber%3D1171/2%7Caddr%3Acountry%3DHU%7Caddr%3Apostcode%3D7349%7Caddr%3Astreet%3DV%C3%A1s%C3%A1rt%C3%A9r%20utca%7Camenity%3Dfuel%7Cbrand%3DAvia%7Cemail%3Dm.coop%40tolna.net%7Cfacebook%3Dhttps%3A//www.facebook.com/AVIAHungary%7Cfuel%3Adiesel%3Dyes%7Cfuel%3Aoctane_95%3Dyes%7Cimport%3Dosm_poi_matchmaker%7Cname%3DAvia%7Coperator%3DAVIA%20Hung%C3%A1ria%20Kft.%7Cpayment%3Amastercard%3Dyes%7Cpayment%3Avisa%3Dyes%7Cphone%3D%2B36306309667%7Csource%3Awww.avia.hu%3Adate%3D2018-11-03%7Cwebsite%3Dhttps%3A//www.avia.hu/toltoallomas/%3Fid%3D26%7Cyoutube%3Dhttps%3A//www.youtube.com/channel/UCjvjkjf2RgmKBuTnKSXk-Rg -->
  <node action="modify" id="281002225" lat="46.2742903949658" lon="18.3697672974429" timestamp="2015-03-15T09:12:13Z" uid="8635934" user="osm_poi_matchmaker" version="2">
    <tag k="addr:city" v="Szászvár"/>
    <tag k="addr:conscriptionnumber" v="1171/2"/>
    <tag k="addr:country" v="HU"/>
    <tag k="addr:postcode" v="7349"/>
    <tag k="addr:street" v="Vásártér utca"/>
    <tag k="amenity" v="fuel"/>
    <tag k="brand" v="Avia"/>
    <tag k="email" v="m.coop@tolna.net"/>
    <tag k="facebook" v="https://www.facebook.com/AVIAHungary"/>
    <tag k="fuel:diesel" v="yes"/>
    <tag k="fuel:octane_95" v="yes"/>
    <tag k="import" v="osm_poi_matchmaker"/>
    <tag k="name" v="Avia"/>
    <tag k="operator" v="AVIA Hungária Kft."/>
    <tag k="payment:mastercard" v="yes"/>
    <tag k="payment:visa" v="yes"/>
    <tag k="phone" v="+36306309667"/>
    <tag k="source:www.avia.hu:date" v="2018-11-03"/>
    <tag k="website" v="https://www.avia.hu/toltoallomas/?id=26"/>
    <tag k="youtube" v="https://www.youtube.com/channel/UCjvjkjf2RgmKBuTnKSXk-Rg"/>
  </node>
  <!-- Original coordinates: POINT (46.3498314 20.0424348) -->
  <!-- OSM <-> POI distance: None m-->
  <!-- Checker good: {not_in_water}; bad {}-->
  <!-- Original tags:  -->
  <!-- JOSM magic link: http://localhost:8111/load_object?new_layer=false&objects=n-70&addtags=%7Caddr%3Acity%3DSzatymaz%7Caddr%3Aconscriptionnumber%3D0261/4%7Caddr%3Acountry%3DHU%7Caddr%3Ahousenumber%3D130%7Caddr%3Apostcode%3D6763%7Caddr%3Astreet%3DIV.%20ker%C3%BClet%7Camenity%3Dfuel%7Cbrand%3DAvia%7Cemail%3Dszatymazibenzinkut%40gmail.com%7Cfacebook%3Dhttps%3A//www.facebook.com/AVIAHungary%7Cfuel%3Adiesel%3Dyes%7Cfuel%3Aoctane_95%3Dyes%7Cimport%3Dosm_poi_matchmaker%7Cname%3DAvia%7Coperator%3DAVIA%20Hung%C3%A1ria%20Kft.%7Cpayment%3Amastercard%3Dyes%7Cpayment%3Avisa%3Dyes%7Cphone%3D%2B306558730%7Csource%3Awww.avia.hu%3Adate%3D2018-11-03%7Cwebsite%3Dhttps%3A//www.avia.hu/toltoallomas/%3Fid%3D91%7Cyoutube%3Dhttps%3A//www.youtube.com/channel/UCjvjkjf2RgmKBuTnKSXk-Rg -->
  <node action="modify" id="-70" lat="46.3498314" lon="20.0424348" timestamp="2018-11-03T14:29:45Z" uid="8635934" user="osm_poi_matchmaker" version="99999">
    <tag k="addr:city" v="Szatymaz"/>
    <tag k="addr:conscriptionnumber" v="0261/4"/>
    <tag k="addr:country" v="HU"/>
    <tag k="addr:housenumber" v="130"/>
    <tag k="addr:postcode" v="6763"/>
    <tag k="addr:street" v="IV. kerület"/>
    <tag k="amenity" v="fuel"/>
    <tag k="brand" v="Avia"/>
    <tag k="email" v="szatymazibenzinkut@gmail.com"/>
    <tag k="facebook" v="https://www.facebook.com/AVIAHungary"/>
    <tag k="fuel:diesel" v="yes"/>
    <tag k="fuel:octane_95" v="yes"/>
    <tag k="import" v="osm_poi_matchmaker"/>
    <tag k="name" v="Avia"/>
    <tag k="operator" v="AVIA Hungária Kft."/>
    <tag k="payment:mastercard" v="yes"/>
    <tag k="payment:visa" v="yes"/>
    <tag k="phone" v="+306558730"/>
    <tag k="source:www.avia.hu:date" v="2018-11-03"/>
    <tag k="website" v="https://www.avia.hu/toltoallomas/?id=91"/>
    <tag k="youtube" v="https://www.youtube.com/channel/UCjvjkjf2RgmKBuTnKSXk-Rg"/>
  </node>
  <!-- OSM link: https://osm.org/node/2351098919 -->
  <!-- Original coordinates: POINT (46.260339 20.1075037) -->
  <!-- OSM <-> POI distance: 206.95804658 m-->
  <!-- Checker good: {not_in_water}; bad {}-->
  <!-- Original tags: 'amenity':'fuel'; 'brand':'AVIA'; 'name':'AVIA'; 'website':'http://www.avia.hu';  -->
  <!-- JOSM magic link: http://localhost:8111/load_object?new_layer=false&objects=n2351098919&addtags=%7Caddr%3Acity%3DSzeged%7Caddr%3Acountry%3DHU%7Caddr%3Ahousenumber%3D14%7Caddr%3Apostcode%3D6728%7Caddr%3Astreet%3DFon%C3%B3gy%C3%A1ri%20%C3%BAt%7Camenity%3Dfuel%7Cbrand%3DAvia%7Cemail%3Dbenzinkut2%40invitel.hu%7Cfacebook%3Dhttps%3A//www.facebook.com/AVIAHungary%7Cfuel%3Adiesel%3Dyes%7Cfuel%3Aoctane_95%3Dyes%7Cimport%3Dosm_poi_matchmaker%7Cname%3DAvia%7Coperator%3DAVIA%20Hung%C3%A1ria%20Kft.%7Cpayment%3Amastercard%3Dyes%7Cpayment%3Avisa%3Dyes%7Cphone%3D%2B36302164349%7Csource%3Awww.avia.hu%3Adate%3D2018-11-03%7Cwebsite%3Dhttps%3A//www.avia.hu/toltoallomas/%3Fid%3D59%7Cyoutube%3Dhttps%3A//www.youtube.com/channel/UCjvjkjf2RgmKBuTnKSXk-Rg -->
  <node action="modify" id="2351098919" lat="46.2616108949664" lon="20.1094690972007" timestamp="2015-03-15T10:49:59Z" uid="8635934" user="osm_poi_matchmaker" version="2">
    <tag k="addr:city" v="Szeged"/>
    <tag k="addr:country" v="HU"/>
    <tag k="addr:housenumber" v="14"/>
    <tag k="addr:postcode" v="6728"/>
    <tag k="addr:street" v="Fonógyári út"/>
    <tag k="amenity" v="fuel"/>
    <tag k="brand" v="Avia"/>
    <tag k="email" v="benzinkut2@invitel.hu"/>
    <tag k="facebook" v="https://www.facebook.com/AVIAHungary"/>
    <tag k="fuel:diesel" v="yes"/>
    <tag k="fuel:octane_95" v="yes"/>
    <tag k="import" v="osm_poi_matchmaker"/>
    <tag k="name" v="Avia"/>
    <tag k="operator" v="AVIA Hungária Kft."/>
    <tag k="payment:mastercard" v="yes"/>
    <tag k="payment:visa" v="yes"/>
    <tag k="phone" v="+36302164349"/>
    <tag k="source:www.avia.hu:date" v="2018-11-03"/>
    <tag k="website" v="https://www.avia.hu/toltoallomas/?id=59"/>
    <tag k="youtube" v="https://www.youtube.com/channel/UCjvjkjf2RgmKBuTnKSXk-Rg"/>
  </node>
  <!-- Original coordinates: POINT (47.67836984531385 19.06017422676086) -->
  <!-- OSM <-> POI distance: None m-->
  <!-- Checker good: {not_in_water}; bad {}-->
  <!-- Original tags:  -->
  <!-- JOSM magic link: http://localhost:8111/load_object?new_layer=false&objects=n-72&addtags=%7Caddr%3Acity%3DSzentendre%7Caddr%3Acountry%3DHU%7Caddr%3Apostcode%3D2000%7Camenity%3Dfuel%7Cbrand%3DAvia%7Cemail%3Dpetroloil73%40gmail.com%7Cfacebook%3Dhttps%3A//www.facebook.com/AVIAHungary%7Cfuel%3Adiesel%3Dyes%7Cfuel%3Aoctane_95%3Dyes%7Cimport%3Dosm_poi_matchmaker%7Cname%3DAvia%7Coperator%3DAVIA%20Hung%C3%A1ria%20Kft.%7Cpayment%3Amastercard%3Dyes%7Cpayment%3Avisa%3Dyes%7Cphone%3D%2B3626302097%7Csource%3Awww.avia.hu%3Adate%3D2018-11-03%7Cwebsite%3Dhttps%3A//www.avia.hu/toltoallomas/%3Fid%3D90%7Cyoutube%3Dhttps%3A//www.youtube.com/channel/UCjvjkjf2RgmKBuTnKSXk-Rg -->
  <node action="modify" id="-72" lat="47.67836984531385" lon="19.060174226760864" timestamp="2018-11-03T14:29:45Z" uid="8635934" user="osm_poi_matchmaker" version="99999">
    <tag k="addr:city" v="Szentendre"/>
    <tag k="addr:country" v="HU"/>
    <tag k="addr:postcode" v="2000"/>
    <tag k="amenity" v="fuel"/>
    <tag k="brand" v="Avia"/>
    <tag k="email" v="petroloil73@gmail.com"/>
    <tag k="facebook" v="https://www.facebook.com/AVIAHungary"/>
    <tag k="fuel:diesel" v="yes"/>
    <tag k="fuel:octane_95" v="yes"/>
    <tag k="import" v="osm_poi_matchmaker"/>
    <tag k="name" v="Avia"/>
    <tag k="operator" v="AVIA Hungária Kft."/>
    <tag k="payment:mastercard" v="yes"/>
    <tag k="payment:visa" v="yes"/>
    <tag k="phone" v="+3626302097"/>
    <tag k="source:www.avia.hu:date" v="2018-11-03"/>
    <tag k="website" v="https://www.avia.hu/toltoallomas/?id=90"/>
    <tag k="youtube" v="https://www.youtube.com/channel/UCjvjkjf2RgmKBuTnKSXk-Rg"/>
  </node>
  <!-- OSM link: https://osm.org/node/3471869138 -->
  <!-- Original coordinates: POINT (47.211575 16.618967) -->
  <!-- OSM <-> POI distance: 213.65434348 m-->
  <!-- Checker good: {not_in_water}; bad {}-->
  <!-- Original tags: 'amenity':'fuel'; 'name':'Avia'; 'source':'turistautak.hu'; 'source:date':'2011-09-06'; 'url':'http://turistautak.hu/poi.php?id=17126';  -->
  <!-- JOSM magic link: http://localhost:8111/load_object?new_layer=false&objects=n3471869138&addtags=%7Caddr%3Acity%3DSzombathely%7Caddr%3Acountry%3DHU%7Caddr%3Ahousenumber%3D92%7Caddr%3Apostcode%3D9700%7Caddr%3Astreet%3DK%C3%B6rmendi%20%C3%BAt%7Camenity%3Dfuel%7Cbrand%3DAvia%7Cemail%3Dvolltank%40freemail.hu%7Cfacebook%3Dhttps%3A//www.facebook.com/AVIAHungary%7Cfuel%3Adiesel%3Dyes%7Cfuel%3Aoctane_95%3Dyes%7Cimport%3Dosm_poi_matchmaker%7Cname%3DAvia%7Coperator%3DAVIA%20Hung%C3%A1ria%20Kft.%7Cpayment%3Amastercard%3Dyes%7Cpayment%3Avisa%3Dyes%7Cphone%3D%2B36209961603%7Csource%3Dturistautak.hu%7Csource%3Adate%3D2011-09-06%7Csource%3Awww.avia.hu%3Adate%3D2018-11-03%7Curl%3Dhttp%3A//turistautak.hu/poi.php%3Fid%3D17126%7Cwebsite%3Dhttps%3A//www.avia.hu/toltoallomas/%3Fid%3D23%7Cyoutube%3Dhttps%3A//www.youtube.com/channel/UCjvjkjf2RgmKBuTnKSXk-Rg -->
  <node action="modify" id="3471869138" lat="47.2134859949231" lon="16.6192614976866" timestamp="2016-02-22T20:12:52Z" uid="8635934" user="osm_poi_matchmaker" version="2">
    <tag k="addr:city" v="Szombathely"/>
    <tag k="addr:country" v="HU"/>
    <tag k="addr:housenumber" v="92"/>
    <tag k="addr:postcode" v="9700"/>
    <tag k="addr:street" v="Körmendi út"/>
    <tag k="amenity" v="fuel"/>
    <tag k="brand" v="Avia"/>
    <tag k="email" v="volltank@freemail.hu"/>
    <tag k="facebook" v="https://www.facebook.com/AVIAHungary"/>
    <tag k="fuel:diesel" v="yes"/>
    <tag k="fuel:octane_95" v="yes"/>
    <tag k="import" v="osm_poi_matchmaker"/>
    <tag k="name" v="Avia"/>
    <tag k="operator" v="AVIA Hungária Kft."/>
    <tag k="payment:mastercard" v="yes"/>
    <tag k="payment:visa" v="yes"/>
    <tag k="phone" v="+36209961603"/>
    <tag k="source" v="turistautak.hu"/>
    <tag k="source:date" v="2011-09-06"/>
    <tag k="source:www.avia.hu:date" v="2018-11-03"/>
    <tag k="url" v="http://turistautak.hu/poi.php?id=17126"/>
    <tag k="website" v="https://www.avia.hu/toltoallomas/?id=23"/>
    <tag k="youtube" v="https://www.youtube.com/channel/UCjvjkjf2RgmKBuTnKSXk-Rg"/>
  </node>
  <!-- Original coordinates: POINT (48.0838203 21.1304792) -->
  <!-- OSM <-> POI distance: None m-->
  <!-- Checker good: {not_in_water}; bad {}-->
  <!-- Original tags:  -->
  <!-- JOSM magic link: http://localhost:8111/load_object?new_layer=false&objects=n-74&addtags=%7Caddr%3Acity%3DTaktahark%C3%A1ny%7Caddr%3Acountry%3DHU%7Caddr%3Ahousenumber%3D10%7Caddr%3Apostcode%3D3922%7Caddr%3Astreet%3DV%C3%B6r%C3%B6smarty%20utca%7Camenity%3Dfuel%7Cbrand%3DAvia%7Cemail%3Dtaktakut11%40gmail.com%7Cfacebook%3Dhttps%3A//www.facebook.com/AVIAHungary%7Cfuel%3Adiesel%3Dyes%7Cfuel%3Aoctane_95%3Dyes%7Cimport%3Dosm_poi_matchmaker%7Cname%3DAvia%7Coperator%3DAVIA%20Hung%C3%A1ria%20Kft.%7Cpayment%3Amastercard%3Dyes%7Cpayment%3Avisa%3Dyes%7Cphone%3D%2B3647378054%7Csource%3Awww.avia.hu%3Adate%3D2018-11-03%7Cwebsite%3Dhttps%3A//www.avia.hu/toltoallomas/%3Fid%3D134%7Cyoutube%3Dhttps%3A//www.youtube.com/channel/UCjvjkjf2RgmKBuTnKSXk-Rg -->
  <node action="modify" id="-74" lat="48.0838203" lon="21.1304792" timestamp="2018-11-03T14:29:45Z" uid="8635934" user="osm_poi_matchmaker" version="99999">
    <tag k="addr:city" v="Taktaharkány"/>
    <tag k="addr:country" v="HU"/>
    <tag k="addr:housenumber" v="10"/>
    <tag k="addr:postcode" v="3922"/>
    <tag k="addr:street" v="Vörösmarty utca"/>
    <tag k="amenity" v="fuel"/>
    <tag k="brand" v="Avia"/>
    <tag k="email" v="taktakut11@gmail.com"/>
    <tag k="facebook" v="https://www.facebook.com/AVIAHungary"/>
    <tag k="fuel:diesel" v="yes"/>
    <tag k="fuel:octane_95" v="yes"/>
    <tag k="import" v="osm_poi_matchmaker"/>
    <tag k="name" v="Avia"/>
    <tag k="operator" v="AVIA Hungária Kft."/>
    <tag k="payment:mastercard" v="yes"/>
    <tag k="payment:visa" v="yes"/>
    <tag k="phone" v="+3647378054"/>
    <tag k="source:www.avia.hu:date" v="2018-11-03"/>
    <tag k="website" v="https://www.avia.hu/toltoallomas/?id=134"/>
    <tag k="youtube" v="https://www.youtube.com/channel/UCjvjkjf2RgmKBuTnKSXk-Rg"/>
  </node>
  <!-- OSM link: https://osm.org/node/1461602811 -->
  <!-- Original coordinates: POINT (48.1395876 21.3350751) -->
  <!-- OSM <-> POI distance: 140.63112681 m-->
  <!-- Checker good: {not_in_water}; bad {}-->
  <!-- Original tags: 'amenity':'fuel'; 'brand':'AVIA'; 'fuel:diesel':'yes'; 'fuel:e85':'yes'; 'fuel:octane_95':'yes'; 'name':'AVIA'; 'website':'http://www.avia.hu';  -->
  <!-- JOSM magic link: http://localhost:8111/load_object?new_layer=false&objects=n1461602811&addtags=%7Caddr%3Acity%3DTarcal%7Caddr%3Aconscriptionnumber%3D12/24%7Caddr%3Acountry%3DHU%7Caddr%3Ahousenumber%3D35%7Caddr%3Apostcode%3D3915%7Caddr%3Astreet%3DSport%20t%C3%A9r%7Camenity%3Dfuel%7Cbrand%3DAvia%7Cemail%3Davia%40avia.hu%7Cfacebook%3Dhttps%3A//www.facebook.com/AVIAHungary%7Cfuel%3Adiesel%3Dyes%7Cfuel%3Ae85%3Dyes%7Cfuel%3Aoctane_95%3Dyes%7Cimport%3Dosm_poi_matchmaker%7Cname%3DAvia%7Coperator%3DAVIA%20Hung%C3%A1ria%20Kft.%7Cpayment%3Amastercard%3Dyes%7Cpayment%3Avisa%3Dyes%7Cphone%3D%2B3647580029%7Csource%3Awww.avia.hu%3Adate%3D2018-11-03%7Cwebsite%3Dhttps%3A//www.avia.hu/toltoallomas/%3Fid%3D65%7Cyoutube%3Dhttps%3A//www.youtube.com/channel/UCjvjkjf2RgmKBuTnKSXk-Rg -->
  <node action="modify" id="1461602811" lat="48.1406988948846" lon="21.33597989703" timestamp="2015-03-15T10:50:01Z" uid="8635934" user="osm_poi_matchmaker" version="3">
    <tag k="addr:city" v="Tarcal"/>
    <tag k="addr:conscriptionnumber" v="12/24"/>
    <tag k="addr:country" v="HU"/>
    <tag k="addr:housenumber" v="35"/>
    <tag k="addr:postcode" v="3915"/>
    <tag k="addr:street" v="Sport tér"/>
    <tag k="amenity" v="fuel"/>
    <tag k="brand" v="Avia"/>
    <tag k="email" v="avia@avia.hu"/>
    <tag k="facebook" v="https://www.facebook.com/AVIAHungary"/>
    <tag k="fuel:diesel" v="yes"/>
    <tag k="fuel:e85" v="yes"/>
    <tag k="fuel:octane_95" v="yes"/>
    <tag k="import" v="osm_poi_matchmaker"/>
    <tag k="name" v="Avia"/>
    <tag k="operator" v="AVIA Hungária Kft."/>
    <tag k="payment:mastercard" v="yes"/>
    <tag k="payment:visa" v="yes"/>
    <tag k="phone" v="+3647580029"/>
    <tag k="source:www.avia.hu:date" v="2018-11-03"/>
    <tag k="website" v="https://www.avia.hu/toltoallomas/?id=65"/>
    <tag k="youtube" v="https://www.youtube.com/channel/UCjvjkjf2RgmKBuTnKSXk-Rg"/>
  </node>
  <!-- Original coordinates: POINT (46.436111 18.769444) -->
  <!-- OSM <-> POI distance: None m-->
  <!-- Checker good: {not_in_water}; bad {}-->
  <!-- Original tags:  -->
  <!-- JOSM magic link: http://localhost:8111/load_object?new_layer=false&objects=n-76&addtags=%7Caddr%3Acity%3DTolna%7Caddr%3Aconscriptionnumber%3D077/4%7Caddr%3Acountry%3DHU%7Caddr%3Apostcode%3D7130%7Camenity%3Dfuel%7Cbrand%3DAvia%7Cemail%3Daviatolna%40gmail.com%7Cfacebook%3Dhttps%3A//www.facebook.com/AVIAHungary%7Cfuel%3Adiesel%3Dyes%7Cfuel%3Aoctane_95%3Dyes%7Cimport%3Dosm_poi_matchmaker%7Cname%3DAvia%7Coperator%3DAVIA%20Hung%C3%A1ria%20Kft.%7Cpayment%3Amastercard%3Dyes%7Cpayment%3Avisa%3Dyes%7Cphone%3D%2B36704230066%7Csource%3Awww.avia.hu%3Adate%3D2018-11-03%7Cwebsite%3Dhttps%3A//www.avia.hu/toltoallomas/%3Fid%3D104%7Cyoutube%3Dhttps%3A//www.youtube.com/channel/UCjvjkjf2RgmKBuTnKSXk-Rg -->
  <node action="modify" id="-76" lat="46.436111" lon="18.769444" timestamp="2018-11-03T14:29:45Z" uid="8635934" user="osm_poi_matchmaker" version="99999">
    <tag k="addr:city" v="Tolna"/>
    <tag k="addr:conscriptionnumber" v="077/4"/>
    <tag k="addr:country" v="HU"/>
    <tag k="addr:postcode" v="7130"/>
    <tag k="amenity" v="fuel"/>
    <tag k="brand" v="Avia"/>
    <tag k="email" v="aviatolna@gmail.com"/>
    <tag k="facebook" v="https://www.facebook.com/AVIAHungary"/>
    <tag k="fuel:diesel" v="yes"/>
    <tag k="fuel:octane_95" v="yes"/>
    <tag k="import" v="osm_poi_matchmaker"/>
    <tag k="name" v="Avia"/>
    <tag k="operator" v="AVIA Hungária Kft."/>
    <tag k="payment:mastercard" v="yes"/>
    <tag k="payment:visa" v="yes"/>
    <tag k="phone" v="+36704230066"/>
    <tag k="source:www.avia.hu:date" v="2018-11-03"/>
    <tag k="website" v="https://www.avia.hu/toltoallomas/?id=104"/>
    <tag k="youtube" v="https://www.youtube.com/channel/UCjvjkjf2RgmKBuTnKSXk-Rg"/>
  </node>
  <!-- Original coordinates: POINT (47.3427698 18.7448036) -->
  <!-- OSM <-> POI distance: None m-->
  <!-- Checker good: {not_in_water}; bad {}-->
  <!-- Original tags:  -->
  <!-- JOSM magic link: http://localhost:8111/load_object?new_layer=false&objects=n-77&addtags=%7Caddr%3Acity%3DTordas%7Caddr%3Acountry%3DHU%7Caddr%3Apostcode%3D2463%7Camenity%3Dfuel%7Cbrand%3DAvia%7Cemail%3Dorszagkft%40t-online.hu%7Cfacebook%3Dhttps%3A//www.facebook.com/AVIAHungary%7Cfuel%3Adiesel%3Dyes%7Cfuel%3Aoctane_95%3Dyes%7Cimport%3Dosm_poi_matchmaker%7Cname%3DAvia%7Coperator%3DAVIA%20Hung%C3%A1ria%20Kft.%7Cpayment%3Amastercard%3Dyes%7Cpayment%3Avisa%3Dyes%7Cphone%3D%2B36306803817%7Csource%3Awww.avia.hu%3Adate%3D2018-11-03%7Cwebsite%3Dhttps%3A//www.avia.hu/toltoallomas/%3Fid%3D133%7Cyoutube%3Dhttps%3A//www.youtube.com/channel/UCjvjkjf2RgmKBuTnKSXk-Rg -->
  <node action="modify" id="-77" lat="47.3427698" lon="18.7448036" timestamp="2018-11-03T14:29:45Z" uid="8635934" user="osm_poi_matchmaker" version="99999">
    <tag k="addr:city" v="Tordas"/>
    <tag k="addr:country" v="HU"/>
    <tag k="addr:postcode" v="2463"/>
    <tag k="amenity" v="fuel"/>
    <tag k="brand" v="Avia"/>
    <tag k="email" v="orszagkft@t-online.hu"/>
    <tag k="facebook" v="https://www.facebook.com/AVIAHungary"/>
    <tag k="fuel:diesel" v="yes"/>
    <tag k="fuel:octane_95" v="yes"/>
    <tag k="import" v="osm_poi_matchmaker"/>
    <tag k="name" v="Avia"/>
    <tag k="operator" v="AVIA Hungária Kft."/>
    <tag k="payment:mastercard" v="yes"/>
    <tag k="payment:visa" v="yes"/>
    <tag k="phone" v="+36306803817"/>
    <tag k="source:www.avia.hu:date" v="2018-11-03"/>
    <tag k="website" v="https://www.avia.hu/toltoallomas/?id=133"/>
    <tag k="youtube" v="https://www.youtube.com/channel/UCjvjkjf2RgmKBuTnKSXk-Rg"/>
  </node>
  <!-- Original coordinates: POINT (48.006944 22.156944) -->
  <!-- OSM <-> POI distance: None m-->
  <!-- Checker good: {not_in_water}; bad {}-->
  <!-- Original tags:  -->
  <!-- JOSM magic link: http://localhost:8111/load_object?new_layer=false&objects=n-78&addtags=%7Caddr%3Acity%3DVaja%7Caddr%3Acountry%3DHU%7Caddr%3Ahousenumber%3D2%7Caddr%3Apostcode%3D4562%7Caddr%3Astreet%3DRohodi%20utca%7Camenity%3Dfuel%7Cbrand%3DAvia%7Cemail%3Davia%40avia.hu%7Cfacebook%3Dhttps%3A//www.facebook.com/AVIAHungary%7Cfuel%3Adiesel%3Dyes%7Cfuel%3Aoctane_95%3Dyes%7Cimport%3Dosm_poi_matchmaker%7Cname%3DAvia%7Coperator%3DAVIA%20Hung%C3%A1ria%20Kft.%7Cpayment%3Amastercard%3Dyes%7Cpayment%3Avisa%3Dyes%7Cphone%3D%2B3644385320%7Csource%3Awww.avia.hu%3Adate%3D2018-11-03%7Cwebsite%3Dhttps%3A//www.avia.hu/toltoallomas/%3Fid%3D45%7Cyoutube%3Dhttps%3A//www.youtube.com/channel/UCjvjkjf2RgmKBuTnKSXk-Rg -->
  <node action="modify" id="-78" lat="48.006944" lon="22.156944" timestamp="2018-11-03T14:29:45Z" uid="8635934" user="osm_poi_matchmaker" version="99999">
    <tag k="addr:city" v="Vaja"/>
    <tag k="addr:country" v="HU"/>
    <tag k="addr:housenumber" v="2"/>
    <tag k="addr:postcode" v="4562"/>
    <tag k="addr:street" v="Rohodi utca"/>
    <tag k="amenity" v="fuel"/>
    <tag k="brand" v="Avia"/>
    <tag k="email" v="avia@avia.hu"/>
    <tag k="facebook" v="https://www.facebook.com/AVIAHungary"/>
    <tag k="fuel:diesel" v="yes"/>
    <tag k="fuel:octane_95" v="yes"/>
    <tag k="import" v="osm_poi_matchmaker"/>
    <tag k="name" v="Avia"/>
    <tag k="operator" v="AVIA Hungária Kft."/>
    <tag k="payment:mastercard" v="yes"/>
    <tag k="payment:visa" v="yes"/>
    <tag k="phone" v="+3644385320"/>
    <tag k="source:www.avia.hu:date" v="2018-11-03"/>
    <tag k="website" v="https://www.avia.hu/toltoallomas/?id=45"/>
    <tag k="youtube" v="https://www.youtube.com/channel/UCjvjkjf2RgmKBuTnKSXk-Rg"/>
  </node>
  <!-- Original coordinates: POINT (47.0359776 16.8110368) -->
  <!-- OSM <-> POI distance: None m-->
  <!-- Checker good: {not_in_water}; bad {}-->
  <!-- Original tags:  -->
  <!-- JOSM magic link: http://localhost:8111/load_object?new_layer=false&objects=n-79&addtags=%7Caddr%3Acity%3DVasv%C3%A1r%7Caddr%3Acountry%3DHU%7Caddr%3Ahousenumber%3D113%7Caddr%3Apostcode%3D9800%7Caddr%3Astreet%3DGy%C5%91rv%C3%A1ri%20%C3%BAt%7Camenity%3Dfuel%7Cbrand%3DAvia%7Cemail%3Daviadiesel%40avia.hu%7Cfacebook%3Dhttps%3A//www.facebook.com/AVIAHungary%7Cfuel%3Adiesel%3Dyes%7Cfuel%3Aoctane_95%3Dyes%7Cimport%3Dosm_poi_matchmaker%7Cname%3DAvia%7Coperator%3DAVIA%20Hung%C3%A1ria%20Kft.%7Cpayment%3Amastercard%3Dyes%7Cpayment%3Avisa%3Dyes%7Cphone%3D%2B3694505391%7Csource%3Awww.avia.hu%3Adate%3D2018-11-03%7Cwebsite%3Dhttps%3A//www.avia.hu/toltoallomas/%3Fid%3D56%7Cyoutube%3Dhttps%3A//www.youtube.com/channel/UCjvjkjf2RgmKBuTnKSXk-Rg -->
  <node action="modify" id="-79" lat="47.0359776" lon="16.8110368" timestamp="2018-11-03T14:29:45Z" uid="8635934" user="osm_poi_matchmaker" version="99999">
    <tag k="addr:city" v="Vasvár"/>
    <tag k="addr:country" v="HU"/>
    <tag k="addr:housenumber" v="113"/>
    <tag k="addr:postcode" v="9800"/>
    <tag k="addr:street" v="Győrvári út"/>
    <tag k="amenity" v="fuel"/>
    <tag k="brand" v="Avia"/>
    <tag k="email" v="aviadiesel@avia.hu"/>
    <tag k="facebook" v="https://www.facebook.com/AVIAHungary"/>
    <tag k="fuel:diesel" v="yes"/>
    <tag k="fuel:octane_95" v="yes"/>
    <tag k="import" v="osm_poi_matchmaker"/>
    <tag k="name" v="Avia"/>
    <tag k="operator" v="AVIA Hungária Kft."/>
    <tag k="payment:mastercard" v="yes"/>
    <tag k="payment:visa" v="yes"/>
    <tag k="phone" v="+3694505391"/>
    <tag k="source:www.avia.hu:date" v="2018-11-03"/>
    <tag k="website" v="https://www.avia.hu/toltoallomas/?id=56"/>
    <tag k="youtube" v="https://www.youtube.com/channel/UCjvjkjf2RgmKBuTnKSXk-Rg"/>
  </node>
  <!-- OSM link: https://osm.org/node/703392678 -->
  <!-- Original coordinates: POINT (47.4229 19.2372) -->
  <!-- OSM <-> POI distance: 9.8501627 m-->
  <!-- Checker good: {not_in_water}; bad {}-->
  <!-- Original tags: 'amenity':'fuel'; 'operator':'Avia';  -->
  <!-- JOSM magic link: http://localhost:8111/load_object?new_layer=false&objects=n703392678&addtags=%7Caddr%3Acity%3DVecs%C3%A9s%7Caddr%3Acountry%3DHU%7Caddr%3Ahousenumber%3D812%7Caddr%3Apostcode%3D2220%7Caddr%3Astreet%3D%C3%9Cll%C5%91i%20%C3%BAt%7Camenity%3Dfuel%7Cbrand%3DAvia%7Cemail%3Dzsoniko%40avia.hu%7Cfacebook%3Dhttps%3A//www.facebook.com/AVIAHungary%7Cfuel%3Adiesel%3Dyes%7Cfuel%3Aoctane_95%3Dyes%7Cimport%3Dosm_poi_matchmaker%7Cname%3DAvia%7Coperator%3DAVIA%20Hung%C3%A1ria%20Kft.%7Cpayment%3Amastercard%3Dyes%7Cpayment%3Avisa%3Dyes%7Cphone%3D%2B3629552530%7Csource%3Awww.avia.hu%3Adate%3D2018-11-03%7Cwebsite%3Dhttps%3A//www.avia.hu/toltoallomas/%3Fid%3D13%7Cyoutube%3Dhttps%3A//www.youtube.com/channel/UCjvjkjf2RgmKBuTnKSXk-Rg -->
  <node action="modify" id="703392678" lat="47.4228442949141" lon="19.2370981973222" timestamp="2010-04-21T18:47:42Z" uid="8635934" user="osm_poi_matchmaker" version="1">
    <tag k="addr:city" v="Vecsés"/>
    <tag k="addr:country" v="HU"/>
    <tag k="addr:housenumber" v="812"/>
    <tag k="addr:postcode" v="2220"/>
    <tag k="addr:street" v="Üllői út"/>
    <tag k="amenity" v="fuel"/>
    <tag k="brand" v="Avia"/>
    <tag k="email" v="zsoniko@avia.hu"/>
    <tag k="facebook" v="https://www.facebook.com/AVIAHungary"/>
    <tag k="fuel:diesel" v="yes"/>
    <tag k="fuel:octane_95" v="yes"/>
    <tag k="import" v="osm_poi_matchmaker"/>
    <tag k="name" v="Avia"/>
    <tag k="operator" v="AVIA Hungária Kft."/>
    <tag k="payment:mastercard" v="yes"/>
    <tag k="payment:visa" v="yes"/>
    <tag k="phone" v="+3629552530"/>
    <tag k="source:www.avia.hu:date" v="2018-11-03"/>
    <tag k="website" v="https://www.avia.hu/toltoallomas/?id=13"/>
    <tag k="youtube" v="https://www.youtube.com/channel/UCjvjkjf2RgmKBuTnKSXk-Rg"/>
  </node>
  <!-- OSM link: https://osm.org/node/603883200 -->
  <!-- Original coordinates: POINT (46.97375 17.01521) -->
  <!-- OSM <-> POI distance: 27.82241693 m-->
  <!-- Checker good: {not_in_water}; bad {}-->
  <!-- Original tags: 'amenity':'fuel'; 'opening_hours':'Mo-Su 06:00-20:00';  -->
  <!-- JOSM magic link: http://localhost:8111/load_object?new_layer=false&objects=n603883200&addtags=%7Caddr%3Acity%3DZalab%C3%A9r%7Caddr%3Aconscriptionnumber%3D03155/2%7Caddr%3Acountry%3DHU%7Caddr%3Apostcode%3D8798%7Camenity%3Dfuel%7Cbrand%3DAvia%7Cemail%3Daviadiesel%40avia.hu%7Cfacebook%3Dhttps%3A//www.facebook.com/AVIAHungary%7Cfuel%3Adiesel%3Dyes%7Cfuel%3Aoctane_95%3Dyes%7Cimport%3Dosm_poi_matchmaker%7Cname%3DAvia%7Copening_hours%3DMo-Su%2006%3A00-20%3A00%7Coperator%3DAVIA%20Hung%C3%A1ria%20Kft.%7Cpayment%3Amastercard%3Dyes%7Cpayment%3Avisa%3Dyes%7Cphone%3D%2B3683376087%7Csource%3Awww.avia.hu%3Adate%3D2018-11-03%7Cwebsite%3Dhttps%3A//www.avia.hu/toltoallomas/%3Fid%3D5%7Cyoutube%3Dhttps%3A//www.youtube.com/channel/UCjvjkjf2RgmKBuTnKSXk-Rg -->
  <node action="modify" id="603883200" lat="46.9736156949337" lon="17.0155193976314" timestamp="2010-01-03T19:53:36Z" uid="8635934" user="osm_poi_matchmaker" version="1">
    <tag k="addr:city" v="Zalabér"/>
    <tag k="addr:conscriptionnumber" v="03155/2"/>
    <tag k="addr:country" v="HU"/>
    <tag k="addr:postcode" v="8798"/>
    <tag k="amenity" v="fuel"/>
    <tag k="brand" v="Avia"/>
    <tag k="email" v="aviadiesel@avia.hu"/>
    <tag k="facebook" v="https://www.facebook.com/AVIAHungary"/>
    <tag k="fuel:diesel" v="yes"/>
    <tag k="fuel:octane_95" v="yes"/>
    <tag k="import" v="osm_poi_matchmaker"/>
    <tag k="name" v="Avia"/>
    <tag k="opening_hours" v="Mo-Su 06:00-20:00"/>
    <tag k="operator" v="AVIA Hungária Kft."/>
    <tag k="payment:mastercard" v="yes"/>
    <tag k="payment:visa" v="yes"/>
    <tag k="phone" v="+3683376087"/>
    <tag k="source:www.avia.hu:date" v="2018-11-03"/>
    <tag k="website" v="https://www.avia.hu/toltoallomas/?id=5"/>
    <tag k="youtube" v="https://www.youtube.com/channel/UCjvjkjf2RgmKBuTnKSXk-Rg"/>
  </node>
  <node action="modify" id="1870600866" lat="47.0193195" lon="17.2341663" timestamp="2012-08-17T19:03:06Z" uid="699437" user="Separis" version="1"/>
  <node action="modify" id="1870600861" lat="47.0193218" lon="17.2340792" timestamp="2012-08-17T19:03:06Z" uid="699437" user="Separis" version="1"/>
  <node action="modify" id="1870600893" lat="47.0194315" lon="17.2340853" timestamp="2012-08-17T19:03:07Z" uid="699437" user="Separis" version="1"/>
  <node action="modify" id="1870600858" lat="47.0194292" lon="17.2341724" timestamp="2012-08-17T19:03:06Z" uid="699437" user="Separis" version="1"/>
  <node action="modify" id="1870600866" lat="47.0193195" lon="17.2341663" timestamp="2012-08-17T19:03:06Z" uid="699437" user="Separis" version="1"/>
  <!-- OSM link: https://osm.org/way/176564006 -->
  <!-- Original coordinates: POINT (47.01919 17.23416) -->
  <!-- OSM <-> POI distance: 14.40711127 m-->
  <!-- Checker good: {not_in_water}; bad {}-->
  <!-- Original tags: 'addr:city':'Zalagyömörő'; 'addr:housenumber':'184'; 'addr:postcode':'8349'; 'addr:street':'Rákóczi utca'; 'amenity':'fuel'; 'brand':'Avia'; 'email':'szigno@euroweb.hu'; 'fuel:diesel':'yes'; 'fuel:octane_95':'yes'; 'name':'Avia'; 'operator':'AVIA Hungária Kft.'; 'payment:cash':'yes'; 'payment:debit_cards':'yes'; 'phone':'+3687457509'; 'website':'https://www.avia.hu';  -->
  <!-- JOSM magic link: http://localhost:8111/load_object?new_layer=false&objects=w176564006&addtags=%7Caddr%3Acity%3DZalagy%C3%B6m%C3%B6r%C5%91%7Caddr%3Acountry%3DHU%7Caddr%3Ahousenumber%3D184%7Caddr%3Apostcode%3D8349%7Caddr%3Astreet%3DR%C3%A1k%C3%B3czi%20utca%7Camenity%3Dfuel%7Cbrand%3DAvia%7Cemail%3Dszigno%40euroweb.hu%7Cfacebook%3Dhttps%3A//www.facebook.com/AVIAHungary%7Cfuel%3Adiesel%3Dyes%7Cfuel%3Aoctane_95%3Dyes%7Cimport%3Dosm_poi_matchmaker%7Cname%3DAvia%7Coperator%3DAVIA%20Hung%C3%A1ria%20Kft.%7Cpayment%3Acash%3Dyes%7Cpayment%3Adebit_cards%3Dyes%7Cpayment%3Amastercard%3Dyes%7Cpayment%3Avisa%3Dyes%7Cphone%3D%2B3687457509%7Csource%3Awww.avia.hu%3Adate%3D2018-11-03%7Cwebsite%3Dhttps%3A//www.avia.hu/toltoallomas/%3Fid%3D25%7Cyoutube%3Dhttps%3A//www.youtube.com/channel/UCjvjkjf2RgmKBuTnKSXk-Rg -->
  <way action="modify" id="176564006" timestamp="2018-06-18T10:19:08Z" uid="8635934" user="osm_poi_matchmaker" version="3">
    <nd ref="1870600866"/>
    <nd ref="1870600861"/>
    <nd ref="1870600893"/>
    <nd ref="1870600858"/>
    <nd ref="1870600866"/>
    <tag k="addr:city" v="Zalagyömörő"/>
    <tag k="addr:country" v="HU"/>
    <tag k="addr:housenumber" v="184"/>
    <tag k="addr:postcode" v="8349"/>
    <tag k="addr:street" v="Rákóczi utca"/>
    <tag k="amenity" v="fuel"/>
    <tag k="brand" v="Avia"/>
    <tag k="email" v="szigno@euroweb.hu"/>
    <tag k="facebook" v="https://www.facebook.com/AVIAHungary"/>
    <tag k="fuel:diesel" v="yes"/>
    <tag k="fuel:octane_95" v="yes"/>
    <tag k="import" v="osm_poi_matchmaker"/>
    <tag k="name" v="Avia"/>
    <tag k="operator" v="AVIA Hungária Kft."/>
    <tag k="payment:cash" v="yes"/>
    <tag k="payment:debit_cards" v="yes"/>
    <tag k="payment:mastercard" v="yes"/>
    <tag k="payment:visa" v="yes"/>
    <tag k="phone" v="+3687457509"/>
    <tag k="source:www.avia.hu:date" v="2018-11-03"/>
    <tag k="website" v="https://www.avia.hu/toltoallomas/?id=25"/>
    <tag k="youtube" v="https://www.youtube.com/channel/UCjvjkjf2RgmKBuTnKSXk-Rg"/>
  </way>
</osm>
