<?xml version='1.0' encoding='UTF-8'?>
<osm generator="JOSM" version="0.6">
  <!-- OSM link: https://osm.org/node/1404502919 -->
  <!-- Original coordinates: POINT (47.678095 19.667625) -->
  <!-- OSM <-> POI distance: 14.33323321 m-->
  <!--
Key				Status		New value		OSM value
addr:city                        NEW		'Hatvan'
addr:housenumber                 NEW		'1'
addr:postcode                    NEW		'3000'
addr:street                      NEW		'Bibó István út'
air_conditioning                 NEW		'yes'
amenity                           EQU 		'fuel'			'fuel'
branch                           NEW		'HATVAN II 588'
brand                             EQU 		'Shell'			'Shell'
brand:wikidata                   NEW		'Q154950'
brand:wikipedia                  NEW		'hu:Royal Dutch Shell'
compressed_air                   NEW		'yes'
contact:facebook                 NEW		'https://www.facebook.com/ShellMagyarorszag/'
contact:fax                      NEW		'+36 1 999 8673'
contact:phone                    NEW		'+36 37 540 086'
contact:twitter                  NEW		'shell'
contact:website                  NEW		'https://find.shell.com/hu/fuel/11368706\-hatvan\-ii\-588'
fuel:GTL_diesel                  NEW		'yes'
fuel:adblue                      NEW		'yes'
fuel:diesel                      NEW		'yes'
fuel:octane_100                  NEW		'yes'
fuel:octane_95                   NEW		'yes'
loyalty_card                     NEW		'yes'
name                              EQU 		'Shell'			'Shell'
operator                          EQU 		'Shell'			'Shell'
payment:cash                     NEW		'yes'
payment:contactless              NEW		'yes'
payment:maestro                  NEW		'yes'
payment:mastercard               NEW		'yes'
payment:mastercard_contactless   NEW		'yes'
payment:mastercard_electronic    NEW		'yes'
payment:visa                     NEW		'yes'
payment:visa_electron            NEW		'yes'
source:date                      NEW		'2022\-06\-08'
-->
  <!-- JOSM magic link: http://localhost:8111/load_object?new_layer=false&objects=n1404502919&addtags=%7Caddr%3Acity%3DHatvan%7Caddr%3Ahousenumber%3D1%7Caddr%3Apostcode%3D3000%7Caddr%3Astreet%3DBib%C3%B3%20Istv%C3%A1n%20%C3%BAt%7Cair_conditioning%3Dyes%7Camenity%3Dfuel%7Cbranch%3DHATVAN%20II%20588%7Cbrand%3DShell%7Cbrand%3Awikidata%3DQ154950%7Cbrand%3Awikipedia%3Dhu%3ARoyal%20Dutch%20Shell%7Ccompressed_air%3Dyes%7Ccontact%3Afacebook%3Dhttps%3A//www.facebook.com/ShellMagyarorszag/%7Ccontact%3Afax%3D%2B36%201%20999%208673%7Ccontact%3Aphone%3D%2B36%2037%20540%20086%7Ccontact%3Atwitter%3Dshell%7Ccontact%3Awebsite%3Dhttps%3A//find.shell.com/hu/fuel/11368706-hatvan-ii-588%7Cfuel%3AGTL_diesel%3Dyes%7Cfuel%3Aadblue%3Dyes%7Cfuel%3Adiesel%3Dyes%7Cfuel%3Aoctane_100%3Dyes%7Cfuel%3Aoctane_95%3Dyes%7Cloyalty_card%3Dyes%7Cname%3DShell%7Coperator%3DShell%7Cpayment%3Acash%3Dyes%7Cpayment%3Acontactless%3Dyes%7Cpayment%3Amaestro%3Dyes%7Cpayment%3Amastercard%3Dyes%7Cpayment%3Amastercard_contactless%3Dyes%7Cpayment%3Amastercard_electronic%3Dyes%7Cpayment%3Avisa%3Dyes%7Cpayment%3Avisa_electron%3Dyes%7Csource%3Adate%3D2022-06-08 -->
  <!--ˇ'original': 'BIBÓ ISTVÁN ÚT 1', 'postcode': '3000', 'city': 'Hatvan', 'street': 'Bibó István út', 'housenumber': '1', 'conscriptionnumber': 'None'°-->
  <node action="modify" id="1404502919" lat="47.6779743" lon="19.6676922" timestamp="2019-03-21T13:20:35Z" uid="8635934" user="osm_poi_matchmaker" version="4">
    <tag k="addr:city" v="Hatvan"/>
    <tag k="addr:housenumber" v="1"/>
    <tag k="addr:postcode" v="3000"/>
    <tag k="addr:street" v="Bibó István út"/>
    <tag k="air_conditioning" v="yes"/>
    <tag k="amenity" v="fuel"/>
    <tag k="branch" v="HATVAN II 588"/>
    <tag k="brand" v="Shell"/>
    <tag k="brand:wikidata" v="Q154950"/>
    <tag k="brand:wikipedia" v="hu:Royal Dutch Shell"/>
    <tag k="compressed_air" v="yes"/>
    <tag k="contact:facebook" v="https://www.facebook.com/ShellMagyarorszag/"/>
    <tag k="contact:fax" v="+36 1 999 8673"/>
    <tag k="contact:phone" v="+36 37 540 086"/>
    <tag k="contact:twitter" v="shell"/>
    <tag k="contact:website" v="https://find.shell.com/hu/fuel/11368706-hatvan-ii-588"/>
    <tag k="fuel:GTL_diesel" v="yes"/>
    <tag k="fuel:adblue" v="yes"/>
    <tag k="fuel:diesel" v="yes"/>
    <tag k="fuel:octane_100" v="yes"/>
    <tag k="fuel:octane_95" v="yes"/>
    <tag k="loyalty_card" v="yes"/>
    <tag k="name" v="Shell"/>
    <tag k="operator" v="Shell"/>
    <tag k="payment:cash" v="yes"/>
    <tag k="payment:contactless" v="yes"/>
    <tag k="payment:maestro" v="yes"/>
    <tag k="payment:mastercard" v="yes"/>
    <tag k="payment:mastercard_contactless" v="yes"/>
    <tag k="payment:mastercard_electronic" v="yes"/>
    <tag k="payment:visa" v="yes"/>
    <tag k="payment:visa_electron" v="yes"/>
    <tag k="source:date" v="2022-06-08"/>
  </node>
  <!-- OSM link: https://osm.org/node/1404498109 -->
  <!-- Original coordinates: POINT (47.669143 19.67453) -->
  <!-- OSM <-> POI distance: 2.74559395 m-->
  <!--
Key				Status		New value		OSM value
addr:city                        NEW		'Hatvan'
addr:housenumber                 NEW		'20'
addr:postcode                    NEW		'3000'
addr:street                      NEW		'Radnóti tér'
air_conditioning                 NEW		'yes'
amenity                           EQU 		'fuel'			'fuel'
branch                           NEW		'HATVAN'
brand                             EQU 		'Shell'			'Shell'
brand:wikidata                   NEW		'Q154950'
brand:wikipedia                  NEW		'hu:Royal Dutch Shell'
compressed_air                   NEW		'yes'
contact:facebook                 NEW		'https://www.facebook.com/ShellMagyarorszag/'
contact:fax                      NEW		'+36 1 999 8673'
contact:phone                    NEW		'+36 37 540 171'
contact:twitter                  NEW		'shell'
contact:website                  NEW		'https://find.shell.com/hu/fuel/10205217\-hatvan'
food                             NEW		'yes'
fuel:GTL_diesel                  NEW		'yes'
fuel:adblue                      NEW		'yes'
fuel:diesel                       EQU 		'yes'			'yes'
fuel:lpg                          EQU 		'yes'			'yes'
fuel:octane_100                  NEW		'yes'
fuel:octane_95                    EQU 		'yes'			'yes'
loyalty_card                     NEW		'yes'
name                              EQU 		'Shell'			'Shell'
opening_hours                    NEW		'24/7'
operator                          EQU 		'Shell'			'Shell'
payment:cash                     NEW		'yes'
payment:contactless              NEW		'yes'
payment:maestro                  NEW		'yes'
payment:mastercard               NEW		'yes'
payment:mastercard_contactless   NEW		'yes'
payment:mastercard_electronic    NEW		'yes'
payment:visa                     NEW		'yes'
payment:visa_electron            NEW		'yes'
restaurant                       NEW		'yes'
source:date                      NEW		'2022\-06\-08'
-->
  <!-- JOSM magic link: http://localhost:8111/load_object?new_layer=false&objects=n1404498109&addtags=%7Caddr%3Acity%3DHatvan%7Caddr%3Ahousenumber%3D20%7Caddr%3Apostcode%3D3000%7Caddr%3Astreet%3DRadn%C3%B3ti%20t%C3%A9r%7Cair_conditioning%3Dyes%7Camenity%3Dfuel%7Cbranch%3DHATVAN%7Cbrand%3DShell%7Cbrand%3Awikidata%3DQ154950%7Cbrand%3Awikipedia%3Dhu%3ARoyal%20Dutch%20Shell%7Ccompressed_air%3Dyes%7Ccontact%3Afacebook%3Dhttps%3A//www.facebook.com/ShellMagyarorszag/%7Ccontact%3Afax%3D%2B36%201%20999%208673%7Ccontact%3Aphone%3D%2B36%2037%20540%20171%7Ccontact%3Atwitter%3Dshell%7Ccontact%3Awebsite%3Dhttps%3A//find.shell.com/hu/fuel/10205217-hatvan%7Cfood%3Dyes%7Cfuel%3AGTL_diesel%3Dyes%7Cfuel%3Aadblue%3Dyes%7Cfuel%3Adiesel%3Dyes%7Cfuel%3Alpg%3Dyes%7Cfuel%3Aoctane_100%3Dyes%7Cfuel%3Aoctane_95%3Dyes%7Cloyalty_card%3Dyes%7Cname%3DShell%7Copening_hours%3D24/7%7Coperator%3DShell%7Cpayment%3Acash%3Dyes%7Cpayment%3Acontactless%3Dyes%7Cpayment%3Amaestro%3Dyes%7Cpayment%3Amastercard%3Dyes%7Cpayment%3Amastercard_contactless%3Dyes%7Cpayment%3Amastercard_electronic%3Dyes%7Cpayment%3Avisa%3Dyes%7Cpayment%3Avisa_electron%3Dyes%7Crestaurant%3Dyes%7Csource%3Adate%3D2022-06-08 -->
  <!--ˇ'original': 'RADNÓTI TÉR 20', 'postcode': '3000', 'city': 'Hatvan', 'street': 'Radnóti tér', 'housenumber': '20', 'conscriptionnumber': 'None'°-->
  <node action="modify" id="1404498109" lat="47.6691273" lon="19.6745017" timestamp="2022-03-25T07:53:13Z" uid="8635934" user="osm_poi_matchmaker" version="6">
    <tag k="addr:city" v="Hatvan"/>
    <tag k="addr:housenumber" v="20"/>
    <tag k="addr:postcode" v="3000"/>
    <tag k="addr:street" v="Radnóti tér"/>
    <tag k="air_conditioning" v="yes"/>
    <tag k="amenity" v="fuel"/>
    <tag k="branch" v="HATVAN"/>
    <tag k="brand" v="Shell"/>
    <tag k="brand:wikidata" v="Q154950"/>
    <tag k="brand:wikipedia" v="hu:Royal Dutch Shell"/>
    <tag k="compressed_air" v="yes"/>
    <tag k="contact:facebook" v="https://www.facebook.com/ShellMagyarorszag/"/>
    <tag k="contact:fax" v="+36 1 999 8673"/>
    <tag k="contact:phone" v="+36 37 540 171"/>
    <tag k="contact:twitter" v="shell"/>
    <tag k="contact:website" v="https://find.shell.com/hu/fuel/10205217-hatvan"/>
    <tag k="food" v="yes"/>
    <tag k="fuel:GTL_diesel" v="yes"/>
    <tag k="fuel:adblue" v="yes"/>
    <tag k="fuel:diesel" v="yes"/>
    <tag k="fuel:lpg" v="yes"/>
    <tag k="fuel:octane_100" v="yes"/>
    <tag k="fuel:octane_95" v="yes"/>
    <tag k="loyalty_card" v="yes"/>
    <tag k="name" v="Shell"/>
    <tag k="opening_hours" v="24/7"/>
    <tag k="operator" v="Shell"/>
    <tag k="payment:cash" v="yes"/>
    <tag k="payment:contactless" v="yes"/>
    <tag k="payment:maestro" v="yes"/>
    <tag k="payment:mastercard" v="yes"/>
    <tag k="payment:mastercard_contactless" v="yes"/>
    <tag k="payment:mastercard_electronic" v="yes"/>
    <tag k="payment:visa" v="yes"/>
    <tag k="payment:visa_electron" v="yes"/>
    <tag k="restaurant" v="yes"/>
    <tag k="source:date" v="2022-06-08"/>
  </node>
  <!-- OSM link: https://osm.org/node/1841546849 -->
  <!-- Original coordinates: POINT (48.103925 19.803084) -->
  <!-- OSM <-> POI distance: 2.60228441 m-->
  <!--
Key				Status		New value		OSM value
addr:city                        NEW		'Salgótarján'
addr:housenumber                 NEW		'1'
addr:postcode                    NEW		'3100'
addr:street                      NEW		'Fürdő utca'
air_conditioning                 NEW		'yes'
amenity                           EQU 		'fuel'			'fuel'
branch                           NEW		'SALGÓTARJÁN'
brand                             EQU 		'Shell'			'Shell'
brand:wikidata                    EQU 		'Q154950'			'Q154950'
brand:wikipedia                   MOD 		'hu:Royal Dutch Shell'			'en:Royal Dutch Shell'
compressed_air                   NEW		'yes'
contact:facebook                 NEW		'https://www.facebook.com/ShellMagyarorszag/'
contact:fax                      NEW		'+36 1 999 8673'
contact:phone                    NEW		'+36 32 420 450'
contact:twitter                  NEW		'shell'
contact:website                  NEW		'https://find.shell.com/hu/fuel/10205284\-salgotarjan'
food                             NEW		'yes'
fuel:GTL_diesel                  NEW		'yes'
fuel:adblue                      NEW		'yes'
fuel:diesel                      NEW		'yes'
fuel:octane_100                  NEW		'yes'
fuel:octane_95                   NEW		'yes'
loyalty_card                     NEW		'yes'
name                              EQU 		'Shell'			'Shell'
operator                          EQU 		'Shell'			'Shell'
payment:cash                     NEW		'yes'
payment:contactless              NEW		'yes'
payment:maestro                  NEW		'yes'
payment:mastercard               NEW		'yes'
payment:mastercard_contactless   NEW		'yes'
payment:mastercard_electronic    NEW		'yes'
payment:visa                     NEW		'yes'
payment:visa_electron            NEW		'yes'
restaurant                       NEW		'yes'
source:date                      NEW		'2022\-06\-08'
wheelchair                        EQU 		'yes'			'yes'
-->
  <!-- JOSM magic link: http://localhost:8111/load_object?new_layer=false&objects=n1841546849&addtags=%7Caddr%3Acity%3DSalg%C3%B3tarj%C3%A1n%7Caddr%3Ahousenumber%3D1%7Caddr%3Apostcode%3D3100%7Caddr%3Astreet%3DF%C3%BCrd%C5%91%20utca%7Cair_conditioning%3Dyes%7Camenity%3Dfuel%7Cbranch%3DSALG%C3%93TARJ%C3%81N%7Cbrand%3DShell%7Cbrand%3Awikidata%3DQ154950%7Cbrand%3Awikipedia%3Dhu%3ARoyal%20Dutch%20Shell%7Ccompressed_air%3Dyes%7Ccontact%3Afacebook%3Dhttps%3A//www.facebook.com/ShellMagyarorszag/%7Ccontact%3Afax%3D%2B36%201%20999%208673%7Ccontact%3Aphone%3D%2B36%2032%20420%20450%7Ccontact%3Atwitter%3Dshell%7Ccontact%3Awebsite%3Dhttps%3A//find.shell.com/hu/fuel/10205284-salgotarjan%7Cfood%3Dyes%7Cfuel%3AGTL_diesel%3Dyes%7Cfuel%3Aadblue%3Dyes%7Cfuel%3Adiesel%3Dyes%7Cfuel%3Aoctane_100%3Dyes%7Cfuel%3Aoctane_95%3Dyes%7Cloyalty_card%3Dyes%7Cname%3DShell%7Coperator%3DShell%7Cpayment%3Acash%3Dyes%7Cpayment%3Acontactless%3Dyes%7Cpayment%3Amaestro%3Dyes%7Cpayment%3Amastercard%3Dyes%7Cpayment%3Amastercard_contactless%3Dyes%7Cpayment%3Amastercard_electronic%3Dyes%7Cpayment%3Avisa%3Dyes%7Cpayment%3Avisa_electron%3Dyes%7Crestaurant%3Dyes%7Csource%3Adate%3D2022-06-08%7Cwheelchair%3Dyes -->
  <!--ˇ'original': 'FÜRDŐ U. 1', 'postcode': '3100', 'city': 'Salgótarján', 'street': 'Fürdő utca', 'housenumber': '1', 'conscriptionnumber': 'None'°-->
  <node action="modify" id="1841546849" lat="48.1039196" lon="19.8030499" timestamp="2020-12-02T22:02:28Z" uid="8635934" user="osm_poi_matchmaker" version="7">
    <tag k="addr:city" v="Salgótarján"/>
    <tag k="addr:housenumber" v="1"/>
    <tag k="addr:postcode" v="3100"/>
    <tag k="addr:street" v="Fürdő utca"/>
    <tag k="air_conditioning" v="yes"/>
    <tag k="amenity" v="fuel"/>
    <tag k="branch" v="SALGÓTARJÁN"/>
    <tag k="brand" v="Shell"/>
    <tag k="brand:wikidata" v="Q154950"/>
    <tag k="brand:wikipedia" v="hu:Royal Dutch Shell"/>
    <tag k="compressed_air" v="yes"/>
    <tag k="contact:facebook" v="https://www.facebook.com/ShellMagyarorszag/"/>
    <tag k="contact:fax" v="+36 1 999 8673"/>
    <tag k="contact:phone" v="+36 32 420 450"/>
    <tag k="contact:twitter" v="shell"/>
    <tag k="contact:website" v="https://find.shell.com/hu/fuel/10205284-salgotarjan"/>
    <tag k="food" v="yes"/>
    <tag k="fuel:GTL_diesel" v="yes"/>
    <tag k="fuel:adblue" v="yes"/>
    <tag k="fuel:diesel" v="yes"/>
    <tag k="fuel:octane_100" v="yes"/>
    <tag k="fuel:octane_95" v="yes"/>
    <tag k="loyalty_card" v="yes"/>
    <tag k="name" v="Shell"/>
    <tag k="operator" v="Shell"/>
    <tag k="payment:cash" v="yes"/>
    <tag k="payment:contactless" v="yes"/>
    <tag k="payment:maestro" v="yes"/>
    <tag k="payment:mastercard" v="yes"/>
    <tag k="payment:mastercard_contactless" v="yes"/>
    <tag k="payment:mastercard_electronic" v="yes"/>
    <tag k="payment:visa" v="yes"/>
    <tag k="payment:visa_electron" v="yes"/>
    <tag k="restaurant" v="yes"/>
    <tag k="source:date" v="2022-06-08"/>
    <tag k="wheelchair" v="yes"/>
  </node>
</osm>
