<?xml version='1.0' encoding='UTF-8'?>
<osm generator="JOSM" version="0.6">
  <!-- OSM link: https://osm.org/node/499621040 -->
  <!-- Original coordinates: POINT (47.535286 21.612495) -->
  <!-- OSM <-> POI distance: 3.92821317 m-->
  <!--
Key				Status		New value		OSM value
addr:city                        NEW		'Debrecen'
addr:housenumber                 NEW		'1'
addr:postcode                    NEW		'4027'
addr:street                      NEW		'Böszörményi út'
air_conditioning                 NEW		'yes'
amenity                           EQU 		'fuel'			'fuel'
branch                           NEW		'DEBRECEN II.'
brand                             EQU 		'Shell'			'Shell'
brand:wikidata                   NEW		'Q154950'
brand:wikipedia                  NEW		'hu:Royal Dutch Shell'
compressed_air                   NEW		'yes'
contact:facebook                 NEW		'https://www.facebook.com/ShellMagyarorszag/'
contact:fax                      NEW		'+36 1 999 8673'
contact:phone                    NEW		'+36 52 425 317'
contact:twitter                  NEW		'shell'
contact:website                  NEW		'https://find.shell.com/hu/fuel/10205691\-debrecen\-ii'
food                             NEW		'yes'
fuel:GTL_diesel                  NEW		'yes'
fuel:adblue                      NEW		'yes'
fuel:diesel                      NEW		'yes'
fuel:octane_100                  NEW		'yes'
fuel:octane_95                   NEW		'yes'
loyalty_card                     NEW		'yes'
name                              EQU 		'Shell'			'Shell'
opening_hours                    NEW		'24/7'
operator                          EQU 		'Shell'			'Shell'
payment:cash                     NEW		'yes'
payment:contactless              NEW		'yes'
payment:maestro                  NEW		'yes'
payment:mastercard               NEW		'yes'
payment:mastercard_contactless   NEW		'yes'
payment:mastercard_electronic    NEW		'yes'
payment:visa                     NEW		'yes'
payment:visa_electron            NEW		'yes'
source:date                      NEW		'2022\-06\-08'
wheelchair                        EQU 		'yes'			'yes'
-->
  <!-- JOSM magic link: http://localhost:8111/load_object?new_layer=false&objects=n499621040&addtags=%7Caddr%3Acity%3DDebrecen%7Caddr%3Ahousenumber%3D1%7Caddr%3Apostcode%3D4027%7Caddr%3Astreet%3DB%C3%B6sz%C3%B6rm%C3%A9nyi%20%C3%BAt%7Cair_conditioning%3Dyes%7Camenity%3Dfuel%7Cbranch%3DDEBRECEN%20II.%7Cbrand%3DShell%7Cbrand%3Awikidata%3DQ154950%7Cbrand%3Awikipedia%3Dhu%3ARoyal%20Dutch%20Shell%7Ccompressed_air%3Dyes%7Ccontact%3Afacebook%3Dhttps%3A//www.facebook.com/ShellMagyarorszag/%7Ccontact%3Afax%3D%2B36%201%20999%208673%7Ccontact%3Aphone%3D%2B36%2052%20425%20317%7Ccontact%3Atwitter%3Dshell%7Ccontact%3Awebsite%3Dhttps%3A//find.shell.com/hu/fuel/10205691-debrecen-ii%7Cfood%3Dyes%7Cfuel%3AGTL_diesel%3Dyes%7Cfuel%3Aadblue%3Dyes%7Cfuel%3Adiesel%3Dyes%7Cfuel%3Aoctane_100%3Dyes%7Cfuel%3Aoctane_95%3Dyes%7Cloyalty_card%3Dyes%7Cname%3DShell%7Copening_hours%3D24/7%7Coperator%3DShell%7Cpayment%3Acash%3Dyes%7Cpayment%3Acontactless%3Dyes%7Cpayment%3Amaestro%3Dyes%7Cpayment%3Amastercard%3Dyes%7Cpayment%3Amastercard_contactless%3Dyes%7Cpayment%3Amastercard_electronic%3Dyes%7Cpayment%3Avisa%3Dyes%7Cpayment%3Avisa_electron%3Dyes%7Csource%3Adate%3D2022-06-08%7Cwheelchair%3Dyes -->
  <!--ˇ'original': 'BÖSZÖRMÉNYI ÚT 1', 'postcode': '4027', 'city': 'Debrecen', 'street': 'Böszörményi út', 'housenumber': '1', 'conscriptionnumber': 'None'°-->
  <node action="modify" id="499621040" lat="47.5352698" lon="21.6125415" timestamp="2020-02-16T11:32:42Z" uid="8635934" user="osm_poi_matchmaker" version="7">
    <tag k="addr:city" v="Debrecen"/>
    <tag k="addr:housenumber" v="1"/>
    <tag k="addr:postcode" v="4027"/>
    <tag k="addr:street" v="Böszörményi út"/>
    <tag k="air_conditioning" v="yes"/>
    <tag k="amenity" v="fuel"/>
    <tag k="branch" v="DEBRECEN II."/>
    <tag k="brand" v="Shell"/>
    <tag k="brand:wikidata" v="Q154950"/>
    <tag k="brand:wikipedia" v="hu:Royal Dutch Shell"/>
    <tag k="compressed_air" v="yes"/>
    <tag k="contact:facebook" v="https://www.facebook.com/ShellMagyarorszag/"/>
    <tag k="contact:fax" v="+36 1 999 8673"/>
    <tag k="contact:phone" v="+36 52 425 317"/>
    <tag k="contact:twitter" v="shell"/>
    <tag k="contact:website" v="https://find.shell.com/hu/fuel/10205691-debrecen-ii"/>
    <tag k="food" v="yes"/>
    <tag k="fuel:GTL_diesel" v="yes"/>
    <tag k="fuel:adblue" v="yes"/>
    <tag k="fuel:diesel" v="yes"/>
    <tag k="fuel:octane_100" v="yes"/>
    <tag k="fuel:octane_95" v="yes"/>
    <tag k="loyalty_card" v="yes"/>
    <tag k="name" v="Shell"/>
    <tag k="opening_hours" v="24/7"/>
    <tag k="operator" v="Shell"/>
    <tag k="payment:cash" v="yes"/>
    <tag k="payment:contactless" v="yes"/>
    <tag k="payment:maestro" v="yes"/>
    <tag k="payment:mastercard" v="yes"/>
    <tag k="payment:mastercard_contactless" v="yes"/>
    <tag k="payment:mastercard_electronic" v="yes"/>
    <tag k="payment:visa" v="yes"/>
    <tag k="payment:visa_electron" v="yes"/>
    <tag k="source:date" v="2022-06-08"/>
    <tag k="wheelchair" v="yes"/>
  </node>
  <!-- OSM link: https://osm.org/node/1534782923 -->
  <!-- Original coordinates: POINT (47.515516 21.606603) -->
  <!-- OSM <-> POI distance: 4.17332428 m-->
  <!--
Key				Status		New value		OSM value
addr:city                         EQU 		'Debrecen'			'Debrecen'
addr:housenumber                 NEW		'124'
addr:postcode                    NEW		'4031'
addr:street                       EQU 		'István út'			'István út'
air_conditioning                 NEW		'yes'
amenity                           EQU 		'fuel'			'fuel'
branch                           NEW		'DEBRECEN III.'
brand                            NEW		'Shell'
brand:wikidata                   NEW		'Q154950'
brand:wikipedia                  NEW		'hu:Royal Dutch Shell'
compressed_air                   NEW		'yes'
contact:facebook                 NEW		'https://www.facebook.com/ShellMagyarorszag/'
contact:fax                      NEW		'+36 1 999 8673'
contact:phone                    NEW		'+36 52 316 433'
contact:twitter                  NEW		'shell'
contact:website                  NEW		'https://find.shell.com/hu/fuel/10205784\-debrecen\-iii'
food                             NEW		'yes'
fuel:GTL_diesel                  NEW		'yes'
fuel:adblue                      NEW		'yes'
fuel:diesel                      NEW		'yes'
fuel:octane_100                  NEW		'yes'
fuel:octane_95                   NEW		'yes'
loyalty_card                     NEW		'yes'
name                              EQU 		'Shell'			'Shell'
opening_hours                    NEW		'24/7'
payment:cash                     NEW		'yes'
payment:contactless              NEW		'yes'
payment:maestro                  NEW		'yes'
payment:mastercard               NEW		'yes'
payment:mastercard_contactless   NEW		'yes'
payment:mastercard_electronic    NEW		'yes'
payment:visa                     NEW		'yes'
payment:visa_electron            NEW		'yes'
source:date                      NEW		'2022\-06\-08'
-->
  <!-- JOSM magic link: http://localhost:8111/load_object?new_layer=false&objects=n1534782923&addtags=%7Caddr%3Acity%3DDebrecen%7Caddr%3Ahousenumber%3D124%7Caddr%3Apostcode%3D4031%7Caddr%3Astreet%3DIstv%C3%A1n%20%C3%BAt%7Cair_conditioning%3Dyes%7Camenity%3Dfuel%7Cbranch%3DDEBRECEN%20III.%7Cbrand%3DShell%7Cbrand%3Awikidata%3DQ154950%7Cbrand%3Awikipedia%3Dhu%3ARoyal%20Dutch%20Shell%7Ccompressed_air%3Dyes%7Ccontact%3Afacebook%3Dhttps%3A//www.facebook.com/ShellMagyarorszag/%7Ccontact%3Afax%3D%2B36%201%20999%208673%7Ccontact%3Aphone%3D%2B36%2052%20316%20433%7Ccontact%3Atwitter%3Dshell%7Ccontact%3Awebsite%3Dhttps%3A//find.shell.com/hu/fuel/10205784-debrecen-iii%7Cfood%3Dyes%7Cfuel%3AGTL_diesel%3Dyes%7Cfuel%3Aadblue%3Dyes%7Cfuel%3Adiesel%3Dyes%7Cfuel%3Aoctane_100%3Dyes%7Cfuel%3Aoctane_95%3Dyes%7Cloyalty_card%3Dyes%7Cname%3DShell%7Copening_hours%3D24/7%7Cpayment%3Acash%3Dyes%7Cpayment%3Acontactless%3Dyes%7Cpayment%3Amaestro%3Dyes%7Cpayment%3Amastercard%3Dyes%7Cpayment%3Amastercard_contactless%3Dyes%7Cpayment%3Amastercard_electronic%3Dyes%7Cpayment%3Avisa%3Dyes%7Cpayment%3Avisa_electron%3Dyes%7Csource%3Adate%3D2022-06-08 -->
  <!--ˇ'original': 'ISTVÁN U. 124', 'postcode': '4031', 'city': 'Debrecen', 'street': 'István út', 'housenumber': '124', 'conscriptionnumber': 'None'°-->
  <node action="modify" id="1534782923" lat="47.5155483" lon="21.6065747" timestamp="2015-04-24T15:57:26Z" uid="8635934" user="osm_poi_matchmaker" version="3">
    <tag k="addr:city" v="Debrecen"/>
    <tag k="addr:housenumber" v="124"/>
    <tag k="addr:postcode" v="4031"/>
    <tag k="addr:street" v="István út"/>
    <tag k="air_conditioning" v="yes"/>
    <tag k="amenity" v="fuel"/>
    <tag k="branch" v="DEBRECEN III."/>
    <tag k="brand" v="Shell"/>
    <tag k="brand:wikidata" v="Q154950"/>
    <tag k="brand:wikipedia" v="hu:Royal Dutch Shell"/>
    <tag k="compressed_air" v="yes"/>
    <tag k="contact:facebook" v="https://www.facebook.com/ShellMagyarorszag/"/>
    <tag k="contact:fax" v="+36 1 999 8673"/>
    <tag k="contact:phone" v="+36 52 316 433"/>
    <tag k="contact:twitter" v="shell"/>
    <tag k="contact:website" v="https://find.shell.com/hu/fuel/10205784-debrecen-iii"/>
    <tag k="food" v="yes"/>
    <tag k="fuel:GTL_diesel" v="yes"/>
    <tag k="fuel:adblue" v="yes"/>
    <tag k="fuel:diesel" v="yes"/>
    <tag k="fuel:octane_100" v="yes"/>
    <tag k="fuel:octane_95" v="yes"/>
    <tag k="loyalty_card" v="yes"/>
    <tag k="name" v="Shell"/>
    <tag k="opening_hours" v="24/7"/>
    <tag k="payment:cash" v="yes"/>
    <tag k="payment:contactless" v="yes"/>
    <tag k="payment:maestro" v="yes"/>
    <tag k="payment:mastercard" v="yes"/>
    <tag k="payment:mastercard_contactless" v="yes"/>
    <tag k="payment:mastercard_electronic" v="yes"/>
    <tag k="payment:visa" v="yes"/>
    <tag k="payment:visa_electron" v="yes"/>
    <tag k="source:date" v="2022-06-08"/>
  </node>
  <!-- Original coordinates: POINT (47.542749 21.597274) -->
  <!-- OSM <-> POI distance: Non exist-->
  <!--
Key				Status		New value		OSM value
addr:city                        NEW		'Debrecen'
addr:housenumber                 NEW		'5'
addr:postcode                    NEW		'4027'
addr:street                      NEW		'Balmazújvárosi út'
air_conditioning                 NEW		'yes'
amenity                          NEW		'fuel'
branch                           NEW		'DEBRECEN I.'
brand                            NEW		'Shell'
brand:wikidata                   NEW		'Q154950'
brand:wikipedia                  NEW		'hu:Royal Dutch Shell'
compressed_air                   NEW		'yes'
contact:facebook                 NEW		'https://www.facebook.com/ShellMagyarorszag/'
contact:fax                      NEW		'+36 1 999 8673'
contact:phone                    NEW		'+36 52 418 822'
contact:twitter                  NEW		'shell'
contact:website                  NEW		'https://find.shell.com/hu/fuel/10205820\-debrecen\-i'
fixme                            NEW		'verify import'
food                             NEW		'yes'
fuel:GTL_diesel                  NEW		'yes'
fuel:adblue                      NEW		'yes'
fuel:diesel                      NEW		'yes'
fuel:octane_100                  NEW		'yes'
fuel:octane_95                   NEW		'yes'
loyalty_card                     NEW		'yes'
name                             NEW		'Shell'
opening_hours                    NEW		'24/7'
payment:cash                     NEW		'yes'
payment:contactless              NEW		'yes'
payment:maestro                  NEW		'yes'
payment:mastercard               NEW		'yes'
payment:mastercard_contactless   NEW		'yes'
payment:mastercard_electronic    NEW		'yes'
payment:visa                     NEW		'yes'
payment:visa_electron            NEW		'yes'
source:date                      NEW		'2022\-06\-08'
truck                            NEW		'yes'
-->
  <!-- JOSM magic link: http://localhost:8111/load_object?new_layer=false&objects=n-3&addtags=%7Caddr%3Acity%3DDebrecen%7Caddr%3Ahousenumber%3D5%7Caddr%3Apostcode%3D4027%7Caddr%3Astreet%3DBalmaz%C3%BAjv%C3%A1rosi%20%C3%BAt%7Cair_conditioning%3Dyes%7Camenity%3Dfuel%7Cbranch%3DDEBRECEN%20I.%7Cbrand%3DShell%7Cbrand%3Awikidata%3DQ154950%7Cbrand%3Awikipedia%3Dhu%3ARoyal%20Dutch%20Shell%7Ccompressed_air%3Dyes%7Ccontact%3Afacebook%3Dhttps%3A//www.facebook.com/ShellMagyarorszag/%7Ccontact%3Afax%3D%2B36%201%20999%208673%7Ccontact%3Aphone%3D%2B36%2052%20418%20822%7Ccontact%3Atwitter%3Dshell%7Ccontact%3Awebsite%3Dhttps%3A//find.shell.com/hu/fuel/10205820-debrecen-i%7Cfixme%3Dverify%20import%7Cfood%3Dyes%7Cfuel%3AGTL_diesel%3Dyes%7Cfuel%3Aadblue%3Dyes%7Cfuel%3Adiesel%3Dyes%7Cfuel%3Aoctane_100%3Dyes%7Cfuel%3Aoctane_95%3Dyes%7Cloyalty_card%3Dyes%7Cname%3DShell%7Copening_hours%3D24/7%7Cpayment%3Acash%3Dyes%7Cpayment%3Acontactless%3Dyes%7Cpayment%3Amaestro%3Dyes%7Cpayment%3Amastercard%3Dyes%7Cpayment%3Amastercard_contactless%3Dyes%7Cpayment%3Amastercard_electronic%3Dyes%7Cpayment%3Avisa%3Dyes%7Cpayment%3Avisa_electron%3Dyes%7Csource%3Adate%3D2022-06-08%7Ctruck%3Dyes -->
  <!--ˇ'original': 'BALMAZÚJVÁROSI ÚT 5', 'postcode': '4027', 'city': 'Debrecen', 'street': 'Balmazújvárosi út', 'housenumber': '5', 'conscriptionnumber': 'None'°-->
  <node action="modify" id="-3" lat="47.542749" lon="21.597274" timestamp="2022-06-08T15:28:46Z" uid="8635934" user="osm_poi_matchmaker" version="99999">
    <tag k="addr:city" v="Debrecen"/>
    <tag k="addr:housenumber" v="5"/>
    <tag k="addr:postcode" v="4027"/>
    <tag k="addr:street" v="Balmazújvárosi út"/>
    <tag k="air_conditioning" v="yes"/>
    <tag k="amenity" v="fuel"/>
    <tag k="branch" v="DEBRECEN I."/>
    <tag k="brand" v="Shell"/>
    <tag k="brand:wikidata" v="Q154950"/>
    <tag k="brand:wikipedia" v="hu:Royal Dutch Shell"/>
    <tag k="compressed_air" v="yes"/>
    <tag k="contact:facebook" v="https://www.facebook.com/ShellMagyarorszag/"/>
    <tag k="contact:fax" v="+36 1 999 8673"/>
    <tag k="contact:phone" v="+36 52 418 822"/>
    <tag k="contact:twitter" v="shell"/>
    <tag k="contact:website" v="https://find.shell.com/hu/fuel/10205820-debrecen-i"/>
    <tag k="fixme" v="verify import"/>
    <tag k="food" v="yes"/>
    <tag k="fuel:GTL_diesel" v="yes"/>
    <tag k="fuel:adblue" v="yes"/>
    <tag k="fuel:diesel" v="yes"/>
    <tag k="fuel:octane_100" v="yes"/>
    <tag k="fuel:octane_95" v="yes"/>
    <tag k="loyalty_card" v="yes"/>
    <tag k="name" v="Shell"/>
    <tag k="opening_hours" v="24/7"/>
    <tag k="payment:cash" v="yes"/>
    <tag k="payment:contactless" v="yes"/>
    <tag k="payment:maestro" v="yes"/>
    <tag k="payment:mastercard" v="yes"/>
    <tag k="payment:mastercard_contactless" v="yes"/>
    <tag k="payment:mastercard_electronic" v="yes"/>
    <tag k="payment:visa" v="yes"/>
    <tag k="payment:visa_electron" v="yes"/>
    <tag k="source:date" v="2022-06-08"/>
    <tag k="truck" v="yes"/>
  </node>
</osm>
