<?xml version='1.0' encoding='UTF-8'?>
<osm generator="JOSM" version="0.6">
  <!-- OSM link: https://osm.org/node/2827139059 -->
  <!-- Original coordinates: POINT (46.813674 18.908149) -->
  <!-- OSM <-> POI distance: 14.26343299 m-->
  <!--
Key				Status		New value		OSM value
addr:city                        NEW		'Dunaföldvár'
addr:postcode                    NEW		'7020'
addr:street                      NEW		'előszállási út'
air_conditioning                 NEW		'yes'
amenity                           EQU 		'fuel'			'fuel'
branch                           NEW		'DUNAFÖLDVÁR'
brand                             EQU 		'Shell'			'Shell'
brand:wikidata                    MOD 		'Q154950'			'Q110716465'
brand:wikipedia                  NEW		'hu:Royal Dutch Shell'
compressed_air                   NEW		'yes'
contact:facebook                 NEW		'https://www.facebook.com/ShellMagyarorszag/'
contact:fax                      NEW		'+36 1 999 8673'
contact:phone                    NEW		'+36 75 541 110'
contact:twitter                  NEW		'shell'
contact:website                  NEW		'https://find.shell.com/hu/fuel/10201362\-dunafoldvar'
food                             NEW		'yes'
fuel:GTL_diesel                  NEW		'yes'
fuel:adblue                      NEW		'yes'
fuel:diesel                      NEW		'yes'
fuel:octane_100                  NEW		'yes'
fuel:octane_95                   NEW		'yes'
loyalty_card                     NEW		'yes'
name                              EQU 		'Shell'			'Shell'
opening_hours                    NEW		'24/7'
payment:cash                     NEW		'yes'
payment:contactless              NEW		'yes'
payment:maestro                  NEW		'yes'
payment:mastercard               NEW		'yes'
payment:mastercard_contactless   NEW		'yes'
payment:mastercard_electronic    NEW		'yes'
payment:visa                     NEW		'yes'
payment:visa_electron            NEW		'yes'
source:date                      NEW		'2022\-06\-08'
truck                            NEW		'yes'
wheelchair                        EQU 		'yes'			'yes'
-->
  <!-- JOSM magic link: http://localhost:8111/load_object?new_layer=false&objects=n2827139059&addtags=%7Caddr%3Acity%3DDunaf%C3%B6ldv%C3%A1r%7Caddr%3Apostcode%3D7020%7Caddr%3Astreet%3Del%C5%91sz%C3%A1ll%C3%A1si%20%C3%BAt%7Cair_conditioning%3Dyes%7Camenity%3Dfuel%7Cbranch%3DDUNAF%C3%96LDV%C3%81R%7Cbrand%3DShell%7Cbrand%3Awikidata%3DQ154950%7Cbrand%3Awikipedia%3Dhu%3ARoyal%20Dutch%20Shell%7Ccompressed_air%3Dyes%7Ccontact%3Afacebook%3Dhttps%3A//www.facebook.com/ShellMagyarorszag/%7Ccontact%3Afax%3D%2B36%201%20999%208673%7Ccontact%3Aphone%3D%2B36%2075%20541%20110%7Ccontact%3Atwitter%3Dshell%7Ccontact%3Awebsite%3Dhttps%3A//find.shell.com/hu/fuel/10201362-dunafoldvar%7Cfood%3Dyes%7Cfuel%3AGTL_diesel%3Dyes%7Cfuel%3Aadblue%3Dyes%7Cfuel%3Adiesel%3Dyes%7Cfuel%3Aoctane_100%3Dyes%7Cfuel%3Aoctane_95%3Dyes%7Cloyalty_card%3Dyes%7Cname%3DShell%7Copening_hours%3D24/7%7Cpayment%3Acash%3Dyes%7Cpayment%3Acontactless%3Dyes%7Cpayment%3Amaestro%3Dyes%7Cpayment%3Amastercard%3Dyes%7Cpayment%3Amastercard_contactless%3Dyes%7Cpayment%3Amastercard_electronic%3Dyes%7Cpayment%3Avisa%3Dyes%7Cpayment%3Avisa_electron%3Dyes%7Csource%3Adate%3D2022-06-08%7Ctruck%3Dyes%7Cwheelchair%3Dyes -->
  <!--ˇ'original': 'ELŐSZÁLLÁSI ÚT', 'postcode': '7020', 'city': 'Dunaföldvár', 'street': 'előszállási út', 'housenumber': 'None', 'conscriptionnumber': 'None'°-->
  <node action="modify" id="2827139059" lat="46.8137449" lon="18.9079928" timestamp="2022-05-01T07:07:43Z" uid="8635934" user="osm_poi_matchmaker" version="4">
    <tag k="addr:city" v="Dunaföldvár"/>
    <tag k="addr:postcode" v="7020"/>
    <tag k="addr:street" v="előszállási út"/>
    <tag k="air_conditioning" v="yes"/>
    <tag k="amenity" v="fuel"/>
    <tag k="branch" v="DUNAFÖLDVÁR"/>
    <tag k="brand" v="Shell"/>
    <tag k="brand:wikidata" v="Q154950"/>
    <tag k="brand:wikipedia" v="hu:Royal Dutch Shell"/>
    <tag k="compressed_air" v="yes"/>
    <tag k="contact:facebook" v="https://www.facebook.com/ShellMagyarorszag/"/>
    <tag k="contact:fax" v="+36 1 999 8673"/>
    <tag k="contact:phone" v="+36 75 541 110"/>
    <tag k="contact:twitter" v="shell"/>
    <tag k="contact:website" v="https://find.shell.com/hu/fuel/10201362-dunafoldvar"/>
    <tag k="food" v="yes"/>
    <tag k="fuel:GTL_diesel" v="yes"/>
    <tag k="fuel:adblue" v="yes"/>
    <tag k="fuel:diesel" v="yes"/>
    <tag k="fuel:octane_100" v="yes"/>
    <tag k="fuel:octane_95" v="yes"/>
    <tag k="loyalty_card" v="yes"/>
    <tag k="name" v="Shell"/>
    <tag k="opening_hours" v="24/7"/>
    <tag k="payment:cash" v="yes"/>
    <tag k="payment:contactless" v="yes"/>
    <tag k="payment:maestro" v="yes"/>
    <tag k="payment:mastercard" v="yes"/>
    <tag k="payment:mastercard_contactless" v="yes"/>
    <tag k="payment:mastercard_electronic" v="yes"/>
    <tag k="payment:visa" v="yes"/>
    <tag k="payment:visa_electron" v="yes"/>
    <tag k="source:date" v="2022-06-08"/>
    <tag k="truck" v="yes"/>
    <tag k="wheelchair" v="yes"/>
  </node>
  <!-- OSM link: https://osm.org/node/205318625 -->
  <!-- Original coordinates: POINT (46.366139 18.705929) -->
  <!-- OSM <-> POI distance: 8.86046483 m-->
  <!--
Key				Status		New value		OSM value
addr:city                        NEW		'Szekszárd'
addr:housenumber                 NEW		'2'
addr:postcode                    NEW		'7100'
addr:street                      NEW		'Palánki utca'
air_conditioning                 NEW		'yes'
amenity                           EQU 		'fuel'			'fuel'
branch                           NEW		'SZEKSZÁRD III.'
brand                             EQU 		'Shell'			'Shell'
brand:wikidata                   NEW		'Q154950'
brand:wikipedia                  NEW		'hu:Royal Dutch Shell'
compressed_air                   NEW		'yes'
contact:facebook                 NEW		'https://www.facebook.com/ShellMagyarorszag/'
contact:fax                      NEW		'+36 1 999 8673'
contact:phone                    NEW		'+36 74 311 828'
contact:twitter                  NEW		'shell'
contact:website                  NEW		'https://find.shell.com/hu/fuel/10201400\-szekszard\-iii'
food                             NEW		'yes'
fuel:GTL_diesel                  NEW		'yes'
fuel:HGV_diesel                   EQU 		'yes'			'yes'
fuel:adblue                      NEW		'yes'
fuel:diesel                       EQU 		'yes'			'yes'
fuel:octane_100                  NEW		'yes'
fuel:octane_95                    EQU 		'yes'			'yes'
loyalty_card                     NEW		'yes'
name                              EQU 		'Shell'			'Shell'
opening_hours                     EQU 		'24/7'			'24/7'
operator                          EQU 		'Shell'			'Shell'
payment:cash                     NEW		'yes'
payment:contactless              NEW		'yes'
payment:maestro                  NEW		'yes'
payment:mastercard               NEW		'yes'
payment:mastercard_contactless   NEW		'yes'
payment:mastercard_electronic    NEW		'yes'
payment:visa                     NEW		'yes'
payment:visa_electron            NEW		'yes'
shop                              EQU 		'yes'			'yes'
source:date                      NEW		'2022\-06\-08'
truck                            NEW		'yes'
-->
  <!-- JOSM magic link: http://localhost:8111/load_object?new_layer=false&objects=n205318625&addtags=%7Caddr%3Acity%3DSzeksz%C3%A1rd%7Caddr%3Ahousenumber%3D2%7Caddr%3Apostcode%3D7100%7Caddr%3Astreet%3DPal%C3%A1nki%20utca%7Cair_conditioning%3Dyes%7Camenity%3Dfuel%7Cbranch%3DSZEKSZ%C3%81RD%20III.%7Cbrand%3DShell%7Cbrand%3Awikidata%3DQ154950%7Cbrand%3Awikipedia%3Dhu%3ARoyal%20Dutch%20Shell%7Ccompressed_air%3Dyes%7Ccontact%3Afacebook%3Dhttps%3A//www.facebook.com/ShellMagyarorszag/%7Ccontact%3Afax%3D%2B36%201%20999%208673%7Ccontact%3Aphone%3D%2B36%2074%20311%20828%7Ccontact%3Atwitter%3Dshell%7Ccontact%3Awebsite%3Dhttps%3A//find.shell.com/hu/fuel/10201400-szekszard-iii%7Cfood%3Dyes%7Cfuel%3AGTL_diesel%3Dyes%7Cfuel%3AHGV_diesel%3Dyes%7Cfuel%3Aadblue%3Dyes%7Cfuel%3Adiesel%3Dyes%7Cfuel%3Aoctane_100%3Dyes%7Cfuel%3Aoctane_95%3Dyes%7Cloyalty_card%3Dyes%7Cname%3DShell%7Copening_hours%3D24/7%7Coperator%3DShell%7Cpayment%3Acash%3Dyes%7Cpayment%3Acontactless%3Dyes%7Cpayment%3Amaestro%3Dyes%7Cpayment%3Amastercard%3Dyes%7Cpayment%3Amastercard_contactless%3Dyes%7Cpayment%3Amastercard_electronic%3Dyes%7Cpayment%3Avisa%3Dyes%7Cpayment%3Avisa_electron%3Dyes%7Cshop%3Dyes%7Csource%3Adate%3D2022-06-08%7Ctruck%3Dyes -->
  <!--ˇ'original': 'PALÁNKI U. 2', 'postcode': '7100', 'city': 'Szekszárd', 'street': 'Palánki utca', 'housenumber': '2', 'conscriptionnumber': 'None'°-->
  <node action="modify" id="205318625" lat="46.3661517" lon="18.705815" timestamp="2019-03-26T05:02:16Z" uid="8635934" user="osm_poi_matchmaker" version="5">
    <tag k="addr:city" v="Szekszárd"/>
    <tag k="addr:housenumber" v="2"/>
    <tag k="addr:postcode" v="7100"/>
    <tag k="addr:street" v="Palánki utca"/>
    <tag k="air_conditioning" v="yes"/>
    <tag k="amenity" v="fuel"/>
    <tag k="branch" v="SZEKSZÁRD III."/>
    <tag k="brand" v="Shell"/>
    <tag k="brand:wikidata" v="Q154950"/>
    <tag k="brand:wikipedia" v="hu:Royal Dutch Shell"/>
    <tag k="compressed_air" v="yes"/>
    <tag k="contact:facebook" v="https://www.facebook.com/ShellMagyarorszag/"/>
    <tag k="contact:fax" v="+36 1 999 8673"/>
    <tag k="contact:phone" v="+36 74 311 828"/>
    <tag k="contact:twitter" v="shell"/>
    <tag k="contact:website" v="https://find.shell.com/hu/fuel/10201400-szekszard-iii"/>
    <tag k="food" v="yes"/>
    <tag k="fuel:GTL_diesel" v="yes"/>
    <tag k="fuel:HGV_diesel" v="yes"/>
    <tag k="fuel:adblue" v="yes"/>
    <tag k="fuel:diesel" v="yes"/>
    <tag k="fuel:octane_100" v="yes"/>
    <tag k="fuel:octane_95" v="yes"/>
    <tag k="loyalty_card" v="yes"/>
    <tag k="name" v="Shell"/>
    <tag k="opening_hours" v="24/7"/>
    <tag k="operator" v="Shell"/>
    <tag k="payment:cash" v="yes"/>
    <tag k="payment:contactless" v="yes"/>
    <tag k="payment:maestro" v="yes"/>
    <tag k="payment:mastercard" v="yes"/>
    <tag k="payment:mastercard_contactless" v="yes"/>
    <tag k="payment:mastercard_electronic" v="yes"/>
    <tag k="payment:visa" v="yes"/>
    <tag k="payment:visa_electron" v="yes"/>
    <tag k="shop" v="yes"/>
    <tag k="source:date" v="2022-06-08"/>
    <tag k="truck" v="yes"/>
  </node>
</osm>
