<?xml version='1.0' encoding='UTF-8'?>
<osm generator="JOSM" version="0.6">
  <!-- Original coordinates: POINT (47.494546 19.028408) -->
  <!-- OSM <-> POI distance: Non exist-->
  <!-- Checker good: {not_in_water,street_is_around,street_metaphone_is_around}; bad {}-->
  <!--
Key				Status		New value		OSM value
addr:city                        N		'Budapest'
addr:housenumber                 N		'19'
addr:postcode                    N		'1016'
addr:street                      N		'Mészáros utca'
authentication:app               N		'yes'
authentication:none              N		'yes'
brand                            N		'MOL'
contact:email                    N		'info@molplugee.hu'
contact:phone                    N		'+36 1 998 9888'
contact:website                  N		'https://molplugee.hu'
fee                              N		'yes'
fixme                            N		'verify import'
motorcar                         N		'yes'
name                             N		'MOL Plugee'
opening_hours                    N		'24/7'
operator                         N		'MOL Nyrt.'
operator:addr                    N		'1117 Budapest, Október huszonharmadika utca 18.'
parking:fee                      N		'no'
ref:HU:company                   N		'01\-10\-041683'
ref:vatin                        N		'HU10625790'
ref:vatin:hu                     N		'10625790\-4\-44'
socket:chademo                   N		'1'
socket:chademo:output            N		'50 kW'
socket:type1_combo               N		'1'
socket:type1_combo:output        N		'50 kW'
socket:type2_cable               N		'1'
socket:type2_cable:output        N		'22 kW'
source:molplugee.hu:date         N		'2020\-09\-28'
-->
  <!-- JOSM magic link: http://localhost:8111/load_object?new_layer=false&objects=n-1&addtags=%7Caddr%3Acity%3DBudapest%7Caddr%3Ahousenumber%3D19%7Caddr%3Apostcode%3D1016%7Caddr%3Astreet%3DM%C3%A9sz%C3%A1ros%20utca%7Cauthentication%3Aapp%3Dyes%7Cauthentication%3Anone%3Dyes%7Cbrand%3DMOL%7Ccontact%3Aemail%3Dinfo%40molplugee.hu%7Ccontact%3Aphone%3D%2B36%201%20998%209888%7Ccontact%3Awebsite%3Dhttps%3A//molplugee.hu%7Cfee%3Dyes%7Cfixme%3Dverify%20import%7Cmotorcar%3Dyes%7Cname%3DMOL%20Plugee%7Copening_hours%3D24/7%7Coperator%3DMOL%20Nyrt.%7Coperator%3Aaddr%3D1117%20Budapest%2C%20Okt%C3%B3ber%20huszonharmadika%20utca%2018.%7Cparking%3Afee%3Dno%7Cref%3AHU%3Acompany%3D01-10-041683%7Cref%3Avatin%3DHU10625790%7Cref%3Avatin%3Ahu%3D10625790-4-44%7Csocket%3Achademo%3D1%7Csocket%3Achademo%3Aoutput%3D50%20kW%7Csocket%3Atype1_combo%3D1%7Csocket%3Atype1_combo%3Aoutput%3D50%20kW%7Csocket%3Atype2_cable%3D1%7Csocket%3Atype2_cable%3Aoutput%3D22%20kW%7Csource%3Amolplugee.hu%3Adate%3D2020-09-28 -->
  <node action="modify" id="-1" lat="47.494546" lon="19.028408" timestamp="2020-09-28T10:09:21Z" uid="8635934" user="osm_poi_matchmaker" version="99999">
    <tag k="addr:city" v="Budapest"/>
    <tag k="addr:housenumber" v="19"/>
    <tag k="addr:postcode" v="1016"/>
    <tag k="addr:street" v="Mészáros utca"/>
    <tag k="authentication:app" v="yes"/>
    <tag k="authentication:none" v="yes"/>
    <tag k="brand" v="MOL"/>
    <tag k="contact:email" v="info@molplugee.hu"/>
    <tag k="contact:phone" v="+36 1 998 9888"/>
    <tag k="contact:website" v="https://molplugee.hu"/>
    <tag k="fee" v="yes"/>
    <tag k="fixme" v="verify import"/>
    <tag k="motorcar" v="yes"/>
    <tag k="name" v="MOL Plugee"/>
    <tag k="opening_hours" v="24/7"/>
    <tag k="operator" v="MOL Nyrt."/>
    <tag k="operator:addr" v="1117 Budapest, Október huszonharmadika utca 18."/>
    <tag k="parking:fee" v="no"/>
    <tag k="ref:HU:company" v="01-10-041683"/>
    <tag k="ref:vatin" v="HU10625790"/>
    <tag k="ref:vatin:hu" v="10625790-4-44"/>
    <tag k="socket:chademo" v="1"/>
    <tag k="socket:chademo:output" v="50 kW"/>
    <tag k="socket:type1_combo" v="1"/>
    <tag k="socket:type1_combo:output" v="50 kW"/>
    <tag k="socket:type2_cable" v="1"/>
    <tag k="socket:type2_cable:output" v="22 kW"/>
    <tag k="source:molplugee.hu:date" v="2020-09-28"/>
  </node>
  <!-- OSM link: https://osm.org/node/7070330415 -->
  <!-- Original coordinates: POINT (47.536079 19.046478) -->
  <!-- OSM <-> POI distance: 58.5065378 m-->
  <!-- Checker good: {not_in_water,street_is_around,street_metaphone_is_around}; bad {}-->
  <!--
Key				Status		New value		OSM value
addr:city                        N		'Budapest'
addr:housenumber                 N		'103'
addr:postcode                    N		'1036'
addr:street                      N		'Árpád fejedelem útja'
amenity                          E		'charging_station'			'charging_station'
authentication:app               N		'yes'
authentication:none              N		'yes'
brand                            N		'MOL'
contact:email                    N		'info@molplugee.hu'
contact:phone                    N		'+36 1 998 9888'
contact:website                  N		'https://molplugee.hu'
fee                              N		'yes'
fixme                            E		'details'			'details'
motorcar                         N		'yes'
name                             N		'MOL Plugee'
opening_hours                    N		'24/7'
operator                         M		'MOL Nyrt.'			'MOL'
operator:addr                    N		'1117 Budapest, Október huszonharmadika utca 18.'
parking:fee                      N		'no'
ref:HU:company                   N		'01\-10\-041683'
ref:vatin                        N		'HU10625790'
ref:vatin:hu                     N		'10625790\-4\-44'
socket:chademo                   N		'1'
socket:chademo:output            N		'50 kW'
socket:type1_combo               N		'1'
socket:type1_combo:output        N		'50 kW'
socket:type2_cable               N		'1'
socket:type2_cable:output        N		'22 kW'
source:molplugee.hu:date         N		'2020\-09\-28'
-->
  <!-- JOSM magic link: http://localhost:8111/load_object?new_layer=false&objects=n7070330415&addtags=%7Caddr%3Acity%3DBudapest%7Caddr%3Ahousenumber%3D103%7Caddr%3Apostcode%3D1036%7Caddr%3Astreet%3D%C3%81rp%C3%A1d%20fejedelem%20%C3%BAtja%7Camenity%3Dcharging_station%7Cauthentication%3Aapp%3Dyes%7Cauthentication%3Anone%3Dyes%7Cbrand%3DMOL%7Ccontact%3Aemail%3Dinfo%40molplugee.hu%7Ccontact%3Aphone%3D%2B36%201%20998%209888%7Ccontact%3Awebsite%3Dhttps%3A//molplugee.hu%7Cfee%3Dyes%7Cfixme%3Ddetails%7Cmotorcar%3Dyes%7Cname%3DMOL%20Plugee%7Copening_hours%3D24/7%7Coperator%3DMOL%20Nyrt.%7Coperator%3Aaddr%3D1117%20Budapest%2C%20Okt%C3%B3ber%20huszonharmadika%20utca%2018.%7Cparking%3Afee%3Dno%7Cref%3AHU%3Acompany%3D01-10-041683%7Cref%3Avatin%3DHU10625790%7Cref%3Avatin%3Ahu%3D10625790-4-44%7Csocket%3Achademo%3D1%7Csocket%3Achademo%3Aoutput%3D50%20kW%7Csocket%3Atype1_combo%3D1%7Csocket%3Atype1_combo%3Aoutput%3D50%20kW%7Csocket%3Atype2_cable%3D1%7Csocket%3Atype2_cable%3Aoutput%3D22%20kW%7Csource%3Amolplugee.hu%3Adate%3D2020-09-28 -->
  <node action="modify" id="7070330415" lat="47.5365762" lon="19.046733" timestamp="2019-12-19T19:06:17Z" uid="8635934" user="osm_poi_matchmaker" version="1">
    <tag k="addr:city" v="Budapest"/>
    <tag k="addr:housenumber" v="103"/>
    <tag k="addr:postcode" v="1036"/>
    <tag k="addr:street" v="Árpád fejedelem útja"/>
    <tag k="amenity" v="charging_station"/>
    <tag k="authentication:app" v="yes"/>
    <tag k="authentication:none" v="yes"/>
    <tag k="brand" v="MOL"/>
    <tag k="contact:email" v="info@molplugee.hu"/>
    <tag k="contact:phone" v="+36 1 998 9888"/>
    <tag k="contact:website" v="https://molplugee.hu"/>
    <tag k="fee" v="yes"/>
    <tag k="fixme" v="details"/>
    <tag k="motorcar" v="yes"/>
    <tag k="name" v="MOL Plugee"/>
    <tag k="opening_hours" v="24/7"/>
    <tag k="operator" v="MOL Nyrt."/>
    <tag k="operator:addr" v="1117 Budapest, Október huszonharmadika utca 18."/>
    <tag k="parking:fee" v="no"/>
    <tag k="ref:HU:company" v="01-10-041683"/>
    <tag k="ref:vatin" v="HU10625790"/>
    <tag k="ref:vatin:hu" v="10625790-4-44"/>
    <tag k="socket:chademo" v="1"/>
    <tag k="socket:chademo:output" v="50 kW"/>
    <tag k="socket:type1_combo" v="1"/>
    <tag k="socket:type1_combo:output" v="50 kW"/>
    <tag k="socket:type2_cable" v="1"/>
    <tag k="socket:type2_cable:output" v="22 kW"/>
    <tag k="source:molplugee.hu:date" v="2020-09-28"/>
  </node>
  <!-- Original coordinates: POINT (47.581242 19.048935) -->
  <!-- OSM <-> POI distance: Non exist-->
  <!-- Checker good: {not_in_water,street_is_around,street_metaphone_is_around}; bad {}-->
  <!--
Key				Status		New value		OSM value
addr:city                        N		'Budapest'
addr:housenumber                 N		'255'
addr:postcode                    N		'1038'
addr:street                      N		'Szentendrei út'
authentication:app               N		'yes'
authentication:none              N		'yes'
brand                            N		'MOL'
contact:email                    N		'info@molplugee.hu'
contact:phone                    N		'+36 1 998 9888'
contact:website                  N		'https://molplugee.hu'
fee                              N		'yes'
fixme                            N		'verify import'
motorcar                         N		'yes'
name                             N		'MOL Plugee'
opening_hours                    N		'24/7'
operator                         N		'MOL Nyrt.'
operator:addr                    N		'1117 Budapest, Október huszonharmadika utca 18.'
parking:fee                      N		'no'
ref:HU:company                   N		'01\-10\-041683'
ref:vatin                        N		'HU10625790'
ref:vatin:hu                     N		'10625790\-4\-44'
socket:chademo                   N		'1'
socket:chademo:output            N		'50 kW'
socket:type1_combo               N		'1'
socket:type1_combo:output        N		'50 kW'
socket:type2_cable               N		'1'
socket:type2_cable:output        N		'43 kW'
source:molplugee.hu:date         N		'2020\-09\-28'
-->
  <!-- JOSM magic link: http://localhost:8111/load_object?new_layer=false&objects=n-3&addtags=%7Caddr%3Acity%3DBudapest%7Caddr%3Ahousenumber%3D255%7Caddr%3Apostcode%3D1038%7Caddr%3Astreet%3DSzentendrei%20%C3%BAt%7Cauthentication%3Aapp%3Dyes%7Cauthentication%3Anone%3Dyes%7Cbrand%3DMOL%7Ccontact%3Aemail%3Dinfo%40molplugee.hu%7Ccontact%3Aphone%3D%2B36%201%20998%209888%7Ccontact%3Awebsite%3Dhttps%3A//molplugee.hu%7Cfee%3Dyes%7Cfixme%3Dverify%20import%7Cmotorcar%3Dyes%7Cname%3DMOL%20Plugee%7Copening_hours%3D24/7%7Coperator%3DMOL%20Nyrt.%7Coperator%3Aaddr%3D1117%20Budapest%2C%20Okt%C3%B3ber%20huszonharmadika%20utca%2018.%7Cparking%3Afee%3Dno%7Cref%3AHU%3Acompany%3D01-10-041683%7Cref%3Avatin%3DHU10625790%7Cref%3Avatin%3Ahu%3D10625790-4-44%7Csocket%3Achademo%3D1%7Csocket%3Achademo%3Aoutput%3D50%20kW%7Csocket%3Atype1_combo%3D1%7Csocket%3Atype1_combo%3Aoutput%3D50%20kW%7Csocket%3Atype2_cable%3D1%7Csocket%3Atype2_cable%3Aoutput%3D43%20kW%7Csource%3Amolplugee.hu%3Adate%3D2020-09-28 -->
  <node action="modify" id="-3" lat="47.581241999999996" lon="19.048935" timestamp="2020-09-28T10:09:21Z" uid="8635934" user="osm_poi_matchmaker" version="99999">
    <tag k="addr:city" v="Budapest"/>
    <tag k="addr:housenumber" v="255"/>
    <tag k="addr:postcode" v="1038"/>
    <tag k="addr:street" v="Szentendrei út"/>
    <tag k="authentication:app" v="yes"/>
    <tag k="authentication:none" v="yes"/>
    <tag k="brand" v="MOL"/>
    <tag k="contact:email" v="info@molplugee.hu"/>
    <tag k="contact:phone" v="+36 1 998 9888"/>
    <tag k="contact:website" v="https://molplugee.hu"/>
    <tag k="fee" v="yes"/>
    <tag k="fixme" v="verify import"/>
    <tag k="motorcar" v="yes"/>
    <tag k="name" v="MOL Plugee"/>
    <tag k="opening_hours" v="24/7"/>
    <tag k="operator" v="MOL Nyrt."/>
    <tag k="operator:addr" v="1117 Budapest, Október huszonharmadika utca 18."/>
    <tag k="parking:fee" v="no"/>
    <tag k="ref:HU:company" v="01-10-041683"/>
    <tag k="ref:vatin" v="HU10625790"/>
    <tag k="ref:vatin:hu" v="10625790-4-44"/>
    <tag k="socket:chademo" v="1"/>
    <tag k="socket:chademo:output" v="50 kW"/>
    <tag k="socket:type1_combo" v="1"/>
    <tag k="socket:type1_combo:output" v="50 kW"/>
    <tag k="socket:type2_cable" v="1"/>
    <tag k="socket:type2_cable:output" v="43 kW"/>
    <tag k="source:molplugee.hu:date" v="2020-09-28"/>
  </node>
  <!-- Original coordinates: POINT (47.57494699999999 19.080747) -->
  <!-- OSM <-> POI distance: Non exist-->
  <!-- Checker good: {not_in_water,street_is_around,street_metaphone_is_around}; bad {}-->
  <!--
Key				Status		New value		OSM value
addr:city                        N		'Budapest'
addr:housenumber                 N		'84\-90'
addr:postcode                    N		'1044'
addr:street                      N		'Váci út'
authentication:app               N		'yes'
authentication:none              N		'yes'
brand                            N		'MOL'
contact:email                    N		'info@molplugee.hu'
contact:phone                    N		'+36 1 998 9888'
contact:website                  N		'https://molplugee.hu'
fee                              N		'yes'
fixme                            N		'verify import'
motorcar                         N		'yes'
name                             N		'MOL Plugee'
opening_hours                    N		'24/7'
operator                         N		'MOL Nyrt.'
operator:addr                    N		'1117 Budapest, Október huszonharmadika utca 18.'
parking:fee                      N		'no'
ref:HU:company                   N		'01\-10\-041683'
ref:vatin                        N		'HU10625790'
ref:vatin:hu                     N		'10625790\-4\-44'
socket:chademo                   N		'1'
socket:chademo:output            N		'50 kW'
socket:type1_combo               N		'1'
socket:type1_combo:output        N		'50 kW'
socket:type2_cable               N		'1'
socket:type2_cable:output        N		'22 kW'
source:molplugee.hu:date         N		'2020\-09\-28'
-->
  <!-- JOSM magic link: http://localhost:8111/load_object?new_layer=false&objects=n-4&addtags=%7Caddr%3Acity%3DBudapest%7Caddr%3Ahousenumber%3D84-90%7Caddr%3Apostcode%3D1044%7Caddr%3Astreet%3DV%C3%A1ci%20%C3%BAt%7Cauthentication%3Aapp%3Dyes%7Cauthentication%3Anone%3Dyes%7Cbrand%3DMOL%7Ccontact%3Aemail%3Dinfo%40molplugee.hu%7Ccontact%3Aphone%3D%2B36%201%20998%209888%7Ccontact%3Awebsite%3Dhttps%3A//molplugee.hu%7Cfee%3Dyes%7Cfixme%3Dverify%20import%7Cmotorcar%3Dyes%7Cname%3DMOL%20Plugee%7Copening_hours%3D24/7%7Coperator%3DMOL%20Nyrt.%7Coperator%3Aaddr%3D1117%20Budapest%2C%20Okt%C3%B3ber%20huszonharmadika%20utca%2018.%7Cparking%3Afee%3Dno%7Cref%3AHU%3Acompany%3D01-10-041683%7Cref%3Avatin%3DHU10625790%7Cref%3Avatin%3Ahu%3D10625790-4-44%7Csocket%3Achademo%3D1%7Csocket%3Achademo%3Aoutput%3D50%20kW%7Csocket%3Atype1_combo%3D1%7Csocket%3Atype1_combo%3Aoutput%3D50%20kW%7Csocket%3Atype2_cable%3D1%7Csocket%3Atype2_cable%3Aoutput%3D22%20kW%7Csource%3Amolplugee.hu%3Adate%3D2020-09-28 -->
  <node action="modify" id="-4" lat="47.574946999999995" lon="19.080747" timestamp="2020-09-28T10:09:21Z" uid="8635934" user="osm_poi_matchmaker" version="99999">
    <tag k="addr:city" v="Budapest"/>
    <tag k="addr:housenumber" v="84-90"/>
    <tag k="addr:postcode" v="1044"/>
    <tag k="addr:street" v="Váci út"/>
    <tag k="authentication:app" v="yes"/>
    <tag k="authentication:none" v="yes"/>
    <tag k="brand" v="MOL"/>
    <tag k="contact:email" v="info@molplugee.hu"/>
    <tag k="contact:phone" v="+36 1 998 9888"/>
    <tag k="contact:website" v="https://molplugee.hu"/>
    <tag k="fee" v="yes"/>
    <tag k="fixme" v="verify import"/>
    <tag k="motorcar" v="yes"/>
    <tag k="name" v="MOL Plugee"/>
    <tag k="opening_hours" v="24/7"/>
    <tag k="operator" v="MOL Nyrt."/>
    <tag k="operator:addr" v="1117 Budapest, Október huszonharmadika utca 18."/>
    <tag k="parking:fee" v="no"/>
    <tag k="ref:HU:company" v="01-10-041683"/>
    <tag k="ref:vatin" v="HU10625790"/>
    <tag k="ref:vatin:hu" v="10625790-4-44"/>
    <tag k="socket:chademo" v="1"/>
    <tag k="socket:chademo:output" v="50 kW"/>
    <tag k="socket:type1_combo" v="1"/>
    <tag k="socket:type1_combo:output" v="50 kW"/>
    <tag k="socket:type2_cable" v="1"/>
    <tag k="socket:type2_cable:output" v="22 kW"/>
    <tag k="source:molplugee.hu:date" v="2020-09-28"/>
  </node>
  <!-- Original coordinates: POINT (47.571212 19.111053) -->
  <!-- OSM <-> POI distance: Non exist-->
  <!-- Checker good: {not_in_water,street_is_around,street_metaphone_is_around}; bad {}-->
  <!--
Key				Status		New value		OSM value
addr:city                        N		'Budapest'
addr:housenumber                 N		'130'
addr:postcode                    N		'1046'
addr:street                      N		'Fóti út'
authentication:app               N		'yes'
authentication:none              N		'yes'
brand                            N		'MOL'
contact:email                    N		'info@molplugee.hu'
contact:phone                    N		'+36 1 998 9888'
contact:website                  N		'https://molplugee.hu'
fee                              N		'yes'
fixme                            N		'verify import'
motorcar                         N		'yes'
name                             N		'MOL Plugee'
opening_hours                    N		'24/7'
operator                         N		'MOL Nyrt.'
operator:addr                    N		'1117 Budapest, Október huszonharmadika utca 18.'
parking:fee                      N		'no'
ref:HU:company                   N		'01\-10\-041683'
ref:vatin                        N		'HU10625790'
ref:vatin:hu                     N		'10625790\-4\-44'
socket:chademo                   N		'1'
socket:chademo:output            N		'50 kW'
socket:type1_combo               N		'1'
socket:type1_combo:output        N		'50 kW'
socket:type2_cable               N		'1'
socket:type2_cable:output        N		'43 kW'
source:molplugee.hu:date         N		'2020\-09\-28'
-->
  <!-- JOSM magic link: http://localhost:8111/load_object?new_layer=false&objects=n-5&addtags=%7Caddr%3Acity%3DBudapest%7Caddr%3Ahousenumber%3D130%7Caddr%3Apostcode%3D1046%7Caddr%3Astreet%3DF%C3%B3ti%20%C3%BAt%7Cauthentication%3Aapp%3Dyes%7Cauthentication%3Anone%3Dyes%7Cbrand%3DMOL%7Ccontact%3Aemail%3Dinfo%40molplugee.hu%7Ccontact%3Aphone%3D%2B36%201%20998%209888%7Ccontact%3Awebsite%3Dhttps%3A//molplugee.hu%7Cfee%3Dyes%7Cfixme%3Dverify%20import%7Cmotorcar%3Dyes%7Cname%3DMOL%20Plugee%7Copening_hours%3D24/7%7Coperator%3DMOL%20Nyrt.%7Coperator%3Aaddr%3D1117%20Budapest%2C%20Okt%C3%B3ber%20huszonharmadika%20utca%2018.%7Cparking%3Afee%3Dno%7Cref%3AHU%3Acompany%3D01-10-041683%7Cref%3Avatin%3DHU10625790%7Cref%3Avatin%3Ahu%3D10625790-4-44%7Csocket%3Achademo%3D1%7Csocket%3Achademo%3Aoutput%3D50%20kW%7Csocket%3Atype1_combo%3D1%7Csocket%3Atype1_combo%3Aoutput%3D50%20kW%7Csocket%3Atype2_cable%3D1%7Csocket%3Atype2_cable%3Aoutput%3D43%20kW%7Csource%3Amolplugee.hu%3Adate%3D2020-09-28 -->
  <node action="modify" id="-5" lat="47.571212" lon="19.111053" timestamp="2020-09-28T10:09:21Z" uid="8635934" user="osm_poi_matchmaker" version="99999">
    <tag k="addr:city" v="Budapest"/>
    <tag k="addr:housenumber" v="130"/>
    <tag k="addr:postcode" v="1046"/>
    <tag k="addr:street" v="Fóti út"/>
    <tag k="authentication:app" v="yes"/>
    <tag k="authentication:none" v="yes"/>
    <tag k="brand" v="MOL"/>
    <tag k="contact:email" v="info@molplugee.hu"/>
    <tag k="contact:phone" v="+36 1 998 9888"/>
    <tag k="contact:website" v="https://molplugee.hu"/>
    <tag k="fee" v="yes"/>
    <tag k="fixme" v="verify import"/>
    <tag k="motorcar" v="yes"/>
    <tag k="name" v="MOL Plugee"/>
    <tag k="opening_hours" v="24/7"/>
    <tag k="operator" v="MOL Nyrt."/>
    <tag k="operator:addr" v="1117 Budapest, Október huszonharmadika utca 18."/>
    <tag k="parking:fee" v="no"/>
    <tag k="ref:HU:company" v="01-10-041683"/>
    <tag k="ref:vatin" v="HU10625790"/>
    <tag k="ref:vatin:hu" v="10625790-4-44"/>
    <tag k="socket:chademo" v="1"/>
    <tag k="socket:chademo:output" v="50 kW"/>
    <tag k="socket:type1_combo" v="1"/>
    <tag k="socket:type1_combo:output" v="50 kW"/>
    <tag k="socket:type2_cable" v="1"/>
    <tag k="socket:type2_cable:output" v="43 kW"/>
    <tag k="source:molplugee.hu:date" v="2020-09-28"/>
  </node>
  <!-- OSM link: https://osm.org/node/5309980689 -->
  <!-- Original coordinates: POINT (47.499396 19.087716) -->
  <!-- OSM <-> POI distance: 5.79368148 m-->
  <!-- Checker good: {not_in_water,street_is_around,street_metaphone_is_around}; bad {}-->
  <!--
Key				Status		New value		OSM value
addr:city                        N		'Budapest'
addr:housenumber                 N		'5\-7'
addr:postcode                    N		'1087'
addr:street                      N		'Kerepesi út'
amenity                          E		'charging_station'			'charging_station'
authentication:app               N		'yes'
authentication:none              N		'yes'
brand                            N		'MOL'
contact:email                    N		'info@molplugee.hu'
contact:phone                    N		'+36 1 998 9888'
contact:website                  N		'https://molplugee.hu'
fee                              N		'yes'
motorcar                         N		'yes'
name                             N		'MOL Plugee'
opening_hours                    N		'24/7'
operator                         N		'MOL Nyrt.'
operator:addr                    N		'1117 Budapest, Október huszonharmadika utca 18.'
parking:fee                      N		'no'
ref:HU:company                   N		'01\-10\-041683'
ref:vatin                        N		'HU10625790'
ref:vatin:hu                     N		'10625790\-4\-44'
socket:chademo                   N		'1'
socket:chademo:output            N		'50 kW'
socket:type1_combo               N		'1'
socket:type1_combo:output        N		'50 kW'
socket:type2_cable               N		'1'
socket:type2_cable:output        N		'22 kW'
source:molplugee.hu:date         N		'2020\-09\-28'
-->
  <!-- JOSM magic link: http://localhost:8111/load_object?new_layer=false&objects=n5309980689&addtags=%7Caddr%3Acity%3DBudapest%7Caddr%3Ahousenumber%3D5-7%7Caddr%3Apostcode%3D1087%7Caddr%3Astreet%3DKerepesi%20%C3%BAt%7Camenity%3Dcharging_station%7Cauthentication%3Aapp%3Dyes%7Cauthentication%3Anone%3Dyes%7Cbrand%3DMOL%7Ccontact%3Aemail%3Dinfo%40molplugee.hu%7Ccontact%3Aphone%3D%2B36%201%20998%209888%7Ccontact%3Awebsite%3Dhttps%3A//molplugee.hu%7Cfee%3Dyes%7Cmotorcar%3Dyes%7Cname%3DMOL%20Plugee%7Copening_hours%3D24/7%7Coperator%3DMOL%20Nyrt.%7Coperator%3Aaddr%3D1117%20Budapest%2C%20Okt%C3%B3ber%20huszonharmadika%20utca%2018.%7Cparking%3Afee%3Dno%7Cref%3AHU%3Acompany%3D01-10-041683%7Cref%3Avatin%3DHU10625790%7Cref%3Avatin%3Ahu%3D10625790-4-44%7Csocket%3Achademo%3D1%7Csocket%3Achademo%3Aoutput%3D50%20kW%7Csocket%3Atype1_combo%3D1%7Csocket%3Atype1_combo%3Aoutput%3D50%20kW%7Csocket%3Atype2_cable%3D1%7Csocket%3Atype2_cable%3Aoutput%3D22%20kW%7Csource%3Amolplugee.hu%3Adate%3D2020-09-28 -->
  <node action="modify" id="5309980689" lat="47.4994122" lon="19.0876427" timestamp="2017-12-29T09:57:11Z" uid="8635934" user="osm_poi_matchmaker" version="1">
    <tag k="addr:city" v="Budapest"/>
    <tag k="addr:housenumber" v="5-7"/>
    <tag k="addr:postcode" v="1087"/>
    <tag k="addr:street" v="Kerepesi út"/>
    <tag k="amenity" v="charging_station"/>
    <tag k="authentication:app" v="yes"/>
    <tag k="authentication:none" v="yes"/>
    <tag k="brand" v="MOL"/>
    <tag k="contact:email" v="info@molplugee.hu"/>
    <tag k="contact:phone" v="+36 1 998 9888"/>
    <tag k="contact:website" v="https://molplugee.hu"/>
    <tag k="fee" v="yes"/>
    <tag k="motorcar" v="yes"/>
    <tag k="name" v="MOL Plugee"/>
    <tag k="opening_hours" v="24/7"/>
    <tag k="operator" v="MOL Nyrt."/>
    <tag k="operator:addr" v="1117 Budapest, Október huszonharmadika utca 18."/>
    <tag k="parking:fee" v="no"/>
    <tag k="ref:HU:company" v="01-10-041683"/>
    <tag k="ref:vatin" v="HU10625790"/>
    <tag k="ref:vatin:hu" v="10625790-4-44"/>
    <tag k="socket:chademo" v="1"/>
    <tag k="socket:chademo:output" v="50 kW"/>
    <tag k="socket:type1_combo" v="1"/>
    <tag k="socket:type1_combo:output" v="50 kW"/>
    <tag k="socket:type2_cable" v="1"/>
    <tag k="socket:type2_cable:output" v="22 kW"/>
    <tag k="source:molplugee.hu:date" v="2020-09-28"/>
  </node>
  <!-- Original coordinates: POINT (47.486005 19.093478) -->
  <!-- OSM <-> POI distance: Non exist-->
  <!-- Checker good: {not_in_water,street_is_around,street_metaphone_is_around}; bad {}-->
  <!--
Key				Status		New value		OSM value
addr:city                        N		'Budapest'
addr:postcode                    N		'1089'
addr:street                      N		'Golgota tér'
authentication:app               N		'yes'
authentication:none              N		'yes'
brand                            N		'MOL'
contact:email                    N		'info@molplugee.hu'
contact:phone                    N		'+36 1 998 9888'
contact:website                  N		'https://molplugee.hu'
fee                              N		'yes'
fixme                            N		'verify import'
motorcar                         N		'yes'
name                             N		'MOL Plugee'
opening_hours                    N		'24/7'
operator                         N		'MOL Nyrt.'
operator:addr                    N		'1117 Budapest, Október huszonharmadika utca 18.'
parking:fee                      N		'no'
ref:HU:company                   N		'01\-10\-041683'
ref:vatin                        N		'HU10625790'
ref:vatin:hu                     N		'10625790\-4\-44'
socket:chademo                   N		'1'
socket:chademo:output            N		'50 kW'
socket:type1_combo               N		'1'
socket:type1_combo:output        N		'50 kW'
socket:type2_cable               N		'1'
socket:type2_cable:output        N		'22 kW'
source:molplugee.hu:date         N		'2020\-09\-28'
-->
  <!-- JOSM magic link: http://localhost:8111/load_object?new_layer=false&objects=n-7&addtags=%7Caddr%3Acity%3DBudapest%7Caddr%3Apostcode%3D1089%7Caddr%3Astreet%3DGolgota%20t%C3%A9r%7Cauthentication%3Aapp%3Dyes%7Cauthentication%3Anone%3Dyes%7Cbrand%3DMOL%7Ccontact%3Aemail%3Dinfo%40molplugee.hu%7Ccontact%3Aphone%3D%2B36%201%20998%209888%7Ccontact%3Awebsite%3Dhttps%3A//molplugee.hu%7Cfee%3Dyes%7Cfixme%3Dverify%20import%7Cmotorcar%3Dyes%7Cname%3DMOL%20Plugee%7Copening_hours%3D24/7%7Coperator%3DMOL%20Nyrt.%7Coperator%3Aaddr%3D1117%20Budapest%2C%20Okt%C3%B3ber%20huszonharmadika%20utca%2018.%7Cparking%3Afee%3Dno%7Cref%3AHU%3Acompany%3D01-10-041683%7Cref%3Avatin%3DHU10625790%7Cref%3Avatin%3Ahu%3D10625790-4-44%7Csocket%3Achademo%3D1%7Csocket%3Achademo%3Aoutput%3D50%20kW%7Csocket%3Atype1_combo%3D1%7Csocket%3Atype1_combo%3Aoutput%3D50%20kW%7Csocket%3Atype2_cable%3D1%7Csocket%3Atype2_cable%3Aoutput%3D22%20kW%7Csource%3Amolplugee.hu%3Adate%3D2020-09-28 -->
  <node action="modify" id="-7" lat="47.486005" lon="19.093478" timestamp="2020-09-28T10:09:21Z" uid="8635934" user="osm_poi_matchmaker" version="99999">
    <tag k="addr:city" v="Budapest"/>
    <tag k="addr:postcode" v="1089"/>
    <tag k="addr:street" v="Golgota tér"/>
    <tag k="authentication:app" v="yes"/>
    <tag k="authentication:none" v="yes"/>
    <tag k="brand" v="MOL"/>
    <tag k="contact:email" v="info@molplugee.hu"/>
    <tag k="contact:phone" v="+36 1 998 9888"/>
    <tag k="contact:website" v="https://molplugee.hu"/>
    <tag k="fee" v="yes"/>
    <tag k="fixme" v="verify import"/>
    <tag k="motorcar" v="yes"/>
    <tag k="name" v="MOL Plugee"/>
    <tag k="opening_hours" v="24/7"/>
    <tag k="operator" v="MOL Nyrt."/>
    <tag k="operator:addr" v="1117 Budapest, Október huszonharmadika utca 18."/>
    <tag k="parking:fee" v="no"/>
    <tag k="ref:HU:company" v="01-10-041683"/>
    <tag k="ref:vatin" v="HU10625790"/>
    <tag k="ref:vatin:hu" v="10625790-4-44"/>
    <tag k="socket:chademo" v="1"/>
    <tag k="socket:chademo:output" v="50 kW"/>
    <tag k="socket:type1_combo" v="1"/>
    <tag k="socket:type1_combo:output" v="50 kW"/>
    <tag k="socket:type2_cable" v="1"/>
    <tag k="socket:type2_cable:output" v="22 kW"/>
    <tag k="source:molplugee.hu:date" v="2020-09-28"/>
  </node>
  <!-- Original coordinates: POINT (47.485815 19.107807) -->
  <!-- OSM <-> POI distance: Non exist-->
  <!-- Checker good: {not_in_water,street_is_around,street_metaphone_is_around}; bad {}-->
  <!--
Key				Status		New value		OSM value
addr:city                        N		'Budapest'
addr:housenumber                 N		'23'
addr:postcode                    N		'1101'
addr:street                      N		'Könyves Kálmán körút'
authentication:app               N		'yes'
authentication:none              N		'yes'
brand                            N		'MOL'
contact:email                    N		'info@molplugee.hu'
contact:phone                    N		'+36 1 998 9888'
contact:website                  N		'https://molplugee.hu'
fee                              N		'yes'
fixme                            N		'verify import'
motorcar                         N		'yes'
name                             N		'MOL Plugee'
opening_hours                    N		'24/7'
operator                         N		'MOL Nyrt.'
operator:addr                    N		'1117 Budapest, Október huszonharmadika utca 18.'
parking:fee                      N		'no'
ref:HU:company                   N		'01\-10\-041683'
ref:vatin                        N		'HU10625790'
ref:vatin:hu                     N		'10625790\-4\-44'
socket:chademo                   N		'1'
socket:chademo:output            N		'50 kW'
socket:type1_combo               N		'1'
socket:type1_combo:output        N		'50 kW'
socket:type2_cable               N		'1'
socket:type2_cable:output        N		'22 kW'
source:molplugee.hu:date         N		'2020\-09\-28'
-->
  <!-- JOSM magic link: http://localhost:8111/load_object?new_layer=false&objects=n-8&addtags=%7Caddr%3Acity%3DBudapest%7Caddr%3Ahousenumber%3D23%7Caddr%3Apostcode%3D1101%7Caddr%3Astreet%3DK%C3%B6nyves%20K%C3%A1lm%C3%A1n%20k%C3%B6r%C3%BAt%7Cauthentication%3Aapp%3Dyes%7Cauthentication%3Anone%3Dyes%7Cbrand%3DMOL%7Ccontact%3Aemail%3Dinfo%40molplugee.hu%7Ccontact%3Aphone%3D%2B36%201%20998%209888%7Ccontact%3Awebsite%3Dhttps%3A//molplugee.hu%7Cfee%3Dyes%7Cfixme%3Dverify%20import%7Cmotorcar%3Dyes%7Cname%3DMOL%20Plugee%7Copening_hours%3D24/7%7Coperator%3DMOL%20Nyrt.%7Coperator%3Aaddr%3D1117%20Budapest%2C%20Okt%C3%B3ber%20huszonharmadika%20utca%2018.%7Cparking%3Afee%3Dno%7Cref%3AHU%3Acompany%3D01-10-041683%7Cref%3Avatin%3DHU10625790%7Cref%3Avatin%3Ahu%3D10625790-4-44%7Csocket%3Achademo%3D1%7Csocket%3Achademo%3Aoutput%3D50%20kW%7Csocket%3Atype1_combo%3D1%7Csocket%3Atype1_combo%3Aoutput%3D50%20kW%7Csocket%3Atype2_cable%3D1%7Csocket%3Atype2_cable%3Aoutput%3D22%20kW%7Csource%3Amolplugee.hu%3Adate%3D2020-09-28 -->
  <node action="modify" id="-8" lat="47.485815" lon="19.107807" timestamp="2020-09-28T10:09:21Z" uid="8635934" user="osm_poi_matchmaker" version="99999">
    <tag k="addr:city" v="Budapest"/>
    <tag k="addr:housenumber" v="23"/>
    <tag k="addr:postcode" v="1101"/>
    <tag k="addr:street" v="Könyves Kálmán körút"/>
    <tag k="authentication:app" v="yes"/>
    <tag k="authentication:none" v="yes"/>
    <tag k="brand" v="MOL"/>
    <tag k="contact:email" v="info@molplugee.hu"/>
    <tag k="contact:phone" v="+36 1 998 9888"/>
    <tag k="contact:website" v="https://molplugee.hu"/>
    <tag k="fee" v="yes"/>
    <tag k="fixme" v="verify import"/>
    <tag k="motorcar" v="yes"/>
    <tag k="name" v="MOL Plugee"/>
    <tag k="opening_hours" v="24/7"/>
    <tag k="operator" v="MOL Nyrt."/>
    <tag k="operator:addr" v="1117 Budapest, Október huszonharmadika utca 18."/>
    <tag k="parking:fee" v="no"/>
    <tag k="ref:HU:company" v="01-10-041683"/>
    <tag k="ref:vatin" v="HU10625790"/>
    <tag k="ref:vatin:hu" v="10625790-4-44"/>
    <tag k="socket:chademo" v="1"/>
    <tag k="socket:chademo:output" v="50 kW"/>
    <tag k="socket:type1_combo" v="1"/>
    <tag k="socket:type1_combo:output" v="50 kW"/>
    <tag k="socket:type2_cable" v="1"/>
    <tag k="socket:type2_cable:output" v="22 kW"/>
    <tag k="source:molplugee.hu:date" v="2020-09-28"/>
  </node>
  <!-- Original coordinates: POINT (47.474743 19.025) -->
  <!-- OSM <-> POI distance: Non exist-->
  <!-- Checker good: {not_in_water,street_is_around,street_metaphone_is_around}; bad {}-->
  <!--
Key				Status		New value		OSM value
addr:city                        N		'Budapest'
addr:housenumber                 N		'47'
addr:postcode                    N		'1113'
addr:street                      N		'Nagyszőlős utca'
authentication:app               N		'yes'
authentication:none              N		'yes'
brand                            N		'MOL'
contact:email                    N		'info@molplugee.hu'
contact:phone                    N		'+36 1 998 9888'
contact:website                  N		'https://molplugee.hu'
fee                              N		'yes'
fixme                            N		'verify import'
motorcar                         N		'yes'
name                             N		'MOL Plugee'
opening_hours                    N		'24/7'
operator                         N		'MOL Nyrt.'
operator:addr                    N		'1117 Budapest, Október huszonharmadika utca 18.'
parking:fee                      N		'no'
ref:HU:company                   N		'01\-10\-041683'
ref:vatin                        N		'HU10625790'
ref:vatin:hu                     N		'10625790\-4\-44'
socket:chademo                   N		'1'
socket:chademo:output            N		'75 kW'
socket:type1_combo               N		'1'
socket:type1_combo:output        N		'75 kW'
socket:type2_cable               N		'1'
socket:type2_cable:output        N		'22 kW'
source:molplugee.hu:date         N		'2020\-09\-28'
-->
  <!-- JOSM magic link: http://localhost:8111/load_object?new_layer=false&objects=n-9&addtags=%7Caddr%3Acity%3DBudapest%7Caddr%3Ahousenumber%3D47%7Caddr%3Apostcode%3D1113%7Caddr%3Astreet%3DNagysz%C5%91l%C5%91s%20utca%7Cauthentication%3Aapp%3Dyes%7Cauthentication%3Anone%3Dyes%7Cbrand%3DMOL%7Ccontact%3Aemail%3Dinfo%40molplugee.hu%7Ccontact%3Aphone%3D%2B36%201%20998%209888%7Ccontact%3Awebsite%3Dhttps%3A//molplugee.hu%7Cfee%3Dyes%7Cfixme%3Dverify%20import%7Cmotorcar%3Dyes%7Cname%3DMOL%20Plugee%7Copening_hours%3D24/7%7Coperator%3DMOL%20Nyrt.%7Coperator%3Aaddr%3D1117%20Budapest%2C%20Okt%C3%B3ber%20huszonharmadika%20utca%2018.%7Cparking%3Afee%3Dno%7Cref%3AHU%3Acompany%3D01-10-041683%7Cref%3Avatin%3DHU10625790%7Cref%3Avatin%3Ahu%3D10625790-4-44%7Csocket%3Achademo%3D1%7Csocket%3Achademo%3Aoutput%3D75%20kW%7Csocket%3Atype1_combo%3D1%7Csocket%3Atype1_combo%3Aoutput%3D75%20kW%7Csocket%3Atype2_cable%3D1%7Csocket%3Atype2_cable%3Aoutput%3D22%20kW%7Csource%3Amolplugee.hu%3Adate%3D2020-09-28 -->
  <node action="modify" id="-9" lat="47.474743" lon="19.025" timestamp="2020-09-28T10:09:21Z" uid="8635934" user="osm_poi_matchmaker" version="99999">
    <tag k="addr:city" v="Budapest"/>
    <tag k="addr:housenumber" v="47"/>
    <tag k="addr:postcode" v="1113"/>
    <tag k="addr:street" v="Nagyszőlős utca"/>
    <tag k="authentication:app" v="yes"/>
    <tag k="authentication:none" v="yes"/>
    <tag k="brand" v="MOL"/>
    <tag k="contact:email" v="info@molplugee.hu"/>
    <tag k="contact:phone" v="+36 1 998 9888"/>
    <tag k="contact:website" v="https://molplugee.hu"/>
    <tag k="fee" v="yes"/>
    <tag k="fixme" v="verify import"/>
    <tag k="motorcar" v="yes"/>
    <tag k="name" v="MOL Plugee"/>
    <tag k="opening_hours" v="24/7"/>
    <tag k="operator" v="MOL Nyrt."/>
    <tag k="operator:addr" v="1117 Budapest, Október huszonharmadika utca 18."/>
    <tag k="parking:fee" v="no"/>
    <tag k="ref:HU:company" v="01-10-041683"/>
    <tag k="ref:vatin" v="HU10625790"/>
    <tag k="ref:vatin:hu" v="10625790-4-44"/>
    <tag k="socket:chademo" v="1"/>
    <tag k="socket:chademo:output" v="75 kW"/>
    <tag k="socket:type1_combo" v="1"/>
    <tag k="socket:type1_combo:output" v="75 kW"/>
    <tag k="socket:type2_cable" v="1"/>
    <tag k="socket:type2_cable:output" v="22 kW"/>
    <tag k="source:molplugee.hu:date" v="2020-09-28"/>
  </node>
  <!-- Original coordinates: POINT (47.448977 19.04903) -->
  <!-- OSM <-> POI distance: Non exist-->
  <!-- Checker good: {not_in_water,street_is_around,street_metaphone_is_around}; bad {}-->
  <!--
Key				Status		New value		OSM value
addr:city                        N		'Budapest'
addr:housenumber                 N		'2'
addr:postcode                    N		'1117'
addr:street                      N		'Hunyadi János út'
authentication:app               N		'yes'
authentication:none              N		'yes'
brand                            N		'MOL'
contact:email                    N		'info@molplugee.hu'
contact:phone                    N		'+36 1 998 9888'
contact:website                  N		'https://molplugee.hu'
fee                              N		'yes'
fixme                            N		'verify import'
motorcar                         N		'yes'
name                             N		'MOL Plugee'
opening_hours                    N		'24/7'
operator                         N		'MOL Nyrt.'
operator:addr                    N		'1117 Budapest, Október huszonharmadika utca 18.'
parking:fee                      N		'no'
ref:HU:company                   N		'01\-10\-041683'
ref:vatin                        N		'HU10625790'
ref:vatin:hu                     N		'10625790\-4\-44'
socket:chademo                   N		'1'
socket:chademo:output            N		'50 kW'
socket:type1_combo               N		'1'
socket:type1_combo:output        N		'50 kW'
socket:type2_cable               N		'1'
socket:type2_cable:output        N		'22 kW'
source:molplugee.hu:date         N		'2020\-09\-28'
-->
  <!-- JOSM magic link: http://localhost:8111/load_object?new_layer=false&objects=n-10&addtags=%7Caddr%3Acity%3DBudapest%7Caddr%3Ahousenumber%3D2%7Caddr%3Apostcode%3D1117%7Caddr%3Astreet%3DHunyadi%20J%C3%A1nos%20%C3%BAt%7Cauthentication%3Aapp%3Dyes%7Cauthentication%3Anone%3Dyes%7Cbrand%3DMOL%7Ccontact%3Aemail%3Dinfo%40molplugee.hu%7Ccontact%3Aphone%3D%2B36%201%20998%209888%7Ccontact%3Awebsite%3Dhttps%3A//molplugee.hu%7Cfee%3Dyes%7Cfixme%3Dverify%20import%7Cmotorcar%3Dyes%7Cname%3DMOL%20Plugee%7Copening_hours%3D24/7%7Coperator%3DMOL%20Nyrt.%7Coperator%3Aaddr%3D1117%20Budapest%2C%20Okt%C3%B3ber%20huszonharmadika%20utca%2018.%7Cparking%3Afee%3Dno%7Cref%3AHU%3Acompany%3D01-10-041683%7Cref%3Avatin%3DHU10625790%7Cref%3Avatin%3Ahu%3D10625790-4-44%7Csocket%3Achademo%3D1%7Csocket%3Achademo%3Aoutput%3D50%20kW%7Csocket%3Atype1_combo%3D1%7Csocket%3Atype1_combo%3Aoutput%3D50%20kW%7Csocket%3Atype2_cable%3D1%7Csocket%3Atype2_cable%3Aoutput%3D22%20kW%7Csource%3Amolplugee.hu%3Adate%3D2020-09-28 -->
  <node action="modify" id="-10" lat="47.448977" lon="19.04903" timestamp="2020-09-28T10:09:21Z" uid="8635934" user="osm_poi_matchmaker" version="99999">
    <tag k="addr:city" v="Budapest"/>
    <tag k="addr:housenumber" v="2"/>
    <tag k="addr:postcode" v="1117"/>
    <tag k="addr:street" v="Hunyadi János út"/>
    <tag k="authentication:app" v="yes"/>
    <tag k="authentication:none" v="yes"/>
    <tag k="brand" v="MOL"/>
    <tag k="contact:email" v="info@molplugee.hu"/>
    <tag k="contact:phone" v="+36 1 998 9888"/>
    <tag k="contact:website" v="https://molplugee.hu"/>
    <tag k="fee" v="yes"/>
    <tag k="fixme" v="verify import"/>
    <tag k="motorcar" v="yes"/>
    <tag k="name" v="MOL Plugee"/>
    <tag k="opening_hours" v="24/7"/>
    <tag k="operator" v="MOL Nyrt."/>
    <tag k="operator:addr" v="1117 Budapest, Október huszonharmadika utca 18."/>
    <tag k="parking:fee" v="no"/>
    <tag k="ref:HU:company" v="01-10-041683"/>
    <tag k="ref:vatin" v="HU10625790"/>
    <tag k="ref:vatin:hu" v="10625790-4-44"/>
    <tag k="socket:chademo" v="1"/>
    <tag k="socket:chademo:output" v="50 kW"/>
    <tag k="socket:type1_combo" v="1"/>
    <tag k="socket:type1_combo:output" v="50 kW"/>
    <tag k="socket:type2_cable" v="1"/>
    <tag k="socket:type2_cable:output" v="22 kW"/>
    <tag k="source:molplugee.hu:date" v="2020-09-28"/>
  </node>
  <!-- OSM link: https://osm.org/node/1803845740 -->
  <!-- Original coordinates: POINT (47.5035 19.003745) -->
  <!-- OSM <-> POI distance: 19.7820037 m-->
  <!-- Checker good: {not_in_water,street_is_around,street_metaphone_is_around}; bad {}-->
  <!--
Key				Status		New value		OSM value
addr:city                        N		'Budapest'
addr:housenumber                 N		'55'
addr:postcode                    N		'1125'
addr:street                      N		'Istenhegyi út'
amenity                          E		'charging_station'			'charging_station'
amperage                         E		'120'			'120'
authentication:app               N		'yes'
authentication:none              N		'yes'
brand                            N		'MOL'
contact:email                    N		'info@molplugee.hu'
contact:phone                    N		'+36 1 998 9888'
contact:website                  N		'https://molplugee.hu'
fee                              N		'yes'
motorcar                         N		'yes'
name                             N		'MOL Plugee'
opening_hours                    N		'24/7'
operator                         N		'MOL Nyrt.'
operator:addr                    N		'1117 Budapest, Október huszonharmadika utca 18.'
parking:fee                      N		'no'
ref:HU:company                   N		'01\-10\-041683'
ref:vatin                        N		'HU10625790'
ref:vatin:hu                     N		'10625790\-4\-44'
socket:chademo                   N		'1'
socket:chademo:output            N		'50 kW'
socket:type1_combo               N		'1'
socket:type1_combo:output        N		'50 kW'
socket:type2_cable               N		'1'
socket:type2_cable:output        N		'22 kW'
source:molplugee.hu:date         N		'2020\-09\-28'
voltage                          E		'500'			'500'
-->
  <!-- JOSM magic link: http://localhost:8111/load_object?new_layer=false&objects=n1803845740&addtags=%7Caddr%3Acity%3DBudapest%7Caddr%3Ahousenumber%3D55%7Caddr%3Apostcode%3D1125%7Caddr%3Astreet%3DIstenhegyi%20%C3%BAt%7Camenity%3Dcharging_station%7Camperage%3D120%7Cauthentication%3Aapp%3Dyes%7Cauthentication%3Anone%3Dyes%7Cbrand%3DMOL%7Ccontact%3Aemail%3Dinfo%40molplugee.hu%7Ccontact%3Aphone%3D%2B36%201%20998%209888%7Ccontact%3Awebsite%3Dhttps%3A//molplugee.hu%7Cfee%3Dyes%7Cmotorcar%3Dyes%7Cname%3DMOL%20Plugee%7Copening_hours%3D24/7%7Coperator%3DMOL%20Nyrt.%7Coperator%3Aaddr%3D1117%20Budapest%2C%20Okt%C3%B3ber%20huszonharmadika%20utca%2018.%7Cparking%3Afee%3Dno%7Cref%3AHU%3Acompany%3D01-10-041683%7Cref%3Avatin%3DHU10625790%7Cref%3Avatin%3Ahu%3D10625790-4-44%7Csocket%3Achademo%3D1%7Csocket%3Achademo%3Aoutput%3D50%20kW%7Csocket%3Atype1_combo%3D1%7Csocket%3Atype1_combo%3Aoutput%3D50%20kW%7Csocket%3Atype2_cable%3D1%7Csocket%3Atype2_cable%3Aoutput%3D22%20kW%7Csource%3Amolplugee.hu%3Adate%3D2020-09-28%7Cvoltage%3D500 -->
  <node action="modify" id="1803845740" lat="47.5035447" lon="19.0034901" timestamp="2012-06-27T12:01:13Z" uid="8635934" user="osm_poi_matchmaker" version="1">
    <tag k="addr:city" v="Budapest"/>
    <tag k="addr:housenumber" v="55"/>
    <tag k="addr:postcode" v="1125"/>
    <tag k="addr:street" v="Istenhegyi út"/>
    <tag k="amenity" v="charging_station"/>
    <tag k="amperage" v="120"/>
    <tag k="authentication:app" v="yes"/>
    <tag k="authentication:none" v="yes"/>
    <tag k="brand" v="MOL"/>
    <tag k="contact:email" v="info@molplugee.hu"/>
    <tag k="contact:phone" v="+36 1 998 9888"/>
    <tag k="contact:website" v="https://molplugee.hu"/>
    <tag k="fee" v="yes"/>
    <tag k="motorcar" v="yes"/>
    <tag k="name" v="MOL Plugee"/>
    <tag k="opening_hours" v="24/7"/>
    <tag k="operator" v="MOL Nyrt."/>
    <tag k="operator:addr" v="1117 Budapest, Október huszonharmadika utca 18."/>
    <tag k="parking:fee" v="no"/>
    <tag k="ref:HU:company" v="01-10-041683"/>
    <tag k="ref:vatin" v="HU10625790"/>
    <tag k="ref:vatin:hu" v="10625790-4-44"/>
    <tag k="socket:chademo" v="1"/>
    <tag k="socket:chademo:output" v="50 kW"/>
    <tag k="socket:type1_combo" v="1"/>
    <tag k="socket:type1_combo:output" v="50 kW"/>
    <tag k="socket:type2_cable" v="1"/>
    <tag k="socket:type2_cable:output" v="22 kW"/>
    <tag k="source:molplugee.hu:date" v="2020-09-28"/>
    <tag k="voltage" v="500"/>
  </node>
  <!-- Original coordinates: POINT (47.521655 19.062389) -->
  <!-- OSM <-> POI distance: Non exist-->
  <!-- Checker good: {not_in_water,street_is_around,street_metaphone_is_around}; bad {}-->
  <!--
Key				Status		New value		OSM value
addr:city                        N		'Budapest'
addr:housenumber                 N		'19'
addr:postcode                    N		'1134'
addr:street                      N		'Váci út'
authentication:app               N		'yes'
authentication:none              N		'yes'
brand                            N		'MOL'
contact:email                    N		'info@molplugee.hu'
contact:phone                    N		'+36 1 998 9888'
contact:website                  N		'https://molplugee.hu'
fee                              N		'yes'
fixme                            N		'verify import'
motorcar                         N		'yes'
name                             N		'MOL Plugee'
opening_hours                    N		'24/7'
operator                         N		'MOL Nyrt.'
operator:addr                    N		'1117 Budapest, Október huszonharmadika utca 18.'
parking:fee                      N		'no'
ref:HU:company                   N		'01\-10\-041683'
ref:vatin                        N		'HU10625790'
ref:vatin:hu                     N		'10625790\-4\-44'
socket:chademo                   N		'1'
socket:chademo:output            N		'50 kW'
socket:type1_combo               N		'1'
socket:type1_combo:output        N		'50 kW'
socket:type2_cable               N		'1'
socket:type2_cable:output        N		'22 kW'
source:molplugee.hu:date         N		'2020\-09\-28'
-->
  <!-- JOSM magic link: http://localhost:8111/load_object?new_layer=false&objects=n-12&addtags=%7Caddr%3Acity%3DBudapest%7Caddr%3Ahousenumber%3D19%7Caddr%3Apostcode%3D1134%7Caddr%3Astreet%3DV%C3%A1ci%20%C3%BAt%7Cauthentication%3Aapp%3Dyes%7Cauthentication%3Anone%3Dyes%7Cbrand%3DMOL%7Ccontact%3Aemail%3Dinfo%40molplugee.hu%7Ccontact%3Aphone%3D%2B36%201%20998%209888%7Ccontact%3Awebsite%3Dhttps%3A//molplugee.hu%7Cfee%3Dyes%7Cfixme%3Dverify%20import%7Cmotorcar%3Dyes%7Cname%3DMOL%20Plugee%7Copening_hours%3D24/7%7Coperator%3DMOL%20Nyrt.%7Coperator%3Aaddr%3D1117%20Budapest%2C%20Okt%C3%B3ber%20huszonharmadika%20utca%2018.%7Cparking%3Afee%3Dno%7Cref%3AHU%3Acompany%3D01-10-041683%7Cref%3Avatin%3DHU10625790%7Cref%3Avatin%3Ahu%3D10625790-4-44%7Csocket%3Achademo%3D1%7Csocket%3Achademo%3Aoutput%3D50%20kW%7Csocket%3Atype1_combo%3D1%7Csocket%3Atype1_combo%3Aoutput%3D50%20kW%7Csocket%3Atype2_cable%3D1%7Csocket%3Atype2_cable%3Aoutput%3D22%20kW%7Csource%3Amolplugee.hu%3Adate%3D2020-09-28 -->
  <node action="modify" id="-12" lat="47.521654999999996" lon="19.062389000000003" timestamp="2020-09-28T10:09:21Z" uid="8635934" user="osm_poi_matchmaker" version="99999">
    <tag k="addr:city" v="Budapest"/>
    <tag k="addr:housenumber" v="19"/>
    <tag k="addr:postcode" v="1134"/>
    <tag k="addr:street" v="Váci út"/>
    <tag k="authentication:app" v="yes"/>
    <tag k="authentication:none" v="yes"/>
    <tag k="brand" v="MOL"/>
    <tag k="contact:email" v="info@molplugee.hu"/>
    <tag k="contact:phone" v="+36 1 998 9888"/>
    <tag k="contact:website" v="https://molplugee.hu"/>
    <tag k="fee" v="yes"/>
    <tag k="fixme" v="verify import"/>
    <tag k="motorcar" v="yes"/>
    <tag k="name" v="MOL Plugee"/>
    <tag k="opening_hours" v="24/7"/>
    <tag k="operator" v="MOL Nyrt."/>
    <tag k="operator:addr" v="1117 Budapest, Október huszonharmadika utca 18."/>
    <tag k="parking:fee" v="no"/>
    <tag k="ref:HU:company" v="01-10-041683"/>
    <tag k="ref:vatin" v="HU10625790"/>
    <tag k="ref:vatin:hu" v="10625790-4-44"/>
    <tag k="socket:chademo" v="1"/>
    <tag k="socket:chademo:output" v="50 kW"/>
    <tag k="socket:type1_combo" v="1"/>
    <tag k="socket:type1_combo:output" v="50 kW"/>
    <tag k="socket:type2_cable" v="1"/>
    <tag k="socket:type2_cable:output" v="22 kW"/>
    <tag k="source:molplugee.hu:date" v="2020-09-28"/>
  </node>
  <!-- Original coordinates: POINT (47.52264 19.081255) -->
  <!-- OSM <-> POI distance: Non exist-->
  <!-- Checker good: {not_in_water,street_is_around,street_metaphone_is_around}; bad {}-->
  <!--
Key				Status		New value		OSM value
addr:city                        N		'Budapest'
addr:housenumber                 N		'21'
addr:postcode                    N		'1135'
addr:street                      N		'Vágány utca'
authentication:app               N		'yes'
authentication:none              N		'yes'
brand                            N		'MOL'
contact:email                    N		'info@molplugee.hu'
contact:phone                    N		'+36 1 998 9888'
contact:website                  N		'https://molplugee.hu'
fee                              N		'yes'
fixme                            N		'verify import'
motorcar                         N		'yes'
name                             N		'MOL Plugee'
opening_hours                    N		'24/7'
operator                         N		'MOL Nyrt.'
operator:addr                    N		'1117 Budapest, Október huszonharmadika utca 18.'
parking:fee                      N		'no'
ref:HU:company                   N		'01\-10\-041683'
ref:vatin                        N		'HU10625790'
ref:vatin:hu                     N		'10625790\-4\-44'
socket:chademo                   N		'1'
socket:chademo:output            N		'50 kW'
socket:type1_combo               N		'1'
socket:type1_combo:output        N		'50 kW'
socket:type2_cable               N		'1'
socket:type2_cable:output        N		'22 kW'
source:molplugee.hu:date         N		'2020\-09\-28'
-->
  <!-- JOSM magic link: http://localhost:8111/load_object?new_layer=false&objects=n-13&addtags=%7Caddr%3Acity%3DBudapest%7Caddr%3Ahousenumber%3D21%7Caddr%3Apostcode%3D1135%7Caddr%3Astreet%3DV%C3%A1g%C3%A1ny%20utca%7Cauthentication%3Aapp%3Dyes%7Cauthentication%3Anone%3Dyes%7Cbrand%3DMOL%7Ccontact%3Aemail%3Dinfo%40molplugee.hu%7Ccontact%3Aphone%3D%2B36%201%20998%209888%7Ccontact%3Awebsite%3Dhttps%3A//molplugee.hu%7Cfee%3Dyes%7Cfixme%3Dverify%20import%7Cmotorcar%3Dyes%7Cname%3DMOL%20Plugee%7Copening_hours%3D24/7%7Coperator%3DMOL%20Nyrt.%7Coperator%3Aaddr%3D1117%20Budapest%2C%20Okt%C3%B3ber%20huszonharmadika%20utca%2018.%7Cparking%3Afee%3Dno%7Cref%3AHU%3Acompany%3D01-10-041683%7Cref%3Avatin%3DHU10625790%7Cref%3Avatin%3Ahu%3D10625790-4-44%7Csocket%3Achademo%3D1%7Csocket%3Achademo%3Aoutput%3D50%20kW%7Csocket%3Atype1_combo%3D1%7Csocket%3Atype1_combo%3Aoutput%3D50%20kW%7Csocket%3Atype2_cable%3D1%7Csocket%3Atype2_cable%3Aoutput%3D22%20kW%7Csource%3Amolplugee.hu%3Adate%3D2020-09-28 -->
  <node action="modify" id="-13" lat="47.52264" lon="19.081255" timestamp="2020-09-28T10:09:21Z" uid="8635934" user="osm_poi_matchmaker" version="99999">
    <tag k="addr:city" v="Budapest"/>
    <tag k="addr:housenumber" v="21"/>
    <tag k="addr:postcode" v="1135"/>
    <tag k="addr:street" v="Vágány utca"/>
    <tag k="authentication:app" v="yes"/>
    <tag k="authentication:none" v="yes"/>
    <tag k="brand" v="MOL"/>
    <tag k="contact:email" v="info@molplugee.hu"/>
    <tag k="contact:phone" v="+36 1 998 9888"/>
    <tag k="contact:website" v="https://molplugee.hu"/>
    <tag k="fee" v="yes"/>
    <tag k="fixme" v="verify import"/>
    <tag k="motorcar" v="yes"/>
    <tag k="name" v="MOL Plugee"/>
    <tag k="opening_hours" v="24/7"/>
    <tag k="operator" v="MOL Nyrt."/>
    <tag k="operator:addr" v="1117 Budapest, Október huszonharmadika utca 18."/>
    <tag k="parking:fee" v="no"/>
    <tag k="ref:HU:company" v="01-10-041683"/>
    <tag k="ref:vatin" v="HU10625790"/>
    <tag k="ref:vatin:hu" v="10625790-4-44"/>
    <tag k="socket:chademo" v="1"/>
    <tag k="socket:chademo:output" v="50 kW"/>
    <tag k="socket:type1_combo" v="1"/>
    <tag k="socket:type1_combo:output" v="50 kW"/>
    <tag k="socket:type2_cable" v="1"/>
    <tag k="socket:type2_cable:output" v="22 kW"/>
    <tag k="source:molplugee.hu:date" v="2020-09-28"/>
  </node>
  <!-- Original coordinates: POINT (47.37902800000001 19.130408) -->
  <!-- OSM <-> POI distance: Non exist-->
  <!-- Checker good: {not_in_water}; bad {street_is_not_around,street_metaphone_is_not_around}-->
  <!--
Key				Status		New value		OSM value
addr:city                        N		'Budapest'
addr:housenumber                 N		'22'
addr:postcode                    N		'1239'
addr:street                      N		'Ócsai utca'
authentication:app               N		'yes'
authentication:none              N		'yes'
brand                            N		'MOL'
contact:email                    N		'info@molplugee.hu'
contact:phone                    N		'+36 1 998 9888'
contact:website                  N		'https://molplugee.hu'
fee                              N		'yes'
fixme                            N		'verify import'
motorcar                         N		'yes'
name                             N		'MOL Plugee'
opening_hours                    N		'24/7'
operator                         N		'MOL Nyrt.'
operator:addr                    N		'1117 Budapest, Október huszonharmadika utca 18.'
parking:fee                      N		'no'
ref:HU:company                   N		'01\-10\-041683'
ref:vatin                        N		'HU10625790'
ref:vatin:hu                     N		'10625790\-4\-44'
socket:chademo                   N		'1'
socket:chademo:output            N		'50 kW'
socket:type1_combo               N		'1'
socket:type1_combo:output        N		'50 kW'
socket:type2_cable               N		'1'
socket:type2_cable:output        N		'43 kW'
source:molplugee.hu:date         N		'2020\-09\-28'
-->
  <!-- JOSM magic link: http://localhost:8111/load_object?new_layer=false&objects=n-14&addtags=%7Caddr%3Acity%3DBudapest%7Caddr%3Ahousenumber%3D22%7Caddr%3Apostcode%3D1239%7Caddr%3Astreet%3D%C3%93csai%20utca%7Cauthentication%3Aapp%3Dyes%7Cauthentication%3Anone%3Dyes%7Cbrand%3DMOL%7Ccontact%3Aemail%3Dinfo%40molplugee.hu%7Ccontact%3Aphone%3D%2B36%201%20998%209888%7Ccontact%3Awebsite%3Dhttps%3A//molplugee.hu%7Cfee%3Dyes%7Cfixme%3Dverify%20import%7Cmotorcar%3Dyes%7Cname%3DMOL%20Plugee%7Copening_hours%3D24/7%7Coperator%3DMOL%20Nyrt.%7Coperator%3Aaddr%3D1117%20Budapest%2C%20Okt%C3%B3ber%20huszonharmadika%20utca%2018.%7Cparking%3Afee%3Dno%7Cref%3AHU%3Acompany%3D01-10-041683%7Cref%3Avatin%3DHU10625790%7Cref%3Avatin%3Ahu%3D10625790-4-44%7Csocket%3Achademo%3D1%7Csocket%3Achademo%3Aoutput%3D50%20kW%7Csocket%3Atype1_combo%3D1%7Csocket%3Atype1_combo%3Aoutput%3D50%20kW%7Csocket%3Atype2_cable%3D1%7Csocket%3Atype2_cable%3Aoutput%3D43%20kW%7Csource%3Amolplugee.hu%3Adate%3D2020-09-28 -->
  <node action="modify" id="-14" lat="47.379028000000005" lon="19.130408" timestamp="2020-09-28T10:09:21Z" uid="8635934" user="osm_poi_matchmaker" version="99999">
    <tag k="addr:city" v="Budapest"/>
    <tag k="addr:housenumber" v="22"/>
    <tag k="addr:postcode" v="1239"/>
    <tag k="addr:street" v="Ócsai utca"/>
    <tag k="authentication:app" v="yes"/>
    <tag k="authentication:none" v="yes"/>
    <tag k="brand" v="MOL"/>
    <tag k="contact:email" v="info@molplugee.hu"/>
    <tag k="contact:phone" v="+36 1 998 9888"/>
    <tag k="contact:website" v="https://molplugee.hu"/>
    <tag k="fee" v="yes"/>
    <tag k="fixme" v="verify import"/>
    <tag k="motorcar" v="yes"/>
    <tag k="name" v="MOL Plugee"/>
    <tag k="opening_hours" v="24/7"/>
    <tag k="operator" v="MOL Nyrt."/>
    <tag k="operator:addr" v="1117 Budapest, Október huszonharmadika utca 18."/>
    <tag k="parking:fee" v="no"/>
    <tag k="ref:HU:company" v="01-10-041683"/>
    <tag k="ref:vatin" v="HU10625790"/>
    <tag k="ref:vatin:hu" v="10625790-4-44"/>
    <tag k="socket:chademo" v="1"/>
    <tag k="socket:chademo:output" v="50 kW"/>
    <tag k="socket:type1_combo" v="1"/>
    <tag k="socket:type1_combo:output" v="50 kW"/>
    <tag k="socket:type2_cable" v="1"/>
    <tag k="socket:type2_cable:output" v="43 kW"/>
    <tag k="source:molplugee.hu:date" v="2020-09-28"/>
  </node>
  <!-- Original coordinates: POINT (47.419449 19.245923) -->
  <!-- OSM <-> POI distance: Non exist-->
  <!-- Checker good: {not_in_water,street_is_around,street_metaphone_is_around}; bad {}-->
  <!--
Key				Status		New value		OSM value
addr:city                        N		'Vecsés'
addr:postcode                    N		'2220'
addr:street                      N		'Fő út'
authentication:app               N		'yes'
authentication:none              N		'yes'
brand                            N		'MOL'
contact:email                    N		'info@molplugee.hu'
contact:phone                    N		'+36 1 998 9888'
contact:website                  N		'https://molplugee.hu'
fee                              N		'yes'
fixme                            N		'verify import'
motorcar                         N		'yes'
name                             N		'MOL Plugee'
opening_hours                    N		'24/7'
operator                         N		'MOL Nyrt.'
operator:addr                    N		'1117 Budapest, Október huszonharmadika utca 18.'
parking:fee                      N		'no'
ref:HU:company                   N		'01\-10\-041683'
ref:vatin                        N		'HU10625790'
ref:vatin:hu                     N		'10625790\-4\-44'
socket:chademo                   N		'1'
socket:chademo:output            N		'50 kW'
socket:type1_combo               N		'1'
socket:type1_combo:output        N		'50 kW'
socket:type2_cable               N		'1'
socket:type2_cable:output        N		'43 kW'
source:molplugee.hu:date         N		'2020\-09\-28'
-->
  <!-- JOSM magic link: http://localhost:8111/load_object?new_layer=false&objects=n-15&addtags=%7Caddr%3Acity%3DVecs%C3%A9s%7Caddr%3Apostcode%3D2220%7Caddr%3Astreet%3DF%C5%91%20%C3%BAt%7Cauthentication%3Aapp%3Dyes%7Cauthentication%3Anone%3Dyes%7Cbrand%3DMOL%7Ccontact%3Aemail%3Dinfo%40molplugee.hu%7Ccontact%3Aphone%3D%2B36%201%20998%209888%7Ccontact%3Awebsite%3Dhttps%3A//molplugee.hu%7Cfee%3Dyes%7Cfixme%3Dverify%20import%7Cmotorcar%3Dyes%7Cname%3DMOL%20Plugee%7Copening_hours%3D24/7%7Coperator%3DMOL%20Nyrt.%7Coperator%3Aaddr%3D1117%20Budapest%2C%20Okt%C3%B3ber%20huszonharmadika%20utca%2018.%7Cparking%3Afee%3Dno%7Cref%3AHU%3Acompany%3D01-10-041683%7Cref%3Avatin%3DHU10625790%7Cref%3Avatin%3Ahu%3D10625790-4-44%7Csocket%3Achademo%3D1%7Csocket%3Achademo%3Aoutput%3D50%20kW%7Csocket%3Atype1_combo%3D1%7Csocket%3Atype1_combo%3Aoutput%3D50%20kW%7Csocket%3Atype2_cable%3D1%7Csocket%3Atype2_cable%3Aoutput%3D43%20kW%7Csource%3Amolplugee.hu%3Adate%3D2020-09-28 -->
  <node action="modify" id="-15" lat="47.419449" lon="19.245923" timestamp="2020-09-28T10:09:21Z" uid="8635934" user="osm_poi_matchmaker" version="99999">
    <tag k="addr:city" v="Vecsés"/>
    <tag k="addr:postcode" v="2220"/>
    <tag k="addr:street" v="Fő út"/>
    <tag k="authentication:app" v="yes"/>
    <tag k="authentication:none" v="yes"/>
    <tag k="brand" v="MOL"/>
    <tag k="contact:email" v="info@molplugee.hu"/>
    <tag k="contact:phone" v="+36 1 998 9888"/>
    <tag k="contact:website" v="https://molplugee.hu"/>
    <tag k="fee" v="yes"/>
    <tag k="fixme" v="verify import"/>
    <tag k="motorcar" v="yes"/>
    <tag k="name" v="MOL Plugee"/>
    <tag k="opening_hours" v="24/7"/>
    <tag k="operator" v="MOL Nyrt."/>
    <tag k="operator:addr" v="1117 Budapest, Október huszonharmadika utca 18."/>
    <tag k="parking:fee" v="no"/>
    <tag k="ref:HU:company" v="01-10-041683"/>
    <tag k="ref:vatin" v="HU10625790"/>
    <tag k="ref:vatin:hu" v="10625790-4-44"/>
    <tag k="socket:chademo" v="1"/>
    <tag k="socket:chademo:output" v="50 kW"/>
    <tag k="socket:type1_combo" v="1"/>
    <tag k="socket:type1_combo:output" v="50 kW"/>
    <tag k="socket:type2_cable" v="1"/>
    <tag k="socket:type2_cable:output" v="43 kW"/>
    <tag k="source:molplugee.hu:date" v="2020-09-28"/>
  </node>
  <!-- Original coordinates: POINT (47.362032 18.909659) -->
  <!-- OSM <-> POI distance: Non exist-->
  <!-- Checker good: {not_in_water,street_is_around,street_metaphone_is_around}; bad {}-->
  <!--
Key				Status		New value		OSM value
addr:city                        N		'Érd'
addr:conscriptionnumber          N		'26297/2'
addr:postcode                    N		'2030'
addr:street                      N		'Ercsi út'
authentication:app               N		'yes'
authentication:none              N		'yes'
brand                            N		'MOL'
contact:email                    N		'info@molplugee.hu'
contact:phone                    N		'+36 1 998 9888'
contact:website                  N		'https://molplugee.hu'
fee                              N		'yes'
fixme                            N		'verify import'
motorcar                         N		'yes'
name                             N		'MOL Plugee'
opening_hours                    N		'24/7'
operator                         N		'MOL Nyrt.'
operator:addr                    N		'1117 Budapest, Október huszonharmadika utca 18.'
parking:fee                      N		'no'
ref:HU:company                   N		'01\-10\-041683'
ref:vatin                        N		'HU10625790'
ref:vatin:hu                     N		'10625790\-4\-44'
socket:chademo                   N		'1'
socket:chademo:output            N		'50 kW'
socket:type1_combo               N		'1'
socket:type1_combo:output        N		'50 kW'
socket:type2_cable               N		'1'
socket:type2_cable:output        N		'43 kW'
source:molplugee.hu:date         N		'2020\-09\-28'
-->
  <!-- JOSM magic link: http://localhost:8111/load_object?new_layer=false&objects=n-16&addtags=%7Caddr%3Acity%3D%C3%89rd%7Caddr%3Aconscriptionnumber%3D26297/2%7Caddr%3Apostcode%3D2030%7Caddr%3Astreet%3DErcsi%20%C3%BAt%7Cauthentication%3Aapp%3Dyes%7Cauthentication%3Anone%3Dyes%7Cbrand%3DMOL%7Ccontact%3Aemail%3Dinfo%40molplugee.hu%7Ccontact%3Aphone%3D%2B36%201%20998%209888%7Ccontact%3Awebsite%3Dhttps%3A//molplugee.hu%7Cfee%3Dyes%7Cfixme%3Dverify%20import%7Cmotorcar%3Dyes%7Cname%3DMOL%20Plugee%7Copening_hours%3D24/7%7Coperator%3DMOL%20Nyrt.%7Coperator%3Aaddr%3D1117%20Budapest%2C%20Okt%C3%B3ber%20huszonharmadika%20utca%2018.%7Cparking%3Afee%3Dno%7Cref%3AHU%3Acompany%3D01-10-041683%7Cref%3Avatin%3DHU10625790%7Cref%3Avatin%3Ahu%3D10625790-4-44%7Csocket%3Achademo%3D1%7Csocket%3Achademo%3Aoutput%3D50%20kW%7Csocket%3Atype1_combo%3D1%7Csocket%3Atype1_combo%3Aoutput%3D50%20kW%7Csocket%3Atype2_cable%3D1%7Csocket%3Atype2_cable%3Aoutput%3D43%20kW%7Csource%3Amolplugee.hu%3Adate%3D2020-09-28 -->
  <node action="modify" id="-16" lat="47.362032" lon="18.909659" timestamp="2020-09-28T10:09:21Z" uid="8635934" user="osm_poi_matchmaker" version="99999">
    <tag k="addr:city" v="Érd"/>
    <tag k="addr:conscriptionnumber" v="26297/2"/>
    <tag k="addr:postcode" v="2030"/>
    <tag k="addr:street" v="Ercsi út"/>
    <tag k="authentication:app" v="yes"/>
    <tag k="authentication:none" v="yes"/>
    <tag k="brand" v="MOL"/>
    <tag k="contact:email" v="info@molplugee.hu"/>
    <tag k="contact:phone" v="+36 1 998 9888"/>
    <tag k="contact:website" v="https://molplugee.hu"/>
    <tag k="fee" v="yes"/>
    <tag k="fixme" v="verify import"/>
    <tag k="motorcar" v="yes"/>
    <tag k="name" v="MOL Plugee"/>
    <tag k="opening_hours" v="24/7"/>
    <tag k="operator" v="MOL Nyrt."/>
    <tag k="operator:addr" v="1117 Budapest, Október huszonharmadika utca 18."/>
    <tag k="parking:fee" v="no"/>
    <tag k="ref:HU:company" v="01-10-041683"/>
    <tag k="ref:vatin" v="HU10625790"/>
    <tag k="ref:vatin:hu" v="10625790-4-44"/>
    <tag k="socket:chademo" v="1"/>
    <tag k="socket:chademo:output" v="50 kW"/>
    <tag k="socket:type1_combo" v="1"/>
    <tag k="socket:type1_combo:output" v="50 kW"/>
    <tag k="socket:type2_cable" v="1"/>
    <tag k="socket:type2_cable:output" v="43 kW"/>
    <tag k="source:molplugee.hu:date" v="2020-09-28"/>
  </node>
  <!-- Original coordinates: POINT (47.419964 18.921645) -->
  <!-- OSM <-> POI distance: Non exist-->
  <!-- Checker good: {not_in_water}; bad {street_is_not_around,street_metaphone_is_not_around}-->
  <!--
Key				Status		New value		OSM value
addr:city                        N		'Törökbálint'
addr:postcode                    N		'2045'
addr:street                      N		'M0 Annahegyi pihenő'
authentication:app               N		'yes'
authentication:none              N		'yes'
brand                            N		'MOL'
contact:email                    N		'info@molplugee.hu'
contact:phone                    N		'+36 1 998 9888'
contact:website                  N		'https://molplugee.hu'
fee                              N		'yes'
fixme                            N		'verify import'
motorcar                         N		'yes'
name                             N		'MOL Plugee'
opening_hours                    N		'24/7'
operator                         N		'MOL Nyrt.'
operator:addr                    N		'1117 Budapest, Október huszonharmadika utca 18.'
parking:fee                      N		'no'
ref:HU:company                   N		'01\-10\-041683'
ref:vatin                        N		'HU10625790'
ref:vatin:hu                     N		'10625790\-4\-44'
socket:chademo                   N		'1'
socket:chademo:output            N		'50 kW'
socket:type1_combo               N		'1'
socket:type1_combo:output        N		'50 kW'
socket:type2_cable               N		'1'
socket:type2_cable:output        N		'43 kW'
source:molplugee.hu:date         N		'2020\-09\-28'
-->
  <!-- JOSM magic link: http://localhost:8111/load_object?new_layer=false&objects=n-17&addtags=%7Caddr%3Acity%3DT%C3%B6r%C3%B6kb%C3%A1lint%7Caddr%3Apostcode%3D2045%7Caddr%3Astreet%3DM0%20Annahegyi%20pihen%C5%91%7Cauthentication%3Aapp%3Dyes%7Cauthentication%3Anone%3Dyes%7Cbrand%3DMOL%7Ccontact%3Aemail%3Dinfo%40molplugee.hu%7Ccontact%3Aphone%3D%2B36%201%20998%209888%7Ccontact%3Awebsite%3Dhttps%3A//molplugee.hu%7Cfee%3Dyes%7Cfixme%3Dverify%20import%7Cmotorcar%3Dyes%7Cname%3DMOL%20Plugee%7Copening_hours%3D24/7%7Coperator%3DMOL%20Nyrt.%7Coperator%3Aaddr%3D1117%20Budapest%2C%20Okt%C3%B3ber%20huszonharmadika%20utca%2018.%7Cparking%3Afee%3Dno%7Cref%3AHU%3Acompany%3D01-10-041683%7Cref%3Avatin%3DHU10625790%7Cref%3Avatin%3Ahu%3D10625790-4-44%7Csocket%3Achademo%3D1%7Csocket%3Achademo%3Aoutput%3D50%20kW%7Csocket%3Atype1_combo%3D1%7Csocket%3Atype1_combo%3Aoutput%3D50%20kW%7Csocket%3Atype2_cable%3D1%7Csocket%3Atype2_cable%3Aoutput%3D43%20kW%7Csource%3Amolplugee.hu%3Adate%3D2020-09-28 -->
  <node action="modify" id="-17" lat="47.419964" lon="18.921645" timestamp="2020-09-28T10:09:21Z" uid="8635934" user="osm_poi_matchmaker" version="99999">
    <tag k="addr:city" v="Törökbálint"/>
    <tag k="addr:postcode" v="2045"/>
    <tag k="addr:street" v="M0 Annahegyi pihenő"/>
    <tag k="authentication:app" v="yes"/>
    <tag k="authentication:none" v="yes"/>
    <tag k="brand" v="MOL"/>
    <tag k="contact:email" v="info@molplugee.hu"/>
    <tag k="contact:phone" v="+36 1 998 9888"/>
    <tag k="contact:website" v="https://molplugee.hu"/>
    <tag k="fee" v="yes"/>
    <tag k="fixme" v="verify import"/>
    <tag k="motorcar" v="yes"/>
    <tag k="name" v="MOL Plugee"/>
    <tag k="opening_hours" v="24/7"/>
    <tag k="operator" v="MOL Nyrt."/>
    <tag k="operator:addr" v="1117 Budapest, Október huszonharmadika utca 18."/>
    <tag k="parking:fee" v="no"/>
    <tag k="ref:HU:company" v="01-10-041683"/>
    <tag k="ref:vatin" v="HU10625790"/>
    <tag k="ref:vatin:hu" v="10625790-4-44"/>
    <tag k="socket:chademo" v="1"/>
    <tag k="socket:chademo:output" v="50 kW"/>
    <tag k="socket:type1_combo" v="1"/>
    <tag k="socket:type1_combo:output" v="50 kW"/>
    <tag k="socket:type2_cable" v="1"/>
    <tag k="socket:type2_cable:output" v="43 kW"/>
    <tag k="source:molplugee.hu:date" v="2020-09-28"/>
  </node>
  <!-- Original coordinates: POINT (47.460682 18.893357) -->
  <!-- OSM <-> POI distance: Non exist-->
  <!-- Checker good: {not_in_water}; bad {street_is_not_around,street_metaphone_is_not_around}-->
  <!--
Key				Status		New value		OSM value
addr:city                        N		'Budaörs'
addr:postcode                    N		'2040'
authentication:app               N		'yes'
authentication:none              N		'yes'
brand                            N		'MOL'
contact:email                    N		'info@molplugee.hu'
contact:phone                    N		'+36 1 998 9888'
contact:website                  N		'https://molplugee.hu'
fee                              N		'yes'
fixme                            N		'verify import'
motorcar                         N		'yes'
name                             N		'MOL Plugee'
opening_hours                    N		'24/7'
operator                         N		'MOL Nyrt.'
operator:addr                    N		'1117 Budapest, Október huszonharmadika utca 18.'
parking:fee                      N		'no'
ref:HU:company                   N		'01\-10\-041683'
ref:vatin                        N		'HU10625790'
ref:vatin:hu                     N		'10625790\-4\-44'
socket:chademo                   N		'1'
socket:chademo:output            N		'50 kW'
socket:type1_combo               N		'1'
socket:type1_combo:output        N		'50 kW'
socket:type2_cable               N		'1'
socket:type2_cable:output        N		'43 kW'
source:molplugee.hu:date         N		'2020\-09\-28'
-->
  <!-- JOSM magic link: http://localhost:8111/load_object?new_layer=false&objects=n-18&addtags=%7Caddr%3Acity%3DBuda%C3%B6rs%7Caddr%3Apostcode%3D2040%7Cauthentication%3Aapp%3Dyes%7Cauthentication%3Anone%3Dyes%7Cbrand%3DMOL%7Ccontact%3Aemail%3Dinfo%40molplugee.hu%7Ccontact%3Aphone%3D%2B36%201%20998%209888%7Ccontact%3Awebsite%3Dhttps%3A//molplugee.hu%7Cfee%3Dyes%7Cfixme%3Dverify%20import%7Cmotorcar%3Dyes%7Cname%3DMOL%20Plugee%7Copening_hours%3D24/7%7Coperator%3DMOL%20Nyrt.%7Coperator%3Aaddr%3D1117%20Budapest%2C%20Okt%C3%B3ber%20huszonharmadika%20utca%2018.%7Cparking%3Afee%3Dno%7Cref%3AHU%3Acompany%3D01-10-041683%7Cref%3Avatin%3DHU10625790%7Cref%3Avatin%3Ahu%3D10625790-4-44%7Csocket%3Achademo%3D1%7Csocket%3Achademo%3Aoutput%3D50%20kW%7Csocket%3Atype1_combo%3D1%7Csocket%3Atype1_combo%3Aoutput%3D50%20kW%7Csocket%3Atype2_cable%3D1%7Csocket%3Atype2_cable%3Aoutput%3D43%20kW%7Csource%3Amolplugee.hu%3Adate%3D2020-09-28 -->
  <node action="modify" id="-18" lat="47.460682" lon="18.893357" timestamp="2020-09-28T10:09:21Z" uid="8635934" user="osm_poi_matchmaker" version="99999">
    <tag k="addr:city" v="Budaörs"/>
    <tag k="addr:postcode" v="2040"/>
    <tag k="authentication:app" v="yes"/>
    <tag k="authentication:none" v="yes"/>
    <tag k="brand" v="MOL"/>
    <tag k="contact:email" v="info@molplugee.hu"/>
    <tag k="contact:phone" v="+36 1 998 9888"/>
    <tag k="contact:website" v="https://molplugee.hu"/>
    <tag k="fee" v="yes"/>
    <tag k="fixme" v="verify import"/>
    <tag k="motorcar" v="yes"/>
    <tag k="name" v="MOL Plugee"/>
    <tag k="opening_hours" v="24/7"/>
    <tag k="operator" v="MOL Nyrt."/>
    <tag k="operator:addr" v="1117 Budapest, Október huszonharmadika utca 18."/>
    <tag k="parking:fee" v="no"/>
    <tag k="ref:HU:company" v="01-10-041683"/>
    <tag k="ref:vatin" v="HU10625790"/>
    <tag k="ref:vatin:hu" v="10625790-4-44"/>
    <tag k="socket:chademo" v="1"/>
    <tag k="socket:chademo:output" v="50 kW"/>
    <tag k="socket:type1_combo" v="1"/>
    <tag k="socket:type1_combo:output" v="50 kW"/>
    <tag k="socket:type2_cable" v="1"/>
    <tag k="socket:type2_cable:output" v="43 kW"/>
    <tag k="source:molplugee.hu:date" v="2020-09-28"/>
  </node>
  <!-- Original coordinates: POINT (47.411129 18.957694) -->
  <!-- OSM <-> POI distance: Non exist-->
  <!-- Checker good: {not_in_water,street_is_around,street_metaphone_is_around}; bad {}-->
  <!--
Key				Status		New value		OSM value
addr:city                        N		'Diósd'
addr:housenumber                 N		'2'
addr:postcode                    N		'2049'
addr:street                      N		'Tétényi utca'
authentication:app               N		'yes'
authentication:none              N		'yes'
brand                            N		'MOL'
contact:email                    N		'info@molplugee.hu'
contact:phone                    N		'+36 1 998 9888'
contact:website                  N		'https://molplugee.hu'
fee                              N		'yes'
fixme                            N		'verify import'
motorcar                         N		'yes'
name                             N		'MOL Plugee'
opening_hours                    N		'24/7'
operator                         N		'MOL Nyrt.'
operator:addr                    N		'1117 Budapest, Október huszonharmadika utca 18.'
parking:fee                      N		'no'
ref:HU:company                   N		'01\-10\-041683'
ref:vatin                        N		'HU10625790'
ref:vatin:hu                     N		'10625790\-4\-44'
socket:chademo                   N		'1'
socket:chademo:output            N		'50 kW'
socket:type1_combo               N		'1'
socket:type1_combo:output        N		'50 kW'
socket:type2_cable               N		'1'
socket:type2_cable:output        N		'43 kW'
source:molplugee.hu:date         N		'2020\-09\-28'
-->
  <!-- JOSM magic link: http://localhost:8111/load_object?new_layer=false&objects=n-19&addtags=%7Caddr%3Acity%3DDi%C3%B3sd%7Caddr%3Ahousenumber%3D2%7Caddr%3Apostcode%3D2049%7Caddr%3Astreet%3DT%C3%A9t%C3%A9nyi%20utca%7Cauthentication%3Aapp%3Dyes%7Cauthentication%3Anone%3Dyes%7Cbrand%3DMOL%7Ccontact%3Aemail%3Dinfo%40molplugee.hu%7Ccontact%3Aphone%3D%2B36%201%20998%209888%7Ccontact%3Awebsite%3Dhttps%3A//molplugee.hu%7Cfee%3Dyes%7Cfixme%3Dverify%20import%7Cmotorcar%3Dyes%7Cname%3DMOL%20Plugee%7Copening_hours%3D24/7%7Coperator%3DMOL%20Nyrt.%7Coperator%3Aaddr%3D1117%20Budapest%2C%20Okt%C3%B3ber%20huszonharmadika%20utca%2018.%7Cparking%3Afee%3Dno%7Cref%3AHU%3Acompany%3D01-10-041683%7Cref%3Avatin%3DHU10625790%7Cref%3Avatin%3Ahu%3D10625790-4-44%7Csocket%3Achademo%3D1%7Csocket%3Achademo%3Aoutput%3D50%20kW%7Csocket%3Atype1_combo%3D1%7Csocket%3Atype1_combo%3Aoutput%3D50%20kW%7Csocket%3Atype2_cable%3D1%7Csocket%3Atype2_cable%3Aoutput%3D43%20kW%7Csource%3Amolplugee.hu%3Adate%3D2020-09-28 -->
  <node action="modify" id="-19" lat="47.411128999999995" lon="18.957694" timestamp="2020-09-28T10:09:21Z" uid="8635934" user="osm_poi_matchmaker" version="99999">
    <tag k="addr:city" v="Diósd"/>
    <tag k="addr:housenumber" v="2"/>
    <tag k="addr:postcode" v="2049"/>
    <tag k="addr:street" v="Tétényi utca"/>
    <tag k="authentication:app" v="yes"/>
    <tag k="authentication:none" v="yes"/>
    <tag k="brand" v="MOL"/>
    <tag k="contact:email" v="info@molplugee.hu"/>
    <tag k="contact:phone" v="+36 1 998 9888"/>
    <tag k="contact:website" v="https://molplugee.hu"/>
    <tag k="fee" v="yes"/>
    <tag k="fixme" v="verify import"/>
    <tag k="motorcar" v="yes"/>
    <tag k="name" v="MOL Plugee"/>
    <tag k="opening_hours" v="24/7"/>
    <tag k="operator" v="MOL Nyrt."/>
    <tag k="operator:addr" v="1117 Budapest, Október huszonharmadika utca 18."/>
    <tag k="parking:fee" v="no"/>
    <tag k="ref:HU:company" v="01-10-041683"/>
    <tag k="ref:vatin" v="HU10625790"/>
    <tag k="ref:vatin:hu" v="10625790-4-44"/>
    <tag k="socket:chademo" v="1"/>
    <tag k="socket:chademo:output" v="50 kW"/>
    <tag k="socket:type1_combo" v="1"/>
    <tag k="socket:type1_combo:output" v="50 kW"/>
    <tag k="socket:type2_cable" v="1"/>
    <tag k="socket:type2_cable:output" v="43 kW"/>
    <tag k="source:molplugee.hu:date" v="2020-09-28"/>
  </node>
  <!-- OSM link: https://osm.org/node/7683109162 -->
  <!-- Original coordinates: POINT (47.599329 19.35498) -->
  <!-- OSM <-> POI distance: 36.3111664 m-->
  <!-- Checker good: {not_in_water,street_metaphone_is_around}; bad {street_is_not_around}-->
  <!--
Key				Status		New value		OSM value
addr:city                        N		'Gödöllő'
addr:housenumber                 N		'12'
addr:postcode                    N		'2100'
addr:street                      N		'Szabadság utca'
amenity                          E		'charging_station'			'charging_station'
authentication:app               N		'yes'
authentication:membership_card   E		'yes'			'yes'
authentication:none              N		'yes'
brand                            N		'MOL'
capacity                         E		'2'			'2'
contact:email                    N		'info@molplugee.hu'
contact:phone                    N		'+36 1 998 9888'
contact:website                  N		'https://molplugee.hu'
fee                              E		'yes'			'yes'
motorcar                         E		'yes'			'yes'
name                             M		'MOL Plugee'			'Plugee'
opening_hours                    E		'24/7'			'24/7'
operator                         M		'MOL Nyrt.'			'MOL Zrt.'
operator:addr                    N		'1117 Budapest, Október huszonharmadika utca 18.'
parking:fee                      N		'no'
ref                              E		'HUMOL0068'			'HUMOL0068'
ref:HU:company                   N		'01\-10\-041683'
ref:vatin                        N		'HU10625790'
ref:vatin:hu                     N		'10625790\-4\-44'
socket:chademo                   E		'1'			'1'
socket:chademo:output            N		'50 kW'
socket:type1_combo               N		'1'
socket:type1_combo:output        N		'50 kW'
socket:type2_cable               N		'1'
socket:type2_cable:output        N		'43 kW'
source:molplugee.hu:date         N		'2020\-09\-28'
voltage                          E		'400'			'400'
-->
  <!-- JOSM magic link: http://localhost:8111/load_object?new_layer=false&objects=n7683109162&addtags=%7Caddr%3Acity%3DG%C3%B6d%C3%B6ll%C5%91%7Caddr%3Ahousenumber%3D12%7Caddr%3Apostcode%3D2100%7Caddr%3Astreet%3DSzabads%C3%A1g%20utca%7Camenity%3Dcharging_station%7Cauthentication%3Aapp%3Dyes%7Cauthentication%3Amembership_card%3Dyes%7Cauthentication%3Anone%3Dyes%7Cbrand%3DMOL%7Ccapacity%3D2%7Ccontact%3Aemail%3Dinfo%40molplugee.hu%7Ccontact%3Aphone%3D%2B36%201%20998%209888%7Ccontact%3Awebsite%3Dhttps%3A//molplugee.hu%7Cfee%3Dyes%7Cmotorcar%3Dyes%7Cname%3DMOL%20Plugee%7Copening_hours%3D24/7%7Coperator%3DMOL%20Nyrt.%7Coperator%3Aaddr%3D1117%20Budapest%2C%20Okt%C3%B3ber%20huszonharmadika%20utca%2018.%7Cparking%3Afee%3Dno%7Cref%3DHUMOL0068%7Cref%3AHU%3Acompany%3D01-10-041683%7Cref%3Avatin%3DHU10625790%7Cref%3Avatin%3Ahu%3D10625790-4-44%7Csocket%3Achademo%3D1%7Csocket%3Achademo%3Aoutput%3D50%20kW%7Csocket%3Atype1_combo%3D1%7Csocket%3Atype1_combo%3Aoutput%3D50%20kW%7Csocket%3Atype2_cable%3D1%7Csocket%3Atype2_cable%3Aoutput%3D43%20kW%7Csource%3Amolplugee.hu%3Adate%3D2020-09-28%7Cvoltage%3D400 -->
  <node action="modify" id="7683109162" lat="47.5993435" lon="19.3554638" timestamp="2020-07-04T16:46:55Z" uid="8635934" user="osm_poi_matchmaker" version="1">
    <tag k="addr:city" v="Gödöllő"/>
    <tag k="addr:housenumber" v="12"/>
    <tag k="addr:postcode" v="2100"/>
    <tag k="addr:street" v="Szabadság utca"/>
    <tag k="amenity" v="charging_station"/>
    <tag k="authentication:app" v="yes"/>
    <tag k="authentication:membership_card" v="yes"/>
    <tag k="authentication:none" v="yes"/>
    <tag k="brand" v="MOL"/>
    <tag k="capacity" v="2"/>
    <tag k="contact:email" v="info@molplugee.hu"/>
    <tag k="contact:phone" v="+36 1 998 9888"/>
    <tag k="contact:website" v="https://molplugee.hu"/>
    <tag k="fee" v="yes"/>
    <tag k="motorcar" v="yes"/>
    <tag k="name" v="MOL Plugee"/>
    <tag k="opening_hours" v="24/7"/>
    <tag k="operator" v="MOL Nyrt."/>
    <tag k="operator:addr" v="1117 Budapest, Október huszonharmadika utca 18."/>
    <tag k="parking:fee" v="no"/>
    <tag k="ref" v="HUMOL0068"/>
    <tag k="ref:HU:company" v="01-10-041683"/>
    <tag k="ref:vatin" v="HU10625790"/>
    <tag k="ref:vatin:hu" v="10625790-4-44"/>
    <tag k="socket:chademo" v="1"/>
    <tag k="socket:chademo:output" v="50 kW"/>
    <tag k="socket:type1_combo" v="1"/>
    <tag k="socket:type1_combo:output" v="50 kW"/>
    <tag k="socket:type2_cable" v="1"/>
    <tag k="socket:type2_cable:output" v="43 kW"/>
    <tag k="source:molplugee.hu:date" v="2020-09-28"/>
    <tag k="voltage" v="400"/>
  </node>
  <!-- Original coordinates: POINT (47.48999 19.3357) -->
  <!-- OSM <-> POI distance: Non exist-->
  <!-- Checker good: {not_in_water,street_is_around,street_metaphone_is_around}; bad {}-->
  <!--
Key				Status		New value		OSM value
addr:city                        N		'Pécel'
addr:postcode                    N		'2119'
addr:street                      N		'Köztársaság tér'
authentication:app               N		'yes'
authentication:none              N		'yes'
brand                            N		'MOL'
contact:email                    N		'info@molplugee.hu'
contact:phone                    N		'+36 1 998 9888'
contact:website                  N		'https://molplugee.hu'
fee                              N		'yes'
fixme                            N		'verify import'
motorcar                         N		'yes'
name                             N		'MOL Plugee'
opening_hours                    N		'24/7'
operator                         N		'MOL Nyrt.'
operator:addr                    N		'1117 Budapest, Október huszonharmadika utca 18.'
parking:fee                      N		'no'
ref:HU:company                   N		'01\-10\-041683'
ref:vatin                        N		'HU10625790'
ref:vatin:hu                     N		'10625790\-4\-44'
socket:chademo                   N		'1'
socket:chademo:output            N		'50 kW'
socket:type1_combo               N		'1'
socket:type1_combo:output        N		'50 kW'
socket:type2_cable               N		'1'
socket:type2_cable:output        N		'43 kW'
source:molplugee.hu:date         N		'2020\-09\-28'
-->
  <!-- JOSM magic link: http://localhost:8111/load_object?new_layer=false&objects=n-21&addtags=%7Caddr%3Acity%3DP%C3%A9cel%7Caddr%3Apostcode%3D2119%7Caddr%3Astreet%3DK%C3%B6zt%C3%A1rsas%C3%A1g%20t%C3%A9r%7Cauthentication%3Aapp%3Dyes%7Cauthentication%3Anone%3Dyes%7Cbrand%3DMOL%7Ccontact%3Aemail%3Dinfo%40molplugee.hu%7Ccontact%3Aphone%3D%2B36%201%20998%209888%7Ccontact%3Awebsite%3Dhttps%3A//molplugee.hu%7Cfee%3Dyes%7Cfixme%3Dverify%20import%7Cmotorcar%3Dyes%7Cname%3DMOL%20Plugee%7Copening_hours%3D24/7%7Coperator%3DMOL%20Nyrt.%7Coperator%3Aaddr%3D1117%20Budapest%2C%20Okt%C3%B3ber%20huszonharmadika%20utca%2018.%7Cparking%3Afee%3Dno%7Cref%3AHU%3Acompany%3D01-10-041683%7Cref%3Avatin%3DHU10625790%7Cref%3Avatin%3Ahu%3D10625790-4-44%7Csocket%3Achademo%3D1%7Csocket%3Achademo%3Aoutput%3D50%20kW%7Csocket%3Atype1_combo%3D1%7Csocket%3Atype1_combo%3Aoutput%3D50%20kW%7Csocket%3Atype2_cable%3D1%7Csocket%3Atype2_cable%3Aoutput%3D43%20kW%7Csource%3Amolplugee.hu%3Adate%3D2020-09-28 -->
  <node action="modify" id="-21" lat="47.48999" lon="19.3357" timestamp="2020-09-28T10:09:21Z" uid="8635934" user="osm_poi_matchmaker" version="99999">
    <tag k="addr:city" v="Pécel"/>
    <tag k="addr:postcode" v="2119"/>
    <tag k="addr:street" v="Köztársaság tér"/>
    <tag k="authentication:app" v="yes"/>
    <tag k="authentication:none" v="yes"/>
    <tag k="brand" v="MOL"/>
    <tag k="contact:email" v="info@molplugee.hu"/>
    <tag k="contact:phone" v="+36 1 998 9888"/>
    <tag k="contact:website" v="https://molplugee.hu"/>
    <tag k="fee" v="yes"/>
    <tag k="fixme" v="verify import"/>
    <tag k="motorcar" v="yes"/>
    <tag k="name" v="MOL Plugee"/>
    <tag k="opening_hours" v="24/7"/>
    <tag k="operator" v="MOL Nyrt."/>
    <tag k="operator:addr" v="1117 Budapest, Október huszonharmadika utca 18."/>
    <tag k="parking:fee" v="no"/>
    <tag k="ref:HU:company" v="01-10-041683"/>
    <tag k="ref:vatin" v="HU10625790"/>
    <tag k="ref:vatin:hu" v="10625790-4-44"/>
    <tag k="socket:chademo" v="1"/>
    <tag k="socket:chademo:output" v="50 kW"/>
    <tag k="socket:type1_combo" v="1"/>
    <tag k="socket:type1_combo:output" v="50 kW"/>
    <tag k="socket:type2_cable" v="1"/>
    <tag k="socket:type2_cable:output" v="43 kW"/>
    <tag k="source:molplugee.hu:date" v="2020-09-28"/>
  </node>
  <!-- Original coordinates: POINT (47.616155 19.170272) -->
  <!-- OSM <-> POI distance: Non exist-->
  <!-- Checker good: {not_in_water,street_is_around,street_metaphone_is_around}; bad {}-->
  <!--
Key				Status		New value		OSM value
addr:city                        N		'Fót'
addr:postcode                    N		'2151'
addr:street                      N		'Keleti Márton utca'
authentication:app               N		'yes'
authentication:none              N		'yes'
brand                            N		'MOL'
contact:email                    N		'info@molplugee.hu'
contact:phone                    N		'+36 1 998 9888'
contact:website                  N		'https://molplugee.hu'
fee                              N		'yes'
fixme                            N		'verify import'
motorcar                         N		'yes'
name                             N		'MOL Plugee'
opening_hours                    N		'24/7'
operator                         N		'MOL Nyrt.'
operator:addr                    N		'1117 Budapest, Október huszonharmadika utca 18.'
parking:fee                      N		'no'
ref:HU:company                   N		'01\-10\-041683'
ref:vatin                        N		'HU10625790'
ref:vatin:hu                     N		'10625790\-4\-44'
socket:chademo                   N		'1'
socket:chademo:output            N		'50 kW'
socket:type1_combo               N		'1'
socket:type1_combo:output        N		'50 kW'
socket:type2_cable               N		'1'
socket:type2_cable:output        N		'43 kW'
source:molplugee.hu:date         N		'2020\-09\-28'
-->
  <!-- JOSM magic link: http://localhost:8111/load_object?new_layer=false&objects=n-22&addtags=%7Caddr%3Acity%3DF%C3%B3t%7Caddr%3Apostcode%3D2151%7Caddr%3Astreet%3DKeleti%20M%C3%A1rton%20utca%7Cauthentication%3Aapp%3Dyes%7Cauthentication%3Anone%3Dyes%7Cbrand%3DMOL%7Ccontact%3Aemail%3Dinfo%40molplugee.hu%7Ccontact%3Aphone%3D%2B36%201%20998%209888%7Ccontact%3Awebsite%3Dhttps%3A//molplugee.hu%7Cfee%3Dyes%7Cfixme%3Dverify%20import%7Cmotorcar%3Dyes%7Cname%3DMOL%20Plugee%7Copening_hours%3D24/7%7Coperator%3DMOL%20Nyrt.%7Coperator%3Aaddr%3D1117%20Budapest%2C%20Okt%C3%B3ber%20huszonharmadika%20utca%2018.%7Cparking%3Afee%3Dno%7Cref%3AHU%3Acompany%3D01-10-041683%7Cref%3Avatin%3DHU10625790%7Cref%3Avatin%3Ahu%3D10625790-4-44%7Csocket%3Achademo%3D1%7Csocket%3Achademo%3Aoutput%3D50%20kW%7Csocket%3Atype1_combo%3D1%7Csocket%3Atype1_combo%3Aoutput%3D50%20kW%7Csocket%3Atype2_cable%3D1%7Csocket%3Atype2_cable%3Aoutput%3D43%20kW%7Csource%3Amolplugee.hu%3Adate%3D2020-09-28 -->
  <node action="modify" id="-22" lat="47.616155" lon="19.170272" timestamp="2020-09-28T10:09:21Z" uid="8635934" user="osm_poi_matchmaker" version="99999">
    <tag k="addr:city" v="Fót"/>
    <tag k="addr:postcode" v="2151"/>
    <tag k="addr:street" v="Keleti Márton utca"/>
    <tag k="authentication:app" v="yes"/>
    <tag k="authentication:none" v="yes"/>
    <tag k="brand" v="MOL"/>
    <tag k="contact:email" v="info@molplugee.hu"/>
    <tag k="contact:phone" v="+36 1 998 9888"/>
    <tag k="contact:website" v="https://molplugee.hu"/>
    <tag k="fee" v="yes"/>
    <tag k="fixme" v="verify import"/>
    <tag k="motorcar" v="yes"/>
    <tag k="name" v="MOL Plugee"/>
    <tag k="opening_hours" v="24/7"/>
    <tag k="operator" v="MOL Nyrt."/>
    <tag k="operator:addr" v="1117 Budapest, Október huszonharmadika utca 18."/>
    <tag k="parking:fee" v="no"/>
    <tag k="ref:HU:company" v="01-10-041683"/>
    <tag k="ref:vatin" v="HU10625790"/>
    <tag k="ref:vatin:hu" v="10625790-4-44"/>
    <tag k="socket:chademo" v="1"/>
    <tag k="socket:chademo:output" v="50 kW"/>
    <tag k="socket:type1_combo" v="1"/>
    <tag k="socket:type1_combo:output" v="50 kW"/>
    <tag k="socket:type2_cable" v="1"/>
    <tag k="socket:type2_cable:output" v="43 kW"/>
    <tag k="source:molplugee.hu:date" v="2020-09-28"/>
  </node>
  <!-- Original coordinates: POINT (47.3637868834 19.0232543514) -->
  <!-- OSM <-> POI distance: Non exist-->
  <!-- Checker good: {not_in_water,street_is_around,street_metaphone_is_around}; bad {}-->
  <!--
Key				Status		New value		OSM value
addr:city                        N		'Szigetszentmiklós'
addr:housenumber                 N		'139'
addr:postcode                    N		'2310'
addr:street                      N		'Petőfi Sándor utca'
authentication:app               N		'yes'
authentication:none              N		'yes'
brand                            N		'MOL'
contact:email                    N		'info@molplugee.hu'
contact:phone                    N		'+36 1 998 9888'
contact:website                  N		'https://molplugee.hu'
fee                              N		'yes'
fixme                            N		'verify import'
motorcar                         N		'yes'
name                             N		'MOL Plugee'
opening_hours                    N		'24/7'
operator                         N		'MOL Nyrt.'
operator:addr                    N		'1117 Budapest, Október huszonharmadika utca 18.'
parking:fee                      N		'no'
ref:HU:company                   N		'01\-10\-041683'
ref:vatin                        N		'HU10625790'
ref:vatin:hu                     N		'10625790\-4\-44'
socket:chademo                   N		'1'
socket:chademo:output            N		'50 kW'
socket:type1_combo               N		'1'
socket:type1_combo:output        N		'50 kW'
socket:type2_cable               N		'1'
socket:type2_cable:output        N		'43 kW'
source:molplugee.hu:date         N		'2020\-09\-28'
-->
  <!-- JOSM magic link: http://localhost:8111/load_object?new_layer=false&objects=n-23&addtags=%7Caddr%3Acity%3DSzigetszentmikl%C3%B3s%7Caddr%3Ahousenumber%3D139%7Caddr%3Apostcode%3D2310%7Caddr%3Astreet%3DPet%C5%91fi%20S%C3%A1ndor%20utca%7Cauthentication%3Aapp%3Dyes%7Cauthentication%3Anone%3Dyes%7Cbrand%3DMOL%7Ccontact%3Aemail%3Dinfo%40molplugee.hu%7Ccontact%3Aphone%3D%2B36%201%20998%209888%7Ccontact%3Awebsite%3Dhttps%3A//molplugee.hu%7Cfee%3Dyes%7Cfixme%3Dverify%20import%7Cmotorcar%3Dyes%7Cname%3DMOL%20Plugee%7Copening_hours%3D24/7%7Coperator%3DMOL%20Nyrt.%7Coperator%3Aaddr%3D1117%20Budapest%2C%20Okt%C3%B3ber%20huszonharmadika%20utca%2018.%7Cparking%3Afee%3Dno%7Cref%3AHU%3Acompany%3D01-10-041683%7Cref%3Avatin%3DHU10625790%7Cref%3Avatin%3Ahu%3D10625790-4-44%7Csocket%3Achademo%3D1%7Csocket%3Achademo%3Aoutput%3D50%20kW%7Csocket%3Atype1_combo%3D1%7Csocket%3Atype1_combo%3Aoutput%3D50%20kW%7Csocket%3Atype2_cable%3D1%7Csocket%3Atype2_cable%3Aoutput%3D43%20kW%7Csource%3Amolplugee.hu%3Adate%3D2020-09-28 -->
  <node action="modify" id="-23" lat="47.3637868834" lon="19.023254351400002" timestamp="2020-09-28T10:09:21Z" uid="8635934" user="osm_poi_matchmaker" version="99999">
    <tag k="addr:city" v="Szigetszentmiklós"/>
    <tag k="addr:housenumber" v="139"/>
    <tag k="addr:postcode" v="2310"/>
    <tag k="addr:street" v="Petőfi Sándor utca"/>
    <tag k="authentication:app" v="yes"/>
    <tag k="authentication:none" v="yes"/>
    <tag k="brand" v="MOL"/>
    <tag k="contact:email" v="info@molplugee.hu"/>
    <tag k="contact:phone" v="+36 1 998 9888"/>
    <tag k="contact:website" v="https://molplugee.hu"/>
    <tag k="fee" v="yes"/>
    <tag k="fixme" v="verify import"/>
    <tag k="motorcar" v="yes"/>
    <tag k="name" v="MOL Plugee"/>
    <tag k="opening_hours" v="24/7"/>
    <tag k="operator" v="MOL Nyrt."/>
    <tag k="operator:addr" v="1117 Budapest, Október huszonharmadika utca 18."/>
    <tag k="parking:fee" v="no"/>
    <tag k="ref:HU:company" v="01-10-041683"/>
    <tag k="ref:vatin" v="HU10625790"/>
    <tag k="ref:vatin:hu" v="10625790-4-44"/>
    <tag k="socket:chademo" v="1"/>
    <tag k="socket:chademo:output" v="50 kW"/>
    <tag k="socket:type1_combo" v="1"/>
    <tag k="socket:type1_combo:output" v="50 kW"/>
    <tag k="socket:type2_cable" v="1"/>
    <tag k="socket:type2_cable:output" v="43 kW"/>
    <tag k="source:molplugee.hu:date" v="2020-09-28"/>
  </node>
  <!-- Original coordinates: POINT (47.24406 18.637767) -->
  <!-- OSM <-> POI distance: Non exist-->
  <!-- Checker good: {not_in_water}; bad {street_is_not_around,street_metaphone_is_not_around}-->
  <!--
Key				Status		New value		OSM value
addr:city                        N		'Velence'
addr:postcode                    N		'2481'
authentication:app               N		'yes'
authentication:none              N		'yes'
brand                            N		'MOL'
contact:email                    N		'info@molplugee.hu'
contact:phone                    N		'+36 1 998 9888'
contact:website                  N		'https://molplugee.hu'
fee                              N		'yes'
fixme                            N		'verify import'
motorcar                         N		'yes'
name                             N		'MOL Plugee'
opening_hours                    N		'24/7'
operator                         N		'MOL Nyrt.'
operator:addr                    N		'1117 Budapest, Október huszonharmadika utca 18.'
parking:fee                      N		'no'
ref:HU:company                   N		'01\-10\-041683'
ref:vatin                        N		'HU10625790'
ref:vatin:hu                     N		'10625790\-4\-44'
socket:chademo                   N		'1'
socket:chademo:output            N		'50 kW'
socket:type1_combo               N		'1'
socket:type1_combo:output        N		'50 kW'
socket:type2_cable               N		'1'
socket:type2_cable:output        N		'43 kW'
source:molplugee.hu:date         N		'2020\-09\-28'
-->
  <!-- JOSM magic link: http://localhost:8111/load_object?new_layer=false&objects=n-24&addtags=%7Caddr%3Acity%3DVelence%7Caddr%3Apostcode%3D2481%7Cauthentication%3Aapp%3Dyes%7Cauthentication%3Anone%3Dyes%7Cbrand%3DMOL%7Ccontact%3Aemail%3Dinfo%40molplugee.hu%7Ccontact%3Aphone%3D%2B36%201%20998%209888%7Ccontact%3Awebsite%3Dhttps%3A//molplugee.hu%7Cfee%3Dyes%7Cfixme%3Dverify%20import%7Cmotorcar%3Dyes%7Cname%3DMOL%20Plugee%7Copening_hours%3D24/7%7Coperator%3DMOL%20Nyrt.%7Coperator%3Aaddr%3D1117%20Budapest%2C%20Okt%C3%B3ber%20huszonharmadika%20utca%2018.%7Cparking%3Afee%3Dno%7Cref%3AHU%3Acompany%3D01-10-041683%7Cref%3Avatin%3DHU10625790%7Cref%3Avatin%3Ahu%3D10625790-4-44%7Csocket%3Achademo%3D1%7Csocket%3Achademo%3Aoutput%3D50%20kW%7Csocket%3Atype1_combo%3D1%7Csocket%3Atype1_combo%3Aoutput%3D50%20kW%7Csocket%3Atype2_cable%3D1%7Csocket%3Atype2_cable%3Aoutput%3D43%20kW%7Csource%3Amolplugee.hu%3Adate%3D2020-09-28 -->
  <node action="modify" id="-24" lat="47.24406" lon="18.637767" timestamp="2020-09-28T10:09:21Z" uid="8635934" user="osm_poi_matchmaker" version="99999">
    <tag k="addr:city" v="Velence"/>
    <tag k="addr:postcode" v="2481"/>
    <tag k="authentication:app" v="yes"/>
    <tag k="authentication:none" v="yes"/>
    <tag k="brand" v="MOL"/>
    <tag k="contact:email" v="info@molplugee.hu"/>
    <tag k="contact:phone" v="+36 1 998 9888"/>
    <tag k="contact:website" v="https://molplugee.hu"/>
    <tag k="fee" v="yes"/>
    <tag k="fixme" v="verify import"/>
    <tag k="motorcar" v="yes"/>
    <tag k="name" v="MOL Plugee"/>
    <tag k="opening_hours" v="24/7"/>
    <tag k="operator" v="MOL Nyrt."/>
    <tag k="operator:addr" v="1117 Budapest, Október huszonharmadika utca 18."/>
    <tag k="parking:fee" v="no"/>
    <tag k="ref:HU:company" v="01-10-041683"/>
    <tag k="ref:vatin" v="HU10625790"/>
    <tag k="ref:vatin:hu" v="10625790-4-44"/>
    <tag k="socket:chademo" v="1"/>
    <tag k="socket:chademo:output" v="50 kW"/>
    <tag k="socket:type1_combo" v="1"/>
    <tag k="socket:type1_combo:output" v="50 kW"/>
    <tag k="socket:type2_cable" v="1"/>
    <tag k="socket:type2_cable:output" v="43 kW"/>
    <tag k="source:molplugee.hu:date" v="2020-09-28"/>
  </node>
  <!-- Original coordinates: POINT (47.79198 19.116417) -->
  <!-- OSM <-> POI distance: Non exist-->
  <!-- Checker good: {not_in_water,street_metaphone_is_around}; bad {street_is_not_around}-->
  <!--
Key				Status		New value		OSM value
addr:city                        N		'Vác'
addr:housenumber                 N		'1'
addr:postcode                    N		'2600'
addr:street                      N		'Balassagyarmati utca'
authentication:app               N		'yes'
authentication:none              N		'yes'
brand                            N		'MOL'
contact:email                    N		'info@molplugee.hu'
contact:phone                    N		'+36 1 998 9888'
contact:website                  N		'https://molplugee.hu'
fee                              N		'yes'
fixme                            N		'verify import'
motorcar                         N		'yes'
name                             N		'MOL Plugee'
opening_hours                    N		'24/7'
operator                         N		'MOL Nyrt.'
operator:addr                    N		'1117 Budapest, Október huszonharmadika utca 18.'
parking:fee                      N		'no'
ref:HU:company                   N		'01\-10\-041683'
ref:vatin                        N		'HU10625790'
ref:vatin:hu                     N		'10625790\-4\-44'
socket:chademo                   N		'1'
socket:chademo:output            N		'50 kW'
socket:type1_combo               N		'1'
socket:type1_combo:output        N		'50 kW'
socket:type2_cable               N		'1'
socket:type2_cable:output        N		'43 kW'
source:molplugee.hu:date         N		'2020\-09\-28'
-->
  <!-- JOSM magic link: http://localhost:8111/load_object?new_layer=false&objects=n-25&addtags=%7Caddr%3Acity%3DV%C3%A1c%7Caddr%3Ahousenumber%3D1%7Caddr%3Apostcode%3D2600%7Caddr%3Astreet%3DBalassagyarmati%20utca%7Cauthentication%3Aapp%3Dyes%7Cauthentication%3Anone%3Dyes%7Cbrand%3DMOL%7Ccontact%3Aemail%3Dinfo%40molplugee.hu%7Ccontact%3Aphone%3D%2B36%201%20998%209888%7Ccontact%3Awebsite%3Dhttps%3A//molplugee.hu%7Cfee%3Dyes%7Cfixme%3Dverify%20import%7Cmotorcar%3Dyes%7Cname%3DMOL%20Plugee%7Copening_hours%3D24/7%7Coperator%3DMOL%20Nyrt.%7Coperator%3Aaddr%3D1117%20Budapest%2C%20Okt%C3%B3ber%20huszonharmadika%20utca%2018.%7Cparking%3Afee%3Dno%7Cref%3AHU%3Acompany%3D01-10-041683%7Cref%3Avatin%3DHU10625790%7Cref%3Avatin%3Ahu%3D10625790-4-44%7Csocket%3Achademo%3D1%7Csocket%3Achademo%3Aoutput%3D50%20kW%7Csocket%3Atype1_combo%3D1%7Csocket%3Atype1_combo%3Aoutput%3D50%20kW%7Csocket%3Atype2_cable%3D1%7Csocket%3Atype2_cable%3Aoutput%3D43%20kW%7Csource%3Amolplugee.hu%3Adate%3D2020-09-28 -->
  <node action="modify" id="-25" lat="47.79198" lon="19.116417000000002" timestamp="2020-09-28T10:09:21Z" uid="8635934" user="osm_poi_matchmaker" version="99999">
    <tag k="addr:city" v="Vác"/>
    <tag k="addr:housenumber" v="1"/>
    <tag k="addr:postcode" v="2600"/>
    <tag k="addr:street" v="Balassagyarmati utca"/>
    <tag k="authentication:app" v="yes"/>
    <tag k="authentication:none" v="yes"/>
    <tag k="brand" v="MOL"/>
    <tag k="contact:email" v="info@molplugee.hu"/>
    <tag k="contact:phone" v="+36 1 998 9888"/>
    <tag k="contact:website" v="https://molplugee.hu"/>
    <tag k="fee" v="yes"/>
    <tag k="fixme" v="verify import"/>
    <tag k="motorcar" v="yes"/>
    <tag k="name" v="MOL Plugee"/>
    <tag k="opening_hours" v="24/7"/>
    <tag k="operator" v="MOL Nyrt."/>
    <tag k="operator:addr" v="1117 Budapest, Október huszonharmadika utca 18."/>
    <tag k="parking:fee" v="no"/>
    <tag k="ref:HU:company" v="01-10-041683"/>
    <tag k="ref:vatin" v="HU10625790"/>
    <tag k="ref:vatin:hu" v="10625790-4-44"/>
    <tag k="socket:chademo" v="1"/>
    <tag k="socket:chademo:output" v="50 kW"/>
    <tag k="socket:type1_combo" v="1"/>
    <tag k="socket:type1_combo:output" v="50 kW"/>
    <tag k="socket:type2_cable" v="1"/>
    <tag k="socket:type2_cable:output" v="43 kW"/>
    <tag k="source:molplugee.hu:date" v="2020-09-28"/>
  </node>
  <!-- Original coordinates: POINT (47.596465 18.386906) -->
  <!-- OSM <-> POI distance: Non exist-->
  <!-- Checker good: {not_in_water,street_is_around,street_metaphone_is_around}; bad {}-->
  <!--
Key				Status		New value		OSM value
addr:city                        N		'Tatabánya'
addr:postcode                    N		'2800'
addr:street                      N		'Győri út'
authentication:app               N		'yes'
authentication:none              N		'yes'
brand                            N		'MOL'
contact:email                    N		'info@molplugee.hu'
contact:phone                    N		'+36 1 998 9888'
contact:website                  N		'https://molplugee.hu'
fee                              N		'yes'
fixme                            N		'verify import'
motorcar                         N		'yes'
name                             N		'MOL Plugee'
opening_hours                    N		'24/7'
operator                         N		'MOL Nyrt.'
operator:addr                    N		'1117 Budapest, Október huszonharmadika utca 18.'
parking:fee                      N		'no'
ref:HU:company                   N		'01\-10\-041683'
ref:vatin                        N		'HU10625790'
ref:vatin:hu                     N		'10625790\-4\-44'
socket:chademo                   N		'1'
socket:chademo:output            N		'50 kW'
socket:type1_combo               N		'1'
socket:type1_combo:output        N		'50 kW'
socket:type2_cable               N		'1'
socket:type2_cable:output        N		'43 kW'
source:molplugee.hu:date         N		'2020\-09\-28'
-->
  <!-- JOSM magic link: http://localhost:8111/load_object?new_layer=false&objects=n-26&addtags=%7Caddr%3Acity%3DTatab%C3%A1nya%7Caddr%3Apostcode%3D2800%7Caddr%3Astreet%3DGy%C5%91ri%20%C3%BAt%7Cauthentication%3Aapp%3Dyes%7Cauthentication%3Anone%3Dyes%7Cbrand%3DMOL%7Ccontact%3Aemail%3Dinfo%40molplugee.hu%7Ccontact%3Aphone%3D%2B36%201%20998%209888%7Ccontact%3Awebsite%3Dhttps%3A//molplugee.hu%7Cfee%3Dyes%7Cfixme%3Dverify%20import%7Cmotorcar%3Dyes%7Cname%3DMOL%20Plugee%7Copening_hours%3D24/7%7Coperator%3DMOL%20Nyrt.%7Coperator%3Aaddr%3D1117%20Budapest%2C%20Okt%C3%B3ber%20huszonharmadika%20utca%2018.%7Cparking%3Afee%3Dno%7Cref%3AHU%3Acompany%3D01-10-041683%7Cref%3Avatin%3DHU10625790%7Cref%3Avatin%3Ahu%3D10625790-4-44%7Csocket%3Achademo%3D1%7Csocket%3Achademo%3Aoutput%3D50%20kW%7Csocket%3Atype1_combo%3D1%7Csocket%3Atype1_combo%3Aoutput%3D50%20kW%7Csocket%3Atype2_cable%3D1%7Csocket%3Atype2_cable%3Aoutput%3D43%20kW%7Csource%3Amolplugee.hu%3Adate%3D2020-09-28 -->
  <node action="modify" id="-26" lat="47.596465" lon="18.386906" timestamp="2020-09-28T10:09:21Z" uid="8635934" user="osm_poi_matchmaker" version="99999">
    <tag k="addr:city" v="Tatabánya"/>
    <tag k="addr:postcode" v="2800"/>
    <tag k="addr:street" v="Győri út"/>
    <tag k="authentication:app" v="yes"/>
    <tag k="authentication:none" v="yes"/>
    <tag k="brand" v="MOL"/>
    <tag k="contact:email" v="info@molplugee.hu"/>
    <tag k="contact:phone" v="+36 1 998 9888"/>
    <tag k="contact:website" v="https://molplugee.hu"/>
    <tag k="fee" v="yes"/>
    <tag k="fixme" v="verify import"/>
    <tag k="motorcar" v="yes"/>
    <tag k="name" v="MOL Plugee"/>
    <tag k="opening_hours" v="24/7"/>
    <tag k="operator" v="MOL Nyrt."/>
    <tag k="operator:addr" v="1117 Budapest, Október huszonharmadika utca 18."/>
    <tag k="parking:fee" v="no"/>
    <tag k="ref:HU:company" v="01-10-041683"/>
    <tag k="ref:vatin" v="HU10625790"/>
    <tag k="ref:vatin:hu" v="10625790-4-44"/>
    <tag k="socket:chademo" v="1"/>
    <tag k="socket:chademo:output" v="50 kW"/>
    <tag k="socket:type1_combo" v="1"/>
    <tag k="socket:type1_combo:output" v="50 kW"/>
    <tag k="socket:type2_cable" v="1"/>
    <tag k="socket:type2_cable:output" v="43 kW"/>
    <tag k="source:molplugee.hu:date" v="2020-09-28"/>
  </node>
  <!-- Original coordinates: POINT (48.1168 22.31407) -->
  <!-- OSM <-> POI distance: Non exist-->
  <!-- Checker good: {not_in_water,street_metaphone_is_around}; bad {street_is_not_around}-->
  <!--
Key				Status		New value		OSM value
addr:city                        N		'Vásárosnamény'
addr:housenumber                 N		'1'
addr:postcode                    N		'4800'
addr:street                      N		'Nyíregyházi utca'
authentication:app               N		'yes'
authentication:none              N		'yes'
brand                            N		'MOL'
contact:email                    N		'info@molplugee.hu'
contact:phone                    N		'+36 1 998 9888'
contact:website                  N		'https://molplugee.hu'
fee                              N		'yes'
fixme                            N		'verify import'
motorcar                         N		'yes'
name                             N		'MOL Plugee'
opening_hours                    N		'24/7'
operator                         N		'MOL Nyrt.'
operator:addr                    N		'1117 Budapest, Október huszonharmadika utca 18.'
parking:fee                      N		'no'
ref:HU:company                   N		'01\-10\-041683'
ref:vatin                        N		'HU10625790'
ref:vatin:hu                     N		'10625790\-4\-44'
socket:chademo                   N		'1'
socket:chademo:output            N		'50 kW'
socket:type1_combo               N		'1'
socket:type1_combo:output        N		'50 kW'
socket:type2_cable               N		'1'
socket:type2_cable:output        N		'43 kW'
source:molplugee.hu:date         N		'2020\-09\-28'
-->
  <!-- JOSM magic link: http://localhost:8111/load_object?new_layer=false&objects=n-27&addtags=%7Caddr%3Acity%3DV%C3%A1s%C3%A1rosnam%C3%A9ny%7Caddr%3Ahousenumber%3D1%7Caddr%3Apostcode%3D4800%7Caddr%3Astreet%3DNy%C3%ADregyh%C3%A1zi%20utca%7Cauthentication%3Aapp%3Dyes%7Cauthentication%3Anone%3Dyes%7Cbrand%3DMOL%7Ccontact%3Aemail%3Dinfo%40molplugee.hu%7Ccontact%3Aphone%3D%2B36%201%20998%209888%7Ccontact%3Awebsite%3Dhttps%3A//molplugee.hu%7Cfee%3Dyes%7Cfixme%3Dverify%20import%7Cmotorcar%3Dyes%7Cname%3DMOL%20Plugee%7Copening_hours%3D24/7%7Coperator%3DMOL%20Nyrt.%7Coperator%3Aaddr%3D1117%20Budapest%2C%20Okt%C3%B3ber%20huszonharmadika%20utca%2018.%7Cparking%3Afee%3Dno%7Cref%3AHU%3Acompany%3D01-10-041683%7Cref%3Avatin%3DHU10625790%7Cref%3Avatin%3Ahu%3D10625790-4-44%7Csocket%3Achademo%3D1%7Csocket%3Achademo%3Aoutput%3D50%20kW%7Csocket%3Atype1_combo%3D1%7Csocket%3Atype1_combo%3Aoutput%3D50%20kW%7Csocket%3Atype2_cable%3D1%7Csocket%3Atype2_cable%3Aoutput%3D43%20kW%7Csource%3Amolplugee.hu%3Adate%3D2020-09-28 -->
  <node action="modify" id="-27" lat="48.1168" lon="22.31407" timestamp="2020-09-28T10:09:21Z" uid="8635934" user="osm_poi_matchmaker" version="99999">
    <tag k="addr:city" v="Vásárosnamény"/>
    <tag k="addr:housenumber" v="1"/>
    <tag k="addr:postcode" v="4800"/>
    <tag k="addr:street" v="Nyíregyházi utca"/>
    <tag k="authentication:app" v="yes"/>
    <tag k="authentication:none" v="yes"/>
    <tag k="brand" v="MOL"/>
    <tag k="contact:email" v="info@molplugee.hu"/>
    <tag k="contact:phone" v="+36 1 998 9888"/>
    <tag k="contact:website" v="https://molplugee.hu"/>
    <tag k="fee" v="yes"/>
    <tag k="fixme" v="verify import"/>
    <tag k="motorcar" v="yes"/>
    <tag k="name" v="MOL Plugee"/>
    <tag k="opening_hours" v="24/7"/>
    <tag k="operator" v="MOL Nyrt."/>
    <tag k="operator:addr" v="1117 Budapest, Október huszonharmadika utca 18."/>
    <tag k="parking:fee" v="no"/>
    <tag k="ref:HU:company" v="01-10-041683"/>
    <tag k="ref:vatin" v="HU10625790"/>
    <tag k="ref:vatin:hu" v="10625790-4-44"/>
    <tag k="socket:chademo" v="1"/>
    <tag k="socket:chademo:output" v="50 kW"/>
    <tag k="socket:type1_combo" v="1"/>
    <tag k="socket:type1_combo:output" v="50 kW"/>
    <tag k="socket:type2_cable" v="1"/>
    <tag k="socket:type2_cable:output" v="43 kW"/>
    <tag k="source:molplugee.hu:date" v="2020-09-28"/>
  </node>
  <!-- Original coordinates: POINT (46.8951477375 19.6653086499) -->
  <!-- OSM <-> POI distance: Non exist-->
  <!-- Checker good: {not_in_water,street_is_around,street_metaphone_is_around}; bad {}-->
  <!--
Key				Status		New value		OSM value
addr:city                        N		'Kecskemét'
addr:housenumber                 N		'12/A'
addr:postcode                    N		'6000'
addr:street                      N		'Izsáki út'
authentication:app               N		'yes'
authentication:none              N		'yes'
brand                            N		'MOL'
contact:email                    N		'info@molplugee.hu'
contact:phone                    N		'+36 1 998 9888'
contact:website                  N		'https://molplugee.hu'
fee                              N		'yes'
fixme                            N		'verify import'
motorcar                         N		'yes'
name                             N		'MOL Plugee'
opening_hours                    N		'24/7'
operator                         N		'MOL Nyrt.'
operator:addr                    N		'1117 Budapest, Október huszonharmadika utca 18.'
parking:fee                      N		'no'
ref:HU:company                   N		'01\-10\-041683'
ref:vatin                        N		'HU10625790'
ref:vatin:hu                     N		'10625790\-4\-44'
socket:chademo                   N		'1'
socket:chademo:output            N		'50 kW'
socket:type1_combo               N		'1'
socket:type1_combo:output        N		'50 kW'
socket:type2_cable               N		'1'
socket:type2_cable:output        N		'43 kW'
source:molplugee.hu:date         N		'2020\-09\-28'
-->
  <!-- JOSM magic link: http://localhost:8111/load_object?new_layer=false&objects=n-28&addtags=%7Caddr%3Acity%3DKecskem%C3%A9t%7Caddr%3Ahousenumber%3D12/A%7Caddr%3Apostcode%3D6000%7Caddr%3Astreet%3DIzs%C3%A1ki%20%C3%BAt%7Cauthentication%3Aapp%3Dyes%7Cauthentication%3Anone%3Dyes%7Cbrand%3DMOL%7Ccontact%3Aemail%3Dinfo%40molplugee.hu%7Ccontact%3Aphone%3D%2B36%201%20998%209888%7Ccontact%3Awebsite%3Dhttps%3A//molplugee.hu%7Cfee%3Dyes%7Cfixme%3Dverify%20import%7Cmotorcar%3Dyes%7Cname%3DMOL%20Plugee%7Copening_hours%3D24/7%7Coperator%3DMOL%20Nyrt.%7Coperator%3Aaddr%3D1117%20Budapest%2C%20Okt%C3%B3ber%20huszonharmadika%20utca%2018.%7Cparking%3Afee%3Dno%7Cref%3AHU%3Acompany%3D01-10-041683%7Cref%3Avatin%3DHU10625790%7Cref%3Avatin%3Ahu%3D10625790-4-44%7Csocket%3Achademo%3D1%7Csocket%3Achademo%3Aoutput%3D50%20kW%7Csocket%3Atype1_combo%3D1%7Csocket%3Atype1_combo%3Aoutput%3D50%20kW%7Csocket%3Atype2_cable%3D1%7Csocket%3Atype2_cable%3Aoutput%3D43%20kW%7Csource%3Amolplugee.hu%3Adate%3D2020-09-28 -->
  <node action="modify" id="-28" lat="46.8951477375" lon="19.665308649900002" timestamp="2020-09-28T10:09:21Z" uid="8635934" user="osm_poi_matchmaker" version="99999">
    <tag k="addr:city" v="Kecskemét"/>
    <tag k="addr:housenumber" v="12/A"/>
    <tag k="addr:postcode" v="6000"/>
    <tag k="addr:street" v="Izsáki út"/>
    <tag k="authentication:app" v="yes"/>
    <tag k="authentication:none" v="yes"/>
    <tag k="brand" v="MOL"/>
    <tag k="contact:email" v="info@molplugee.hu"/>
    <tag k="contact:phone" v="+36 1 998 9888"/>
    <tag k="contact:website" v="https://molplugee.hu"/>
    <tag k="fee" v="yes"/>
    <tag k="fixme" v="verify import"/>
    <tag k="motorcar" v="yes"/>
    <tag k="name" v="MOL Plugee"/>
    <tag k="opening_hours" v="24/7"/>
    <tag k="operator" v="MOL Nyrt."/>
    <tag k="operator:addr" v="1117 Budapest, Október huszonharmadika utca 18."/>
    <tag k="parking:fee" v="no"/>
    <tag k="ref:HU:company" v="01-10-041683"/>
    <tag k="ref:vatin" v="HU10625790"/>
    <tag k="ref:vatin:hu" v="10625790-4-44"/>
    <tag k="socket:chademo" v="1"/>
    <tag k="socket:chademo:output" v="50 kW"/>
    <tag k="socket:type1_combo" v="1"/>
    <tag k="socket:type1_combo:output" v="50 kW"/>
    <tag k="socket:type2_cable" v="1"/>
    <tag k="socket:type2_cable:output" v="43 kW"/>
    <tag k="source:molplugee.hu:date" v="2020-09-28"/>
  </node>
  <!-- Original coordinates: POINT (46.27529000000001 20.1465) -->
  <!-- OSM <-> POI distance: Non exist-->
  <!-- Checker good: {not_in_water,street_is_around,street_metaphone_is_around}; bad {}-->
  <!--
Key				Status		New value		OSM value
addr:city                        N		'Szeged'
addr:postcode                    N		'6723'
addr:street                      N		'Csongrádi sugárút'
authentication:app               N		'yes'
authentication:none              N		'yes'
brand                            N		'MOL'
contact:email                    N		'info@molplugee.hu'
contact:phone                    N		'+36 1 998 9888'
contact:website                  N		'https://molplugee.hu'
fee                              N		'yes'
fixme                            N		'verify import'
motorcar                         N		'yes'
name                             N		'MOL Plugee'
opening_hours                    N		'24/7'
operator                         N		'MOL Nyrt.'
operator:addr                    N		'1117 Budapest, Október huszonharmadika utca 18.'
parking:fee                      N		'no'
ref:HU:company                   N		'01\-10\-041683'
ref:vatin                        N		'HU10625790'
ref:vatin:hu                     N		'10625790\-4\-44'
socket:chademo                   N		'1'
socket:chademo:output            N		'50 kW'
socket:type1_combo               N		'1'
socket:type1_combo:output        N		'50 kW'
socket:type2_cable               N		'1'
socket:type2_cable:output        N		'43 kW'
source:molplugee.hu:date         N		'2020\-09\-28'
-->
  <!-- JOSM magic link: http://localhost:8111/load_object?new_layer=false&objects=n-29&addtags=%7Caddr%3Acity%3DSzeged%7Caddr%3Apostcode%3D6723%7Caddr%3Astreet%3DCsongr%C3%A1di%20sug%C3%A1r%C3%BAt%7Cauthentication%3Aapp%3Dyes%7Cauthentication%3Anone%3Dyes%7Cbrand%3DMOL%7Ccontact%3Aemail%3Dinfo%40molplugee.hu%7Ccontact%3Aphone%3D%2B36%201%20998%209888%7Ccontact%3Awebsite%3Dhttps%3A//molplugee.hu%7Cfee%3Dyes%7Cfixme%3Dverify%20import%7Cmotorcar%3Dyes%7Cname%3DMOL%20Plugee%7Copening_hours%3D24/7%7Coperator%3DMOL%20Nyrt.%7Coperator%3Aaddr%3D1117%20Budapest%2C%20Okt%C3%B3ber%20huszonharmadika%20utca%2018.%7Cparking%3Afee%3Dno%7Cref%3AHU%3Acompany%3D01-10-041683%7Cref%3Avatin%3DHU10625790%7Cref%3Avatin%3Ahu%3D10625790-4-44%7Csocket%3Achademo%3D1%7Csocket%3Achademo%3Aoutput%3D50%20kW%7Csocket%3Atype1_combo%3D1%7Csocket%3Atype1_combo%3Aoutput%3D50%20kW%7Csocket%3Atype2_cable%3D1%7Csocket%3Atype2_cable%3Aoutput%3D43%20kW%7Csource%3Amolplugee.hu%3Adate%3D2020-09-28 -->
  <node action="modify" id="-29" lat="46.275290000000005" lon="20.1465" timestamp="2020-09-28T10:09:21Z" uid="8635934" user="osm_poi_matchmaker" version="99999">
    <tag k="addr:city" v="Szeged"/>
    <tag k="addr:postcode" v="6723"/>
    <tag k="addr:street" v="Csongrádi sugárút"/>
    <tag k="authentication:app" v="yes"/>
    <tag k="authentication:none" v="yes"/>
    <tag k="brand" v="MOL"/>
    <tag k="contact:email" v="info@molplugee.hu"/>
    <tag k="contact:phone" v="+36 1 998 9888"/>
    <tag k="contact:website" v="https://molplugee.hu"/>
    <tag k="fee" v="yes"/>
    <tag k="fixme" v="verify import"/>
    <tag k="motorcar" v="yes"/>
    <tag k="name" v="MOL Plugee"/>
    <tag k="opening_hours" v="24/7"/>
    <tag k="operator" v="MOL Nyrt."/>
    <tag k="operator:addr" v="1117 Budapest, Október huszonharmadika utca 18."/>
    <tag k="parking:fee" v="no"/>
    <tag k="ref:HU:company" v="01-10-041683"/>
    <tag k="ref:vatin" v="HU10625790"/>
    <tag k="ref:vatin:hu" v="10625790-4-44"/>
    <tag k="socket:chademo" v="1"/>
    <tag k="socket:chademo:output" v="50 kW"/>
    <tag k="socket:type1_combo" v="1"/>
    <tag k="socket:type1_combo:output" v="50 kW"/>
    <tag k="socket:type2_cable" v="1"/>
    <tag k="socket:type2_cable:output" v="43 kW"/>
    <tag k="source:molplugee.hu:date" v="2020-09-28"/>
  </node>
  <!-- Original coordinates: POINT (47.189851 18.44842) -->
  <!-- OSM <-> POI distance: Non exist-->
  <!-- Checker good: {not_in_water,street_metaphone_is_around}; bad {street_is_not_around}-->
  <!--
Key				Status		New value		OSM value
addr:city                        N		'Székesfehérvár'
addr:housenumber                 N		'66'
addr:postcode                    N		'8000'
addr:street                      N		'Seregélyesi utca'
authentication:app               N		'yes'
authentication:none              N		'yes'
brand                            N		'MOL'
contact:email                    N		'info@molplugee.hu'
contact:phone                    N		'+36 1 998 9888'
contact:website                  N		'https://molplugee.hu'
fee                              N		'yes'
fixme                            N		'verify import'
motorcar                         N		'yes'
name                             N		'MOL Plugee'
opening_hours                    N		'24/7'
operator                         N		'MOL Nyrt.'
operator:addr                    N		'1117 Budapest, Október huszonharmadika utca 18.'
parking:fee                      N		'no'
ref:HU:company                   N		'01\-10\-041683'
ref:vatin                        N		'HU10625790'
ref:vatin:hu                     N		'10625790\-4\-44'
socket:chademo                   N		'1'
socket:chademo:output            N		'50 kW'
socket:type1_combo               N		'1'
socket:type1_combo:output        N		'50 kW'
socket:type2_cable               N		'1'
socket:type2_cable:output        N		'43 kW'
source:molplugee.hu:date         N		'2020\-09\-28'
-->
  <!-- JOSM magic link: http://localhost:8111/load_object?new_layer=false&objects=n-30&addtags=%7Caddr%3Acity%3DSz%C3%A9kesfeh%C3%A9rv%C3%A1r%7Caddr%3Ahousenumber%3D66%7Caddr%3Apostcode%3D8000%7Caddr%3Astreet%3DSereg%C3%A9lyesi%20utca%7Cauthentication%3Aapp%3Dyes%7Cauthentication%3Anone%3Dyes%7Cbrand%3DMOL%7Ccontact%3Aemail%3Dinfo%40molplugee.hu%7Ccontact%3Aphone%3D%2B36%201%20998%209888%7Ccontact%3Awebsite%3Dhttps%3A//molplugee.hu%7Cfee%3Dyes%7Cfixme%3Dverify%20import%7Cmotorcar%3Dyes%7Cname%3DMOL%20Plugee%7Copening_hours%3D24/7%7Coperator%3DMOL%20Nyrt.%7Coperator%3Aaddr%3D1117%20Budapest%2C%20Okt%C3%B3ber%20huszonharmadika%20utca%2018.%7Cparking%3Afee%3Dno%7Cref%3AHU%3Acompany%3D01-10-041683%7Cref%3Avatin%3DHU10625790%7Cref%3Avatin%3Ahu%3D10625790-4-44%7Csocket%3Achademo%3D1%7Csocket%3Achademo%3Aoutput%3D50%20kW%7Csocket%3Atype1_combo%3D1%7Csocket%3Atype1_combo%3Aoutput%3D50%20kW%7Csocket%3Atype2_cable%3D1%7Csocket%3Atype2_cable%3Aoutput%3D43%20kW%7Csource%3Amolplugee.hu%3Adate%3D2020-09-28 -->
  <node action="modify" id="-30" lat="47.189851000000004" lon="18.448420000000002" timestamp="2020-09-28T10:09:21Z" uid="8635934" user="osm_poi_matchmaker" version="99999">
    <tag k="addr:city" v="Székesfehérvár"/>
    <tag k="addr:housenumber" v="66"/>
    <tag k="addr:postcode" v="8000"/>
    <tag k="addr:street" v="Seregélyesi utca"/>
    <tag k="authentication:app" v="yes"/>
    <tag k="authentication:none" v="yes"/>
    <tag k="brand" v="MOL"/>
    <tag k="contact:email" v="info@molplugee.hu"/>
    <tag k="contact:phone" v="+36 1 998 9888"/>
    <tag k="contact:website" v="https://molplugee.hu"/>
    <tag k="fee" v="yes"/>
    <tag k="fixme" v="verify import"/>
    <tag k="motorcar" v="yes"/>
    <tag k="name" v="MOL Plugee"/>
    <tag k="opening_hours" v="24/7"/>
    <tag k="operator" v="MOL Nyrt."/>
    <tag k="operator:addr" v="1117 Budapest, Október huszonharmadika utca 18."/>
    <tag k="parking:fee" v="no"/>
    <tag k="ref:HU:company" v="01-10-041683"/>
    <tag k="ref:vatin" v="HU10625790"/>
    <tag k="ref:vatin:hu" v="10625790-4-44"/>
    <tag k="socket:chademo" v="1"/>
    <tag k="socket:chademo:output" v="50 kW"/>
    <tag k="socket:type1_combo" v="1"/>
    <tag k="socket:type1_combo:output" v="50 kW"/>
    <tag k="socket:type2_cable" v="1"/>
    <tag k="socket:type2_cable:output" v="43 kW"/>
    <tag k="source:molplugee.hu:date" v="2020-09-28"/>
  </node>
  <!-- Original coordinates: POINT (47.01345999999999 18.16966) -->
  <!-- OSM <-> POI distance: Non exist-->
  <!-- Checker good: {not_in_water}; bad {street_is_not_around,street_metaphone_is_not_around}-->
  <!--
Key				Status		New value		OSM value
addr:city                        N		'Balatonakarattya'
addr:postcode                    N		'8172'
addr:street                      N		'71. számú főközlekedési út'
authentication:app               N		'yes'
authentication:none              N		'yes'
brand                            N		'MOL'
contact:email                    N		'info@molplugee.hu'
contact:phone                    N		'+36 1 998 9888'
contact:website                  N		'https://molplugee.hu'
fee                              N		'yes'
fixme                            N		'verify import'
motorcar                         N		'yes'
name                             N		'MOL Plugee'
opening_hours                    N		'24/7'
operator                         N		'MOL Nyrt.'
operator:addr                    N		'1117 Budapest, Október huszonharmadika utca 18.'
parking:fee                      N		'no'
ref:HU:company                   N		'01\-10\-041683'
ref:vatin                        N		'HU10625790'
ref:vatin:hu                     N		'10625790\-4\-44'
socket:chademo                   N		'1'
socket:chademo:output            N		'50 kW'
socket:type1_combo               N		'1'
socket:type1_combo:output        N		'50 kW'
socket:type2_cable               N		'1'
socket:type2_cable:output        N		'43 kW'
source:molplugee.hu:date         N		'2020\-09\-28'
-->
  <!-- JOSM magic link: http://localhost:8111/load_object?new_layer=false&objects=n-31&addtags=%7Caddr%3Acity%3DBalatonakarattya%7Caddr%3Apostcode%3D8172%7Caddr%3Astreet%3D71.%20sz%C3%A1m%C3%BA%20f%C5%91k%C3%B6zleked%C3%A9si%20%C3%BAt%7Cauthentication%3Aapp%3Dyes%7Cauthentication%3Anone%3Dyes%7Cbrand%3DMOL%7Ccontact%3Aemail%3Dinfo%40molplugee.hu%7Ccontact%3Aphone%3D%2B36%201%20998%209888%7Ccontact%3Awebsite%3Dhttps%3A//molplugee.hu%7Cfee%3Dyes%7Cfixme%3Dverify%20import%7Cmotorcar%3Dyes%7Cname%3DMOL%20Plugee%7Copening_hours%3D24/7%7Coperator%3DMOL%20Nyrt.%7Coperator%3Aaddr%3D1117%20Budapest%2C%20Okt%C3%B3ber%20huszonharmadika%20utca%2018.%7Cparking%3Afee%3Dno%7Cref%3AHU%3Acompany%3D01-10-041683%7Cref%3Avatin%3DHU10625790%7Cref%3Avatin%3Ahu%3D10625790-4-44%7Csocket%3Achademo%3D1%7Csocket%3Achademo%3Aoutput%3D50%20kW%7Csocket%3Atype1_combo%3D1%7Csocket%3Atype1_combo%3Aoutput%3D50%20kW%7Csocket%3Atype2_cable%3D1%7Csocket%3Atype2_cable%3Aoutput%3D43%20kW%7Csource%3Amolplugee.hu%3Adate%3D2020-09-28 -->
  <node action="modify" id="-31" lat="47.013459999999995" lon="18.16966" timestamp="2020-09-28T10:09:21Z" uid="8635934" user="osm_poi_matchmaker" version="99999">
    <tag k="addr:city" v="Balatonakarattya"/>
    <tag k="addr:postcode" v="8172"/>
    <tag k="addr:street" v="71. számú főközlekedési út"/>
    <tag k="authentication:app" v="yes"/>
    <tag k="authentication:none" v="yes"/>
    <tag k="brand" v="MOL"/>
    <tag k="contact:email" v="info@molplugee.hu"/>
    <tag k="contact:phone" v="+36 1 998 9888"/>
    <tag k="contact:website" v="https://molplugee.hu"/>
    <tag k="fee" v="yes"/>
    <tag k="fixme" v="verify import"/>
    <tag k="motorcar" v="yes"/>
    <tag k="name" v="MOL Plugee"/>
    <tag k="opening_hours" v="24/7"/>
    <tag k="operator" v="MOL Nyrt."/>
    <tag k="operator:addr" v="1117 Budapest, Október huszonharmadika utca 18."/>
    <tag k="parking:fee" v="no"/>
    <tag k="ref:HU:company" v="01-10-041683"/>
    <tag k="ref:vatin" v="HU10625790"/>
    <tag k="ref:vatin:hu" v="10625790-4-44"/>
    <tag k="socket:chademo" v="1"/>
    <tag k="socket:chademo:output" v="50 kW"/>
    <tag k="socket:type1_combo" v="1"/>
    <tag k="socket:type1_combo:output" v="50 kW"/>
    <tag k="socket:type2_cable" v="1"/>
    <tag k="socket:type2_cable:output" v="43 kW"/>
    <tag k="source:molplugee.hu:date" v="2020-09-28"/>
  </node>
  <!-- Original coordinates: POINT (46.919136 18.086923) -->
  <!-- OSM <-> POI distance: Non exist-->
  <!-- Checker good: {not_in_water,street_metaphone_is_around}; bad {street_is_not_around}-->
  <!--
Key				Status		New value		OSM value
addr:city                        N		'Siófok'
addr:housenumber                 N		'106'
addr:postcode                    N		'8600'
addr:street                      N		'Wesselényi utca'
authentication:app               N		'yes'
authentication:none              N		'yes'
brand                            N		'MOL'
contact:email                    N		'info@molplugee.hu'
contact:phone                    N		'+36 1 998 9888'
contact:website                  N		'https://molplugee.hu'
fee                              N		'yes'
fixme                            N		'verify import'
motorcar                         N		'yes'
name                             N		'MOL Plugee'
opening_hours                    N		'24/7'
operator                         N		'MOL Nyrt.'
operator:addr                    N		'1117 Budapest, Október huszonharmadika utca 18.'
parking:fee                      N		'no'
ref:HU:company                   N		'01\-10\-041683'
ref:vatin                        N		'HU10625790'
ref:vatin:hu                     N		'10625790\-4\-44'
socket:chademo                   N		'1'
socket:chademo:output            N		'50 kW'
socket:type1_combo               N		'1'
socket:type1_combo:output        N		'50 kW'
socket:type2_cable               N		'1'
socket:type2_cable:output        N		'43 kW'
source:molplugee.hu:date         N		'2020\-09\-28'
-->
  <!-- JOSM magic link: http://localhost:8111/load_object?new_layer=false&objects=n-32&addtags=%7Caddr%3Acity%3DSi%C3%B3fok%7Caddr%3Ahousenumber%3D106%7Caddr%3Apostcode%3D8600%7Caddr%3Astreet%3DWessel%C3%A9nyi%20utca%7Cauthentication%3Aapp%3Dyes%7Cauthentication%3Anone%3Dyes%7Cbrand%3DMOL%7Ccontact%3Aemail%3Dinfo%40molplugee.hu%7Ccontact%3Aphone%3D%2B36%201%20998%209888%7Ccontact%3Awebsite%3Dhttps%3A//molplugee.hu%7Cfee%3Dyes%7Cfixme%3Dverify%20import%7Cmotorcar%3Dyes%7Cname%3DMOL%20Plugee%7Copening_hours%3D24/7%7Coperator%3DMOL%20Nyrt.%7Coperator%3Aaddr%3D1117%20Budapest%2C%20Okt%C3%B3ber%20huszonharmadika%20utca%2018.%7Cparking%3Afee%3Dno%7Cref%3AHU%3Acompany%3D01-10-041683%7Cref%3Avatin%3DHU10625790%7Cref%3Avatin%3Ahu%3D10625790-4-44%7Csocket%3Achademo%3D1%7Csocket%3Achademo%3Aoutput%3D50%20kW%7Csocket%3Atype1_combo%3D1%7Csocket%3Atype1_combo%3Aoutput%3D50%20kW%7Csocket%3Atype2_cable%3D1%7Csocket%3Atype2_cable%3Aoutput%3D43%20kW%7Csource%3Amolplugee.hu%3Adate%3D2020-09-28 -->
  <node action="modify" id="-32" lat="46.919136" lon="18.086923000000002" timestamp="2020-09-28T10:09:21Z" uid="8635934" user="osm_poi_matchmaker" version="99999">
    <tag k="addr:city" v="Siófok"/>
    <tag k="addr:housenumber" v="106"/>
    <tag k="addr:postcode" v="8600"/>
    <tag k="addr:street" v="Wesselényi utca"/>
    <tag k="authentication:app" v="yes"/>
    <tag k="authentication:none" v="yes"/>
    <tag k="brand" v="MOL"/>
    <tag k="contact:email" v="info@molplugee.hu"/>
    <tag k="contact:phone" v="+36 1 998 9888"/>
    <tag k="contact:website" v="https://molplugee.hu"/>
    <tag k="fee" v="yes"/>
    <tag k="fixme" v="verify import"/>
    <tag k="motorcar" v="yes"/>
    <tag k="name" v="MOL Plugee"/>
    <tag k="opening_hours" v="24/7"/>
    <tag k="operator" v="MOL Nyrt."/>
    <tag k="operator:addr" v="1117 Budapest, Október huszonharmadika utca 18."/>
    <tag k="parking:fee" v="no"/>
    <tag k="ref:HU:company" v="01-10-041683"/>
    <tag k="ref:vatin" v="HU10625790"/>
    <tag k="ref:vatin:hu" v="10625790-4-44"/>
    <tag k="socket:chademo" v="1"/>
    <tag k="socket:chademo:output" v="50 kW"/>
    <tag k="socket:type1_combo" v="1"/>
    <tag k="socket:type1_combo:output" v="50 kW"/>
    <tag k="socket:type2_cable" v="1"/>
    <tag k="socket:type2_cable:output" v="43 kW"/>
    <tag k="source:molplugee.hu:date" v="2020-09-28"/>
  </node>
  <!-- Original coordinates: POINT (46.46706 16.99475) -->
  <!-- OSM <-> POI distance: Non exist-->
  <!-- Checker good: {not_in_water,street_is_around,street_metaphone_is_around}; bad {}-->
  <!--
Key				Status		New value		OSM value
addr:city                        N		'Nagykanizsa'
addr:housenumber                 N		'15'
addr:postcode                    N		'8800'
addr:street                      N		'Garay utca'
authentication:app               N		'yes'
authentication:none              N		'yes'
brand                            N		'MOL'
contact:email                    N		'info@molplugee.hu'
contact:phone                    N		'+36 1 998 9888'
contact:website                  N		'https://molplugee.hu'
fee                              N		'yes'
fixme                            N		'verify import'
motorcar                         N		'yes'
name                             N		'MOL Plugee'
opening_hours                    N		'24/7'
operator                         N		'MOL Nyrt.'
operator:addr                    N		'1117 Budapest, Október huszonharmadika utca 18.'
parking:fee                      N		'no'
ref:HU:company                   N		'01\-10\-041683'
ref:vatin                        N		'HU10625790'
ref:vatin:hu                     N		'10625790\-4\-44'
socket:chademo                   N		'1'
socket:chademo:output            N		'30 kW'
socket:type1_combo               N		'1'
socket:type1_combo:output        N		'30 kW'
socket:type2_cable               N		'1'
socket:type2_cable:output        N		'11 kW'
source:molplugee.hu:date         N		'2020\-09\-28'
-->
  <!-- JOSM magic link: http://localhost:8111/load_object?new_layer=false&objects=n-33&addtags=%7Caddr%3Acity%3DNagykanizsa%7Caddr%3Ahousenumber%3D15%7Caddr%3Apostcode%3D8800%7Caddr%3Astreet%3DGaray%20utca%7Cauthentication%3Aapp%3Dyes%7Cauthentication%3Anone%3Dyes%7Cbrand%3DMOL%7Ccontact%3Aemail%3Dinfo%40molplugee.hu%7Ccontact%3Aphone%3D%2B36%201%20998%209888%7Ccontact%3Awebsite%3Dhttps%3A//molplugee.hu%7Cfee%3Dyes%7Cfixme%3Dverify%20import%7Cmotorcar%3Dyes%7Cname%3DMOL%20Plugee%7Copening_hours%3D24/7%7Coperator%3DMOL%20Nyrt.%7Coperator%3Aaddr%3D1117%20Budapest%2C%20Okt%C3%B3ber%20huszonharmadika%20utca%2018.%7Cparking%3Afee%3Dno%7Cref%3AHU%3Acompany%3D01-10-041683%7Cref%3Avatin%3DHU10625790%7Cref%3Avatin%3Ahu%3D10625790-4-44%7Csocket%3Achademo%3D1%7Csocket%3Achademo%3Aoutput%3D30%20kW%7Csocket%3Atype1_combo%3D1%7Csocket%3Atype1_combo%3Aoutput%3D30%20kW%7Csocket%3Atype2_cable%3D1%7Csocket%3Atype2_cable%3Aoutput%3D11%20kW%7Csource%3Amolplugee.hu%3Adate%3D2020-09-28 -->
  <node action="modify" id="-33" lat="46.46706" lon="16.99475" timestamp="2020-09-28T10:09:21Z" uid="8635934" user="osm_poi_matchmaker" version="99999">
    <tag k="addr:city" v="Nagykanizsa"/>
    <tag k="addr:housenumber" v="15"/>
    <tag k="addr:postcode" v="8800"/>
    <tag k="addr:street" v="Garay utca"/>
    <tag k="authentication:app" v="yes"/>
    <tag k="authentication:none" v="yes"/>
    <tag k="brand" v="MOL"/>
    <tag k="contact:email" v="info@molplugee.hu"/>
    <tag k="contact:phone" v="+36 1 998 9888"/>
    <tag k="contact:website" v="https://molplugee.hu"/>
    <tag k="fee" v="yes"/>
    <tag k="fixme" v="verify import"/>
    <tag k="motorcar" v="yes"/>
    <tag k="name" v="MOL Plugee"/>
    <tag k="opening_hours" v="24/7"/>
    <tag k="operator" v="MOL Nyrt."/>
    <tag k="operator:addr" v="1117 Budapest, Október huszonharmadika utca 18."/>
    <tag k="parking:fee" v="no"/>
    <tag k="ref:HU:company" v="01-10-041683"/>
    <tag k="ref:vatin" v="HU10625790"/>
    <tag k="ref:vatin:hu" v="10625790-4-44"/>
    <tag k="socket:chademo" v="1"/>
    <tag k="socket:chademo:output" v="30 kW"/>
    <tag k="socket:type1_combo" v="1"/>
    <tag k="socket:type1_combo:output" v="30 kW"/>
    <tag k="socket:type2_cable" v="1"/>
    <tag k="socket:type2_cable:output" v="11 kW"/>
    <tag k="source:molplugee.hu:date" v="2020-09-28"/>
  </node>
  <!-- Original coordinates: POINT (47.674123 17.676819) -->
  <!-- OSM <-> POI distance: Non exist-->
  <!-- Checker good: {not_in_water,street_is_around,street_metaphone_is_around}; bad {}-->
  <!--
Key				Status		New value		OSM value
addr:city                        N		'Győr'
addr:postcode                    N		'9028'
addr:street                      N		'Tatai út'
authentication:app               N		'yes'
authentication:none              N		'yes'
brand                            N		'MOL'
contact:email                    N		'info@molplugee.hu'
contact:phone                    N		'+36 1 998 9888'
contact:website                  N		'https://molplugee.hu'
fee                              N		'yes'
fixme                            N		'verify import'
motorcar                         N		'yes'
name                             N		'MOL Plugee'
opening_hours                    N		'24/7'
operator                         N		'MOL Nyrt.'
operator:addr                    N		'1117 Budapest, Október huszonharmadika utca 18.'
parking:fee                      N		'no'
ref:HU:company                   N		'01\-10\-041683'
ref:vatin                        N		'HU10625790'
ref:vatin:hu                     N		'10625790\-4\-44'
socket:chademo                   N		'1'
socket:chademo:output            N		'50 kW'
socket:type1_combo               N		'1'
socket:type1_combo:output        N		'50 kW'
socket:type2_cable               N		'1'
socket:type2_cable:output        N		'43 kW'
source:molplugee.hu:date         N		'2020\-09\-28'
-->
  <!-- JOSM magic link: http://localhost:8111/load_object?new_layer=false&objects=n-34&addtags=%7Caddr%3Acity%3DGy%C5%91r%7Caddr%3Apostcode%3D9028%7Caddr%3Astreet%3DTatai%20%C3%BAt%7Cauthentication%3Aapp%3Dyes%7Cauthentication%3Anone%3Dyes%7Cbrand%3DMOL%7Ccontact%3Aemail%3Dinfo%40molplugee.hu%7Ccontact%3Aphone%3D%2B36%201%20998%209888%7Ccontact%3Awebsite%3Dhttps%3A//molplugee.hu%7Cfee%3Dyes%7Cfixme%3Dverify%20import%7Cmotorcar%3Dyes%7Cname%3DMOL%20Plugee%7Copening_hours%3D24/7%7Coperator%3DMOL%20Nyrt.%7Coperator%3Aaddr%3D1117%20Budapest%2C%20Okt%C3%B3ber%20huszonharmadika%20utca%2018.%7Cparking%3Afee%3Dno%7Cref%3AHU%3Acompany%3D01-10-041683%7Cref%3Avatin%3DHU10625790%7Cref%3Avatin%3Ahu%3D10625790-4-44%7Csocket%3Achademo%3D1%7Csocket%3Achademo%3Aoutput%3D50%20kW%7Csocket%3Atype1_combo%3D1%7Csocket%3Atype1_combo%3Aoutput%3D50%20kW%7Csocket%3Atype2_cable%3D1%7Csocket%3Atype2_cable%3Aoutput%3D43%20kW%7Csource%3Amolplugee.hu%3Adate%3D2020-09-28 -->
  <node action="modify" id="-34" lat="47.674123" lon="17.676819000000002" timestamp="2020-09-28T10:09:21Z" uid="8635934" user="osm_poi_matchmaker" version="99999">
    <tag k="addr:city" v="Győr"/>
    <tag k="addr:postcode" v="9028"/>
    <tag k="addr:street" v="Tatai út"/>
    <tag k="authentication:app" v="yes"/>
    <tag k="authentication:none" v="yes"/>
    <tag k="brand" v="MOL"/>
    <tag k="contact:email" v="info@molplugee.hu"/>
    <tag k="contact:phone" v="+36 1 998 9888"/>
    <tag k="contact:website" v="https://molplugee.hu"/>
    <tag k="fee" v="yes"/>
    <tag k="fixme" v="verify import"/>
    <tag k="motorcar" v="yes"/>
    <tag k="name" v="MOL Plugee"/>
    <tag k="opening_hours" v="24/7"/>
    <tag k="operator" v="MOL Nyrt."/>
    <tag k="operator:addr" v="1117 Budapest, Október huszonharmadika utca 18."/>
    <tag k="parking:fee" v="no"/>
    <tag k="ref:HU:company" v="01-10-041683"/>
    <tag k="ref:vatin" v="HU10625790"/>
    <tag k="ref:vatin:hu" v="10625790-4-44"/>
    <tag k="socket:chademo" v="1"/>
    <tag k="socket:chademo:output" v="50 kW"/>
    <tag k="socket:type1_combo" v="1"/>
    <tag k="socket:type1_combo:output" v="50 kW"/>
    <tag k="socket:type2_cable" v="1"/>
    <tag k="socket:type2_cable:output" v="43 kW"/>
    <tag k="source:molplugee.hu:date" v="2020-09-28"/>
  </node>
  <!-- Original coordinates: POINT (47.633823 17.665012) -->
  <!-- OSM <-> POI distance: Non exist-->
  <!-- Checker good: {not_in_water}; bad {street_is_not_around,street_metaphone_is_not_around}-->
  <!--
Key				Status		New value		OSM value
addr:city                        N		'Győrújbarát'
addr:postcode                    N		'9081'
addr:street                      N		'M1 Arrabona észak'
authentication:app               N		'yes'
authentication:none              N		'yes'
brand                            N		'MOL'
contact:email                    N		'info@molplugee.hu'
contact:phone                    N		'+36 1 998 9888'
contact:website                  N		'https://molplugee.hu'
fee                              N		'yes'
fixme                            N		'verify import'
motorcar                         N		'yes'
name                             N		'MOL Plugee'
opening_hours                    N		'24/7'
operator                         N		'MOL Nyrt.'
operator:addr                    N		'1117 Budapest, Október huszonharmadika utca 18.'
parking:fee                      N		'no'
ref:HU:company                   N		'01\-10\-041683'
ref:vatin                        N		'HU10625790'
ref:vatin:hu                     N		'10625790\-4\-44'
socket:chademo                   N		'1'
socket:chademo:output            N		'50 kW'
socket:type1_combo               N		'1'
socket:type1_combo:output        N		'50 kW'
socket:type2_cable               N		'1'
socket:type2_cable:output        N		'43 kW'
source:molplugee.hu:date         N		'2020\-09\-28'
-->
  <!-- JOSM magic link: http://localhost:8111/load_object?new_layer=false&objects=n-35&addtags=%7Caddr%3Acity%3DGy%C5%91r%C3%BAjbar%C3%A1t%7Caddr%3Apostcode%3D9081%7Caddr%3Astreet%3DM1%20Arrabona%20%C3%A9szak%7Cauthentication%3Aapp%3Dyes%7Cauthentication%3Anone%3Dyes%7Cbrand%3DMOL%7Ccontact%3Aemail%3Dinfo%40molplugee.hu%7Ccontact%3Aphone%3D%2B36%201%20998%209888%7Ccontact%3Awebsite%3Dhttps%3A//molplugee.hu%7Cfee%3Dyes%7Cfixme%3Dverify%20import%7Cmotorcar%3Dyes%7Cname%3DMOL%20Plugee%7Copening_hours%3D24/7%7Coperator%3DMOL%20Nyrt.%7Coperator%3Aaddr%3D1117%20Budapest%2C%20Okt%C3%B3ber%20huszonharmadika%20utca%2018.%7Cparking%3Afee%3Dno%7Cref%3AHU%3Acompany%3D01-10-041683%7Cref%3Avatin%3DHU10625790%7Cref%3Avatin%3Ahu%3D10625790-4-44%7Csocket%3Achademo%3D1%7Csocket%3Achademo%3Aoutput%3D50%20kW%7Csocket%3Atype1_combo%3D1%7Csocket%3Atype1_combo%3Aoutput%3D50%20kW%7Csocket%3Atype2_cable%3D1%7Csocket%3Atype2_cable%3Aoutput%3D43%20kW%7Csource%3Amolplugee.hu%3Adate%3D2020-09-28 -->
  <node action="modify" id="-35" lat="47.633823" lon="17.665012" timestamp="2020-09-28T10:09:21Z" uid="8635934" user="osm_poi_matchmaker" version="99999">
    <tag k="addr:city" v="Győrújbarát"/>
    <tag k="addr:postcode" v="9081"/>
    <tag k="addr:street" v="M1 Arrabona észak"/>
    <tag k="authentication:app" v="yes"/>
    <tag k="authentication:none" v="yes"/>
    <tag k="brand" v="MOL"/>
    <tag k="contact:email" v="info@molplugee.hu"/>
    <tag k="contact:phone" v="+36 1 998 9888"/>
    <tag k="contact:website" v="https://molplugee.hu"/>
    <tag k="fee" v="yes"/>
    <tag k="fixme" v="verify import"/>
    <tag k="motorcar" v="yes"/>
    <tag k="name" v="MOL Plugee"/>
    <tag k="opening_hours" v="24/7"/>
    <tag k="operator" v="MOL Nyrt."/>
    <tag k="operator:addr" v="1117 Budapest, Október huszonharmadika utca 18."/>
    <tag k="parking:fee" v="no"/>
    <tag k="ref:HU:company" v="01-10-041683"/>
    <tag k="ref:vatin" v="HU10625790"/>
    <tag k="ref:vatin:hu" v="10625790-4-44"/>
    <tag k="socket:chademo" v="1"/>
    <tag k="socket:chademo:output" v="50 kW"/>
    <tag k="socket:type1_combo" v="1"/>
    <tag k="socket:type1_combo:output" v="50 kW"/>
    <tag k="socket:type2_cable" v="1"/>
    <tag k="socket:type2_cable:output" v="43 kW"/>
    <tag k="source:molplugee.hu:date" v="2020-09-28"/>
  </node>
</osm>
