<?xml version='1.0' encoding='UTF-8'?>
<osm generator="JOSM" version="0.6">
  <!-- OSM link: https://osm.org/node/4933475361 -->
  <!-- Original coordinates: POINT (47.546497 19.028357) -->
  <!-- OSM <-> POI distance: 109.80691786 m-->
  <!-- Checker good: {not_in_water}; bad {}-->
  <!-- Original tags: 'fixme':'verify'; 'name':'5180 Interspar Eurocenter'; 'shop':'convenience'; 'source':'route4u'; 'toilets:wheelchair':'yes'; 'wheelchair':'yes';  -->
  <!-- JOSM magic link: http://localhost:8111/load_object?new_layer=false&objects=n4933475361&addtags=%7Caddr%3Acity%3DBudapest%7Caddr%3Acountry%3DHU%7Caddr%3Ahousenumber%3D154%7Caddr%3Apostcode%3D1037%7Caddr%3Astreet%3DB%C3%A9csi%20%C3%BAt%7Cbranch%3DInterspar%20hipermarket%20Budapest%7Cbrand%3DSpar%7Cbrand%3Awikidata%3DQ610492%7Cbrand%3Awikipedia%3Dhu%3ASpar%7Cemail%3Dvevoszolgalat%40spar.hu%7Cfacebook%3Dhttps%3A//www.facebook.com/sparmagyarorszag%7Cfixme%3Dverify%7Cimport%3Dosm_poi_matchmaker%7Cinstagram%3Dhttps%3A//www.instagram.com/sparmagyarorszag%7Cname%3DInterspar%7Coperator%3DSPAR%20Magyarorsz%C3%A1g%20Kereskedelmi%20Kft.%7Cpayment%3Aamerican_express%3Dyes%7Cpayment%3Acash%3Dyes%7Cpayment%3Acontactless%3Dyes%7Cpayment%3Aerzsebet%3Dyes%7Cpayment%3Aerzsebet_plus%3Dyes%7Cpayment%3Amaestro%3Dyes%7Cpayment%3Amastercard%3Dyes%7Cpayment%3Av_pay%3Dyes%7Cpayment%3Avisa%3Dyes%7Cpayment%3Avisa_electron%3Dyes%7Cphone%3D%2B36208237727%7Cshop%3Dsupermarket%7Csource%3Droute4u%7Csource%3Awww.spar.hu%3Adate%3D2018-11-03%7Ctoilets%3Awheelchair%3Dyes%7Cwebsite%3Dhttps%3A//www.spar.hu/content/aspiag_spar_hu/hu_HU/uzletek/10/interspar-hipermarket-3-keruelet.html%7Cwheelchair%3Dyes%7Cyoutube%3Dhttps%3A//www.youtube.com/channel/UC9tu8COHiy4WkeTIN1k_Y8A -->
  <node action="modify" id="4933475361" lat="47.5455109949089" lon="19.0284378973512" timestamp="2017-09-11T09:28:16Z" uid="8635934" user="osm_poi_matchmaker" version="3">
    <tag k="addr:city" v="Budapest"/>
    <tag k="addr:country" v="HU"/>
    <tag k="addr:housenumber" v="154"/>
    <tag k="addr:postcode" v="1037"/>
    <tag k="addr:street" v="Bécsi út"/>
    <tag k="branch" v="Interspar hipermarket Budapest"/>
    <tag k="brand" v="Spar"/>
    <tag k="brand:wikidata" v="Q610492"/>
    <tag k="brand:wikipedia" v="hu:Spar"/>
    <tag k="email" v="vevoszolgalat@spar.hu"/>
    <tag k="facebook" v="https://www.facebook.com/sparmagyarorszag"/>
    <tag k="fixme" v="verify"/>
    <tag k="import" v="osm_poi_matchmaker"/>
    <tag k="instagram" v="https://www.instagram.com/sparmagyarorszag"/>
    <tag k="name" v="Interspar"/>
    <tag k="operator" v="SPAR Magyarország Kereskedelmi Kft."/>
    <tag k="payment:american_express" v="yes"/>
    <tag k="payment:cash" v="yes"/>
    <tag k="payment:contactless" v="yes"/>
    <tag k="payment:erzsebet" v="yes"/>
    <tag k="payment:erzsebet_plus" v="yes"/>
    <tag k="payment:maestro" v="yes"/>
    <tag k="payment:mastercard" v="yes"/>
    <tag k="payment:v_pay" v="yes"/>
    <tag k="payment:visa" v="yes"/>
    <tag k="payment:visa_electron" v="yes"/>
    <tag k="phone" v="+36208237727"/>
    <tag k="shop" v="supermarket"/>
    <tag k="source" v="route4u"/>
    <tag k="source:www.spar.hu:date" v="2018-11-03"/>
    <tag k="toilets:wheelchair" v="yes"/>
    <tag k="website" v="https://www.spar.hu/content/aspiag_spar_hu/hu_HU/uzletek/10/interspar-hipermarket-3-keruelet.html"/>
    <tag k="wheelchair" v="yes"/>
    <tag k="youtube" v="https://www.youtube.com/channel/UC9tu8COHiy4WkeTIN1k_Y8A"/>
  </node>
  <!-- OSM link: https://osm.org/node/1167986293 -->
  <!-- Original coordinates: POINT (47.470433 19.156749) -->
  <!-- OSM <-> POI distance: 73.74565293 m-->
  <!-- Checker good: {not_in_water}; bad {}-->
  <!-- Original tags: 'name':'INTERSPAR'; 'shop':'supermarket'; 'website':'http://www.spar.hu'; 'wheelchair':'yes';  -->
  <!-- JOSM magic link: http://localhost:8111/load_object?new_layer=false&objects=n1167986293&addtags=%7Caddr%3Acity%3DBudapest%7Caddr%3Acountry%3DHU%7Caddr%3Ahousenumber%3D30%7Caddr%3Apostcode%3D1103%7Caddr%3Astreet%3DSibrik%20Mikl%C3%B3s%20%C3%BAt%7Cbranch%3DInterspar%20hipermarket%20Budapest%7Cbrand%3DSpar%7Cbrand%3Awikidata%3DQ610492%7Cbrand%3Awikipedia%3Dhu%3ASpar%7Cemail%3Dvevoszolgalat%40spar.hu%7Cfacebook%3Dhttps%3A//www.facebook.com/sparmagyarorszag%7Cimport%3Dosm_poi_matchmaker%7Cinstagram%3Dhttps%3A//www.instagram.com/sparmagyarorszag%7Cname%3DInterspar%7Coperator%3DSPAR%20Magyarorsz%C3%A1g%20Kereskedelmi%20Kft.%7Cpayment%3Aamerican_express%3Dyes%7Cpayment%3Acash%3Dyes%7Cpayment%3Acontactless%3Dyes%7Cpayment%3Aerzsebet%3Dyes%7Cpayment%3Aerzsebet_plus%3Dyes%7Cpayment%3Amaestro%3Dyes%7Cpayment%3Amastercard%3Dyes%7Cpayment%3Av_pay%3Dyes%7Cpayment%3Avisa%3Dyes%7Cpayment%3Avisa_electron%3Dyes%7Cphone%3D%2B36208237727%7Cshop%3Dsupermarket%7Csource%3Awww.spar.hu%3Adate%3D2018-11-03%7Cwebsite%3Dhttps%3A//www.spar.hu/content/aspiag_spar_hu/hu_HU/uzletek/11/interspar-hipermarket-10-keruelet0.html%7Cwheelchair%3Dyes%7Cyoutube%3Dhttps%3A//www.youtube.com/channel/UC9tu8COHiy4WkeTIN1k_Y8A -->
  <node action="modify" id="1167986293" lat="47.4706267949121" lon="19.1558106973335" timestamp="2015-12-13T16:30:02Z" uid="8635934" user="osm_poi_matchmaker" version="5">
    <tag k="addr:city" v="Budapest"/>
    <tag k="addr:country" v="HU"/>
    <tag k="addr:housenumber" v="30"/>
    <tag k="addr:postcode" v="1103"/>
    <tag k="addr:street" v="Sibrik Miklós út"/>
    <tag k="branch" v="Interspar hipermarket Budapest"/>
    <tag k="brand" v="Spar"/>
    <tag k="brand:wikidata" v="Q610492"/>
    <tag k="brand:wikipedia" v="hu:Spar"/>
    <tag k="email" v="vevoszolgalat@spar.hu"/>
    <tag k="facebook" v="https://www.facebook.com/sparmagyarorszag"/>
    <tag k="import" v="osm_poi_matchmaker"/>
    <tag k="instagram" v="https://www.instagram.com/sparmagyarorszag"/>
    <tag k="name" v="Interspar"/>
    <tag k="operator" v="SPAR Magyarország Kereskedelmi Kft."/>
    <tag k="payment:american_express" v="yes"/>
    <tag k="payment:cash" v="yes"/>
    <tag k="payment:contactless" v="yes"/>
    <tag k="payment:erzsebet" v="yes"/>
    <tag k="payment:erzsebet_plus" v="yes"/>
    <tag k="payment:maestro" v="yes"/>
    <tag k="payment:mastercard" v="yes"/>
    <tag k="payment:v_pay" v="yes"/>
    <tag k="payment:visa" v="yes"/>
    <tag k="payment:visa_electron" v="yes"/>
    <tag k="phone" v="+36208237727"/>
    <tag k="shop" v="supermarket"/>
    <tag k="source:www.spar.hu:date" v="2018-11-03"/>
    <tag k="website" v="https://www.spar.hu/content/aspiag_spar_hu/hu_HU/uzletek/11/interspar-hipermarket-10-keruelet0.html"/>
    <tag k="wheelchair" v="yes"/>
    <tag k="youtube" v="https://www.youtube.com/channel/UC9tu8COHiy4WkeTIN1k_Y8A"/>
  </node>
  <node action="modify" id="2901186562" lat="47.5066778" lon="19.145738" timestamp="2014-06-05T12:51:04Z" uid="479610" user="igor2" version="1"/>
  <node action="modify" id="2901186537" lat="47.5063497" lon="19.1458095" timestamp="2014-06-05T12:51:04Z" uid="479610" user="igor2" version="1"/>
  <node action="modify" id="2901186541" lat="47.5064021" lon="19.1463366" timestamp="2014-06-05T12:51:04Z" uid="479610" user="igor2" version="1"/>
  <node action="modify" id="2901186559" lat="47.5066687" lon="19.1462785" timestamp="2014-06-05T12:51:04Z" uid="479610" user="igor2" version="1"/>
  <node action="modify" id="2901186561" lat="47.5066772" lon="19.1463641" timestamp="2014-06-05T12:51:04Z" uid="479610" user="igor2" version="1"/>
  <node action="modify" id="2901186571" lat="47.5067366" lon="19.1463512" timestamp="2014-06-05T12:51:04Z" uid="479610" user="igor2" version="1"/>
  <node action="modify" id="2901186568" lat="47.5067281" lon="19.1462654" timestamp="2014-06-05T12:51:04Z" uid="479610" user="igor2" version="1"/>
  <node action="modify" id="2901186580" lat="47.5067834" lon="19.1462533" timestamp="2014-06-05T12:51:05Z" uid="479610" user="igor2" version="1"/>
  <node action="modify" id="2901186575" lat="47.5067457" lon="19.1458744" timestamp="2014-06-05T12:51:05Z" uid="479610" user="igor2" version="1"/>
  <node action="modify" id="2901186564" lat="47.5066925" lon="19.145886" timestamp="2014-06-05T12:51:04Z" uid="479610" user="igor2" version="1"/>
  <node action="modify" id="2901186562" lat="47.5066778" lon="19.145738" timestamp="2014-06-05T12:51:04Z" uid="479610" user="igor2" version="1"/>
  <!-- OSM link: https://osm.org/way/286441729 -->
  <!-- Original coordinates: POINT (47.5029 19.13633) -->
  <!-- OSM <-> POI distance: 808.80688848 m-->
  <!-- Checker good: {not_in_water}; bad {}-->
  <!-- Original tags:  -->
  <!-- JOSM magic link: http://localhost:8111/load_object?new_layer=false&objects=w286441729&addtags=%7Caddr%3Acity%3DBudapest%7Caddr%3Acountry%3DHU%7Caddr%3Ahousenumber%3D61%7Caddr%3Apostcode%3D1106%7Caddr%3Astreet%3DKerepesi%20%C3%BAt%7Cbranch%3DInterspar%20hipermarket%20Budapest%7Cbrand%3DSpar%7Cbrand%3Awikidata%3DQ610492%7Cbrand%3Awikipedia%3Dhu%3ASpar%7Cemail%3Dvevoszolgalat%40spar.hu%7Cfacebook%3Dhttps%3A//www.facebook.com/sparmagyarorszag%7Cimport%3Dosm_poi_matchmaker%7Cinstagram%3Dhttps%3A//www.instagram.com/sparmagyarorszag%7Cname%3DInterspar%7Coperator%3DSPAR%20Magyarorsz%C3%A1g%20Kereskedelmi%20Kft.%7Cpayment%3Aamerican_express%3Dyes%7Cpayment%3Acash%3Dyes%7Cpayment%3Acontactless%3Dyes%7Cpayment%3Aerzsebet%3Dyes%7Cpayment%3Aerzsebet_plus%3Dyes%7Cpayment%3Amaestro%3Dyes%7Cpayment%3Amastercard%3Dyes%7Cpayment%3Av_pay%3Dyes%7Cpayment%3Avisa%3Dyes%7Cpayment%3Avisa_electron%3Dyes%7Cphone%3D%2B36208237727%7Cshop%3Dsupermarket%7Csource%3Awww.spar.hu%3Adate%3D2018-11-03%7Cwebsite%3Dhttps%3A//www.spar.hu/content/aspiag_spar_hu/hu_HU/uzletek/11/interspar-hipermarket-10-keruelet.html%7Cyoutube%3Dhttps%3A//www.youtube.com/channel/UC9tu8COHiy4WkeTIN1k_Y8A -->
  <way action="modify" id="286441729" timestamp="2018-05-10T12:43:00Z" uid="8635934" user="osm_poi_matchmaker" version="6">
    <nd ref="2901186562"/>
    <nd ref="2901186537"/>
    <nd ref="2901186541"/>
    <nd ref="2901186559"/>
    <nd ref="2901186561"/>
    <nd ref="2901186571"/>
    <nd ref="2901186568"/>
    <nd ref="2901186580"/>
    <nd ref="2901186575"/>
    <nd ref="2901186564"/>
    <nd ref="2901186562"/>
    <tag k="addr:city" v="Budapest"/>
    <tag k="addr:country" v="HU"/>
    <tag k="addr:housenumber" v="61"/>
    <tag k="addr:postcode" v="1106"/>
    <tag k="addr:street" v="Kerepesi út"/>
    <tag k="branch" v="Interspar hipermarket Budapest"/>
    <tag k="brand" v="Spar"/>
    <tag k="brand:wikidata" v="Q610492"/>
    <tag k="brand:wikipedia" v="hu:Spar"/>
    <tag k="email" v="vevoszolgalat@spar.hu"/>
    <tag k="facebook" v="https://www.facebook.com/sparmagyarorszag"/>
    <tag k="import" v="osm_poi_matchmaker"/>
    <tag k="instagram" v="https://www.instagram.com/sparmagyarorszag"/>
    <tag k="name" v="Interspar"/>
    <tag k="operator" v="SPAR Magyarország Kereskedelmi Kft."/>
    <tag k="payment:american_express" v="yes"/>
    <tag k="payment:cash" v="yes"/>
    <tag k="payment:contactless" v="yes"/>
    <tag k="payment:erzsebet" v="yes"/>
    <tag k="payment:erzsebet_plus" v="yes"/>
    <tag k="payment:maestro" v="yes"/>
    <tag k="payment:mastercard" v="yes"/>
    <tag k="payment:v_pay" v="yes"/>
    <tag k="payment:visa" v="yes"/>
    <tag k="payment:visa_electron" v="yes"/>
    <tag k="phone" v="+36208237727"/>
    <tag k="shop" v="supermarket"/>
    <tag k="source:www.spar.hu:date" v="2018-11-03"/>
    <tag k="website" v="https://www.spar.hu/content/aspiag_spar_hu/hu_HU/uzletek/11/interspar-hipermarket-10-keruelet.html"/>
    <tag k="youtube" v="https://www.youtube.com/channel/UC9tu8COHiy4WkeTIN1k_Y8A"/>
  </way>
  <!-- OSM link: https://osm.org/node/1155039171 -->
  <!-- Original coordinates: POINT (47.47446 19.04985) -->
  <!-- OSM <-> POI distance: 110.6780019 m-->
  <!-- Checker good: {not_in_water}; bad {}-->
  <!-- Original tags: 'level':'-2'; 'name':'INTERSPAR'; 'opening_hours':'Mo-Sa 07:00-22:00; Su 08:00-19:00'; 'operator':'Spar Magyarország Kereskedelmi Kft.'; 'payment:erzsebet':'yes'; 'payment:erzsebet_plusz':'yes'; 'ref:vatin:hu':'10485824-2-07'; 'shop':'supermarket'; 'toilets:wheelchair':'no'; 'website':'http://www.spar.hu'; 'wheelchair':'yes';  -->
  <!-- JOSM magic link: http://localhost:8111/load_object?new_layer=false&objects=n1155039171&addtags=%7Caddr%3Acity%3DBudapest%7Caddr%3Acountry%3DHU%7Caddr%3Apostcode%3D1117%7Cbranch%3DInterspar%20hipermarket%20Budapest%7Cbrand%3DSpar%7Cbrand%3Awikidata%3DQ610492%7Cbrand%3Awikipedia%3Dhu%3ASpar%7Cemail%3Dvevoszolgalat%40spar.hu%7Cfacebook%3Dhttps%3A//www.facebook.com/sparmagyarorszag%7Cimport%3Dosm_poi_matchmaker%7Cinstagram%3Dhttps%3A//www.instagram.com/sparmagyarorszag%7Clevel%3D-2%7Cname%3DInterspar%7Copening_hours%3DMo-Sa%2007%3A00-22%3A00%3B%20Su%2008%3A00-19%3A00%7Coperator%3DSPAR%20Magyarorsz%C3%A1g%20Kereskedelmi%20Kft.%7Cpayment%3Aamerican_express%3Dyes%7Cpayment%3Acash%3Dyes%7Cpayment%3Acontactless%3Dyes%7Cpayment%3Aerzsebet%3Dyes%7Cpayment%3Aerzsebet_plus%3Dyes%7Cpayment%3Aerzsebet_plusz%3Dyes%7Cpayment%3Amaestro%3Dyes%7Cpayment%3Amastercard%3Dyes%7Cpayment%3Av_pay%3Dyes%7Cpayment%3Avisa%3Dyes%7Cpayment%3Avisa_electron%3Dyes%7Cphone%3D%2B36208237727%7Cref%3Avatin%3Ahu%3D10485824-2-07%7Cshop%3Dsupermarket%7Csource%3Awww.spar.hu%3Adate%3D2018-11-03%7Ctoilets%3Awheelchair%3Dno%7Cwebsite%3Dhttps%3A//www.spar.hu/content/aspiag_spar_hu/hu_HU/uzletek/11/interspar-hipermarket-11-keruelet.html%7Cwheelchair%3Dyes%7Cyoutube%3Dhttps%3A//www.youtube.com/channel/UC9tu8COHiy4WkeTIN1k_Y8A -->
  <node action="modify" id="1155039171" lat="47.4753109949119" lon="19.0490861973483" timestamp="2017-12-28T00:23:59Z" uid="8635934" user="osm_poi_matchmaker" version="16">
    <tag k="addr:city" v="Budapest"/>
    <tag k="addr:country" v="HU"/>
    <tag k="addr:postcode" v="1117"/>
    <tag k="branch" v="Interspar hipermarket Budapest"/>
    <tag k="brand" v="Spar"/>
    <tag k="brand:wikidata" v="Q610492"/>
    <tag k="brand:wikipedia" v="hu:Spar"/>
    <tag k="email" v="vevoszolgalat@spar.hu"/>
    <tag k="facebook" v="https://www.facebook.com/sparmagyarorszag"/>
    <tag k="import" v="osm_poi_matchmaker"/>
    <tag k="instagram" v="https://www.instagram.com/sparmagyarorszag"/>
    <tag k="level" v="-2"/>
    <tag k="name" v="Interspar"/>
    <tag k="opening_hours" v="Mo-Sa 07:00-22:00; Su 08:00-19:00"/>
    <tag k="operator" v="SPAR Magyarország Kereskedelmi Kft."/>
    <tag k="payment:american_express" v="yes"/>
    <tag k="payment:cash" v="yes"/>
    <tag k="payment:contactless" v="yes"/>
    <tag k="payment:erzsebet" v="yes"/>
    <tag k="payment:erzsebet_plus" v="yes"/>
    <tag k="payment:erzsebet_plusz" v="yes"/>
    <tag k="payment:maestro" v="yes"/>
    <tag k="payment:mastercard" v="yes"/>
    <tag k="payment:v_pay" v="yes"/>
    <tag k="payment:visa" v="yes"/>
    <tag k="payment:visa_electron" v="yes"/>
    <tag k="phone" v="+36208237727"/>
    <tag k="ref:vatin:hu" v="10485824-2-07"/>
    <tag k="shop" v="supermarket"/>
    <tag k="source:www.spar.hu:date" v="2018-11-03"/>
    <tag k="toilets:wheelchair" v="no"/>
    <tag k="website" v="https://www.spar.hu/content/aspiag_spar_hu/hu_HU/uzletek/11/interspar-hipermarket-11-keruelet.html"/>
    <tag k="wheelchair" v="yes"/>
    <tag k="youtube" v="https://www.youtube.com/channel/UC9tu8COHiy4WkeTIN1k_Y8A"/>
  </node>
  <node action="modify" id="2149636219" lat="47.4623404" lon="19.1157957" timestamp="2013-02-10T20:14:31Z" uid="230942" user="dkiselev" version="1"/>
  <node action="modify" id="2149636183" lat="47.461892" lon="19.1157363" timestamp="2013-02-10T20:14:31Z" uid="230942" user="dkiselev" version="1"/>
  <node action="modify" id="2149636187" lat="47.4619258" lon="19.1151787" timestamp="2013-02-10T20:14:31Z" uid="230942" user="dkiselev" version="1"/>
  <node action="modify" id="2149636226" lat="47.4623742" lon="19.1152381" timestamp="2013-02-10T20:14:31Z" uid="230942" user="dkiselev" version="1"/>
  <node action="modify" id="2149636219" lat="47.4623404" lon="19.1157957" timestamp="2013-02-10T20:14:31Z" uid="230942" user="dkiselev" version="1"/>
  <!-- OSM link: https://osm.org/way/204985046 -->
  <!-- Original coordinates: POINT (47.46405 19.12746) -->
  <!-- OSM <-> POI distance: 897.23315077 m-->
  <!-- Checker good: {not_in_water}; bad {}-->
  <!-- Original tags: 'addr:city':'Budapest'; 'addr:housenumber':'14'; 'addr:housenumber_1':'10'; 'addr:postcode':'1098'; 'addr:street':'Lobogó utca'; 'addr:street_1':'Napfény utca'; 'building':'retail'; 'contact:website':'http://www.spar.hu'; 'name':'SPAR'; 'shop':'supermarket'; 'website':'http://www.spar.hu'; 'wheelchair':'yes';  -->
  <!-- JOSM magic link: http://localhost:8111/load_object?new_layer=false&objects=w204985046&addtags=%7Caddr%3Acity%3DBudapest%7Caddr%3Acountry%3DHU%7Caddr%3Ahousenumber%3D201%7Caddr%3Ahousenumber_1%3D10%7Caddr%3Apostcode%3D1191%7Caddr%3Astreet%3D%C3%9Cll%C5%91i%20utca%7Caddr%3Astreet_1%3DNapf%C3%A9ny%20utca%7Cbranch%3DInterspar%20hipermarket%20Budapest%7Cbrand%3DSpar%7Cbrand%3Awikidata%3DQ610492%7Cbrand%3Awikipedia%3Dhu%3ASpar%7Cbuilding%3Dretail%7Ccontact%3Awebsite%3Dhttp%3A//www.spar.hu%7Cemail%3Dvevoszolgalat%40spar.hu%7Cfacebook%3Dhttps%3A//www.facebook.com/sparmagyarorszag%7Cimport%3Dosm_poi_matchmaker%7Cinstagram%3Dhttps%3A//www.instagram.com/sparmagyarorszag%7Cname%3DInterspar%7Coperator%3DSPAR%20Magyarorsz%C3%A1g%20Kereskedelmi%20Kft.%7Cpayment%3Aamerican_express%3Dyes%7Cpayment%3Acash%3Dyes%7Cpayment%3Acontactless%3Dyes%7Cpayment%3Aerzsebet%3Dyes%7Cpayment%3Aerzsebet_plus%3Dyes%7Cpayment%3Amaestro%3Dyes%7Cpayment%3Amastercard%3Dyes%7Cpayment%3Av_pay%3Dyes%7Cpayment%3Avisa%3Dyes%7Cpayment%3Avisa_electron%3Dyes%7Cphone%3D%2B36208237727%7Cshop%3Dsupermarket%7Csource%3Awww.spar.hu%3Adate%3D2018-11-03%7Cwebsite%3Dhttps%3A//www.spar.hu/content/aspiag_spar_hu/hu_HU/uzletek/11/interspar-hipermarket-budapest-19-keruelet.html%7Cwheelchair%3Dyes%7Cyoutube%3Dhttps%3A//www.youtube.com/channel/UC9tu8COHiy4WkeTIN1k_Y8A -->
  <way action="modify" id="204985046" timestamp="2017-12-25T16:16:37Z" uid="8635934" user="osm_poi_matchmaker" version="5">
    <nd ref="2149636219"/>
    <nd ref="2149636183"/>
    <nd ref="2149636187"/>
    <nd ref="2149636226"/>
    <nd ref="2149636219"/>
    <tag k="addr:city" v="Budapest"/>
    <tag k="addr:country" v="HU"/>
    <tag k="addr:housenumber" v="201"/>
    <tag k="addr:housenumber_1" v="10"/>
    <tag k="addr:postcode" v="1191"/>
    <tag k="addr:street" v="Üllői utca"/>
    <tag k="addr:street_1" v="Napfény utca"/>
    <tag k="branch" v="Interspar hipermarket Budapest"/>
    <tag k="brand" v="Spar"/>
    <tag k="brand:wikidata" v="Q610492"/>
    <tag k="brand:wikipedia" v="hu:Spar"/>
    <tag k="building" v="retail"/>
    <tag k="contact:website" v="http://www.spar.hu"/>
    <tag k="email" v="vevoszolgalat@spar.hu"/>
    <tag k="facebook" v="https://www.facebook.com/sparmagyarorszag"/>
    <tag k="import" v="osm_poi_matchmaker"/>
    <tag k="instagram" v="https://www.instagram.com/sparmagyarorszag"/>
    <tag k="name" v="Interspar"/>
    <tag k="operator" v="SPAR Magyarország Kereskedelmi Kft."/>
    <tag k="payment:american_express" v="yes"/>
    <tag k="payment:cash" v="yes"/>
    <tag k="payment:contactless" v="yes"/>
    <tag k="payment:erzsebet" v="yes"/>
    <tag k="payment:erzsebet_plus" v="yes"/>
    <tag k="payment:maestro" v="yes"/>
    <tag k="payment:mastercard" v="yes"/>
    <tag k="payment:v_pay" v="yes"/>
    <tag k="payment:visa" v="yes"/>
    <tag k="payment:visa_electron" v="yes"/>
    <tag k="phone" v="+36208237727"/>
    <tag k="shop" v="supermarket"/>
    <tag k="source:www.spar.hu:date" v="2018-11-03"/>
    <tag k="website" v="https://www.spar.hu/content/aspiag_spar_hu/hu_HU/uzletek/11/interspar-hipermarket-budapest-19-keruelet.html"/>
    <tag k="wheelchair" v="yes"/>
    <tag k="youtube" v="https://www.youtube.com/channel/UC9tu8COHiy4WkeTIN1k_Y8A"/>
  </way>
  <node action="modify" id="2213446177" lat="47.440651" lon="19.0966389" timestamp="2015-11-29T08:37:22Z" uid="1519787" user="kdano" version="2"/>
  <node action="modify" id="2213446173" lat="47.4405058" lon="19.0962107" timestamp="2015-11-29T08:37:22Z" uid="1519787" user="kdano" version="2"/>
  <node action="modify" id="2213446171" lat="47.4401595" lon="19.0964675" timestamp="2015-11-29T08:37:22Z" uid="1519787" user="kdano" version="2"/>
  <node action="modify" id="2213446172" lat="47.4403047" lon="19.0968957" timestamp="2015-11-29T08:37:22Z" uid="1519787" user="kdano" version="2"/>
  <node action="modify" id="2213446177" lat="47.440651" lon="19.0966389" timestamp="2015-11-29T08:37:22Z" uid="1519787" user="kdano" version="2"/>
  <!-- OSM link: https://osm.org/way/211334066 -->
  <!-- Original coordinates: POINT (47.43935 19.10088) -->
  <!-- OSM <-> POI distance: 317.9013036 m-->
  <!-- Checker good: {not_in_water}; bad {}-->
  <!-- Original tags:  -->
  <!-- JOSM magic link: http://localhost:8111/load_object?new_layer=false&objects=w211334066&addtags=%7Caddr%3Acity%3DBudapest%7Caddr%3Acountry%3DHU%7Caddr%3Ahousenumber%3D1%7Caddr%3Apostcode%3D1203%7Caddr%3Astreet%3DSz%C3%A9chenyi%20utca%7Cbranch%3DInterspar%20hipermarket%20Budapest%7Cbrand%3DSpar%7Cbrand%3Awikidata%3DQ610492%7Cbrand%3Awikipedia%3Dhu%3ASpar%7Cemail%3Dvevoszolgalat%40spar.hu%7Cfacebook%3Dhttps%3A//www.facebook.com/sparmagyarorszag%7Cimport%3Dosm_poi_matchmaker%7Cinstagram%3Dhttps%3A//www.instagram.com/sparmagyarorszag%7Cname%3DInterspar%7Coperator%3DSPAR%20Magyarorsz%C3%A1g%20Kereskedelmi%20Kft.%7Cpayment%3Aamerican_express%3Dyes%7Cpayment%3Acash%3Dyes%7Cpayment%3Acontactless%3Dyes%7Cpayment%3Aerzsebet%3Dyes%7Cpayment%3Aerzsebet_plus%3Dyes%7Cpayment%3Amaestro%3Dyes%7Cpayment%3Amastercard%3Dyes%7Cpayment%3Av_pay%3Dyes%7Cpayment%3Avisa%3Dyes%7Cpayment%3Avisa_electron%3Dyes%7Cphone%3D%2B36208237727%7Cshop%3Dsupermarket%7Csource%3Awww.spar.hu%3Adate%3D2018-11-03%7Cwebsite%3Dhttps%3A//www.spar.hu/content/aspiag_spar_hu/hu_HU/uzletek/12/interspar-hipermarket-budapest-20-keruelet.html%7Cyoutube%3Dhttps%3A//www.youtube.com/channel/UC9tu8COHiy4WkeTIN1k_Y8A -->
  <way action="modify" id="211334066" timestamp="2015-11-29T09:37:22Z" uid="8635934" user="osm_poi_matchmaker" version="7">
    <nd ref="2213446177"/>
    <nd ref="2213446173"/>
    <nd ref="2213446171"/>
    <nd ref="2213446172"/>
    <nd ref="2213446177"/>
    <tag k="addr:city" v="Budapest"/>
    <tag k="addr:country" v="HU"/>
    <tag k="addr:housenumber" v="1"/>
    <tag k="addr:postcode" v="1203"/>
    <tag k="addr:street" v="Széchenyi utca"/>
    <tag k="branch" v="Interspar hipermarket Budapest"/>
    <tag k="brand" v="Spar"/>
    <tag k="brand:wikidata" v="Q610492"/>
    <tag k="brand:wikipedia" v="hu:Spar"/>
    <tag k="email" v="vevoszolgalat@spar.hu"/>
    <tag k="facebook" v="https://www.facebook.com/sparmagyarorszag"/>
    <tag k="import" v="osm_poi_matchmaker"/>
    <tag k="instagram" v="https://www.instagram.com/sparmagyarorszag"/>
    <tag k="name" v="Interspar"/>
    <tag k="operator" v="SPAR Magyarország Kereskedelmi Kft."/>
    <tag k="payment:american_express" v="yes"/>
    <tag k="payment:cash" v="yes"/>
    <tag k="payment:contactless" v="yes"/>
    <tag k="payment:erzsebet" v="yes"/>
    <tag k="payment:erzsebet_plus" v="yes"/>
    <tag k="payment:maestro" v="yes"/>
    <tag k="payment:mastercard" v="yes"/>
    <tag k="payment:v_pay" v="yes"/>
    <tag k="payment:visa" v="yes"/>
    <tag k="payment:visa_electron" v="yes"/>
    <tag k="phone" v="+36208237727"/>
    <tag k="shop" v="supermarket"/>
    <tag k="source:www.spar.hu:date" v="2018-11-03"/>
    <tag k="website" v="https://www.spar.hu/content/aspiag_spar_hu/hu_HU/uzletek/12/interspar-hipermarket-budapest-20-keruelet.html"/>
    <tag k="youtube" v="https://www.youtube.com/channel/UC9tu8COHiy4WkeTIN1k_Y8A"/>
  </way>
  <!-- OSM link: https://osm.org/node/1963117485 -->
  <!-- Original coordinates: POINT (47.646068 19.063413) -->
  <!-- OSM <-> POI distance: 68.86685915 m-->
  <!-- Checker good: {not_in_water}; bad {}-->
  <!-- Original tags:  -->
  <!-- JOSM magic link: http://localhost:8111/load_object?new_layer=false&objects=n1963117485&addtags=%7Caddr%3Acity%3DSzentendre%7Caddr%3Acountry%3DHU%7Caddr%3Ahousenumber%3D4%7Caddr%3Apostcode%3D2000%7Caddr%3Astreet%3DDobog%C3%B3k%C5%91i%20utca%7Cbranch%3DInterspar%20hipermarket%20Szentendre%7Cbrand%3DSpar%7Cbrand%3Awikidata%3DQ610492%7Cbrand%3Awikipedia%3Dhu%3ASpar%7Cemail%3Dvevoszolgalat%40spar.hu%7Cfacebook%3Dhttps%3A//www.facebook.com/sparmagyarorszag%7Cimport%3Dosm_poi_matchmaker%7Cinstagram%3Dhttps%3A//www.instagram.com/sparmagyarorszag%7Cname%3DInterspar%7Coperator%3DSPAR%20Magyarorsz%C3%A1g%20Kereskedelmi%20Kft.%7Cpayment%3Aamerican_express%3Dyes%7Cpayment%3Acash%3Dyes%7Cpayment%3Acontactless%3Dyes%7Cpayment%3Aerzsebet%3Dyes%7Cpayment%3Aerzsebet_plus%3Dyes%7Cpayment%3Amaestro%3Dyes%7Cpayment%3Amastercard%3Dyes%7Cpayment%3Av_pay%3Dyes%7Cpayment%3Avisa%3Dyes%7Cpayment%3Avisa_electron%3Dyes%7Cphone%3D%2B36208237727%7Cshop%3Dsupermarket%7Csource%3Awww.spar.hu%3Adate%3D2018-11-03%7Cwebsite%3Dhttps%3A//www.spar.hu/content/aspiag_spar_hu/hu_HU/uzletek/20/interspar-hipermarket-szentendre-.html%7Cyoutube%3Dhttps%3A//www.youtube.com/channel/UC9tu8COHiy4WkeTIN1k_Y8A -->
  <node action="modify" id="1963117485" lat="47.6466191949047" lon="19.0638321973463" timestamp="2017-09-11T11:33:48Z" uid="8635934" user="osm_poi_matchmaker" version="3">
    <tag k="addr:city" v="Szentendre"/>
    <tag k="addr:country" v="HU"/>
    <tag k="addr:housenumber" v="4"/>
    <tag k="addr:postcode" v="2000"/>
    <tag k="addr:street" v="Dobogókői utca"/>
    <tag k="branch" v="Interspar hipermarket Szentendre"/>
    <tag k="brand" v="Spar"/>
    <tag k="brand:wikidata" v="Q610492"/>
    <tag k="brand:wikipedia" v="hu:Spar"/>
    <tag k="email" v="vevoszolgalat@spar.hu"/>
    <tag k="facebook" v="https://www.facebook.com/sparmagyarorszag"/>
    <tag k="import" v="osm_poi_matchmaker"/>
    <tag k="instagram" v="https://www.instagram.com/sparmagyarorszag"/>
    <tag k="name" v="Interspar"/>
    <tag k="operator" v="SPAR Magyarország Kereskedelmi Kft."/>
    <tag k="payment:american_express" v="yes"/>
    <tag k="payment:cash" v="yes"/>
    <tag k="payment:contactless" v="yes"/>
    <tag k="payment:erzsebet" v="yes"/>
    <tag k="payment:erzsebet_plus" v="yes"/>
    <tag k="payment:maestro" v="yes"/>
    <tag k="payment:mastercard" v="yes"/>
    <tag k="payment:v_pay" v="yes"/>
    <tag k="payment:visa" v="yes"/>
    <tag k="payment:visa_electron" v="yes"/>
    <tag k="phone" v="+36208237727"/>
    <tag k="shop" v="supermarket"/>
    <tag k="source:www.spar.hu:date" v="2018-11-03"/>
    <tag k="website" v="https://www.spar.hu/content/aspiag_spar_hu/hu_HU/uzletek/20/interspar-hipermarket-szentendre-.html"/>
    <tag k="youtube" v="https://www.youtube.com/channel/UC9tu8COHiy4WkeTIN1k_Y8A"/>
  </node>
  <!-- Original coordinates: POINT (47.41378 18.88284) -->
  <!-- OSM <-> POI distance: 0.0 m-->
  <!-- Checker good: {not_in_water}; bad {}-->
  <!-- Original tags: 'building':'retail'; 'name':'Interspar'; 'shop':'supermarket'; 'type':'multipolygon';  -->
  <!-- JOSM magic link: http://localhost:8111/load_object?new_layer=false&objects=r-7033175&addtags=%7Caddr%3Acity%3D%C3%89rd%7Caddr%3Acountry%3DHU%7Caddr%3Ahousenumber%3D5%7Caddr%3Apostcode%3D2030%7Caddr%3Astreet%3DIparos%20utca%7Cbranch%3DInterspar%20hipermarket%20%C3%89rd%7Cbrand%3DSpar%7Cbrand%3Awikidata%3DQ610492%7Cbrand%3Awikipedia%3Dhu%3ASpar%7Cbuilding%3Dretail%7Cemail%3Dvevoszolgalat%40spar.hu%7Cfacebook%3Dhttps%3A//www.facebook.com/sparmagyarorszag%7Cimport%3Dosm_poi_matchmaker%7Cinstagram%3Dhttps%3A//www.instagram.com/sparmagyarorszag%7Cname%3DInterspar%7Coperator%3DSPAR%20Magyarorsz%C3%A1g%20Kereskedelmi%20Kft.%7Cpayment%3Aamerican_express%3Dyes%7Cpayment%3Acash%3Dyes%7Cpayment%3Acontactless%3Dyes%7Cpayment%3Aerzsebet%3Dyes%7Cpayment%3Aerzsebet_plus%3Dyes%7Cpayment%3Amaestro%3Dyes%7Cpayment%3Amastercard%3Dyes%7Cpayment%3Av_pay%3Dyes%7Cpayment%3Avisa%3Dyes%7Cpayment%3Avisa_electron%3Dyes%7Cphone%3D%2B36208237727%7Cshop%3Dsupermarket%7Csource%3Awww.spar.hu%3Adate%3D2018-11-03%7Ctype%3Dmultipolygon%7Cwebsite%3Dhttps%3A//www.spar.hu/content/aspiag_spar_hu/hu_HU/uzletek/20/interspar-hipermarket-erd.html%7Cyoutube%3Dhttps%3A//www.youtube.com/channel/UC9tu8COHiy4WkeTIN1k_Y8A -->
  <relation action="modify" id="-7033175" timestamp="2017-12-25T16:18:20Z" uid="8635934" user="osm_poi_matchmaker" version="4">
    <member ref="478614452" role="outer" type="way"/>
    <member ref="478614578" role="outer" type="way"/>
    <member ref="478384039" role="outer" type="way"/>
    <member ref="478614395" role="outer" type="way"/>
    <member ref="478614218" role="outer" type="way"/>
    <member ref="478384041" role="outer" type="way"/>
    <member ref="478614406" role="outer" type="way"/>
    <tag k="addr:city" v="Érd"/>
    <tag k="addr:country" v="HU"/>
    <tag k="addr:housenumber" v="5"/>
    <tag k="addr:postcode" v="2030"/>
    <tag k="addr:street" v="Iparos utca"/>
    <tag k="branch" v="Interspar hipermarket Érd"/>
    <tag k="brand" v="Spar"/>
    <tag k="brand:wikidata" v="Q610492"/>
    <tag k="brand:wikipedia" v="hu:Spar"/>
    <tag k="building" v="retail"/>
    <tag k="email" v="vevoszolgalat@spar.hu"/>
    <tag k="facebook" v="https://www.facebook.com/sparmagyarorszag"/>
    <tag k="import" v="osm_poi_matchmaker"/>
    <tag k="instagram" v="https://www.instagram.com/sparmagyarorszag"/>
    <tag k="name" v="Interspar"/>
    <tag k="operator" v="SPAR Magyarország Kereskedelmi Kft."/>
    <tag k="payment:american_express" v="yes"/>
    <tag k="payment:cash" v="yes"/>
    <tag k="payment:contactless" v="yes"/>
    <tag k="payment:erzsebet" v="yes"/>
    <tag k="payment:erzsebet_plus" v="yes"/>
    <tag k="payment:maestro" v="yes"/>
    <tag k="payment:mastercard" v="yes"/>
    <tag k="payment:v_pay" v="yes"/>
    <tag k="payment:visa" v="yes"/>
    <tag k="payment:visa_electron" v="yes"/>
    <tag k="phone" v="+36208237727"/>
    <tag k="shop" v="supermarket"/>
    <tag k="source:www.spar.hu:date" v="2018-11-03"/>
    <tag k="type" v="multipolygon"/>
    <tag k="website" v="https://www.spar.hu/content/aspiag_spar_hu/hu_HU/uzletek/20/interspar-hipermarket-erd.html"/>
    <tag k="youtube" v="https://www.youtube.com/channel/UC9tu8COHiy4WkeTIN1k_Y8A"/>
  </relation>
  <node action="modify" id="149377898" lat="47.4044445" lon="18.9464611" timestamp="2017-06-08T12:54:56Z" uid="2411065" user="11111010010" version="6"/>
  <node action="modify" id="4899509764" lat="47.4041369" lon="18.9468185" timestamp="2017-06-14T22:33:34Z" uid="134881" user="Laci" version="2"/>
  <node action="modify" id="4904115427" lat="47.4041408" lon="18.9468257" timestamp="2017-06-08T12:54:51Z" uid="2411065" user="11111010010" version="1"/>
  <node action="modify" id="4904115426" lat="47.4041092" lon="18.9468623" timestamp="2017-06-08T12:54:51Z" uid="2411065" user="11111010010" version="1"/>
  <node action="modify" id="2542278344" lat="47.4041923" lon="18.9470184" timestamp="2017-06-08T12:54:56Z" uid="2411065" user="11111010010" version="4"/>
  <node action="modify" id="5276567987" lat="47.4040379" lon="18.9471978" timestamp="2017-12-11T02:09:45Z" uid="134881" user="Laci" version="1"/>
  <node action="modify" id="4904115425" lat="47.4040142" lon="18.9472254" timestamp="2017-06-08T12:54:51Z" uid="2411065" user="11111010010" version="1"/>
  <node action="modify" id="4904115424" lat="47.4040175" lon="18.9472318" timestamp="2017-06-08T12:54:51Z" uid="2411065" user="11111010010" version="1"/>
  <node action="modify" id="2542278292" lat="47.4040075" lon="18.9472434" timestamp="2017-06-14T22:33:34Z" uid="134881" user="Laci" version="2"/>
  <node action="modify" id="149377899" lat="47.403969" lon="18.9472882" timestamp="2017-06-08T12:54:56Z" uid="2411065" user="11111010010" version="5"/>
  <node action="modify" id="4915764863" lat="47.404395" lon="18.9480885" timestamp="2017-06-14T22:33:27Z" uid="134881" user="Laci" version="1"/>
  <node action="modify" id="149377900" lat="47.4045492" lon="18.9483783" timestamp="2017-12-11T02:09:51Z" uid="134881" user="Laci" version="6"/>
  <node action="modify" id="5276568224" lat="47.4047893" lon="18.9481039" timestamp="2017-12-11T02:09:46Z" uid="134881" user="Laci" version="1"/>
  <node action="modify" id="5276568223" lat="47.4048461" lon="18.9480358" timestamp="2017-12-11T02:09:46Z" uid="134881" user="Laci" version="1"/>
  <node action="modify" id="5276568222" lat="47.4048321" lon="18.9480137" timestamp="2017-12-11T02:09:46Z" uid="134881" user="Laci" version="1"/>
  <node action="modify" id="5276568019" lat="47.4048779" lon="18.9479604" timestamp="2017-12-11T02:09:46Z" uid="134881" user="Laci" version="1"/>
  <node action="modify" id="2960192526" lat="47.4049241" lon="18.9479068" timestamp="2017-06-08T12:54:56Z" uid="2411065" user="11111010010" version="3"/>
  <node action="modify" id="4915764886" lat="47.404984" lon="18.9478373" timestamp="2017-06-14T22:33:27Z" uid="134881" user="Laci" version="1"/>
  <node action="modify" id="5276568018" lat="47.4049938" lon="18.9478259" timestamp="2017-12-11T02:09:46Z" uid="134881" user="Laci" version="1"/>
  <node action="modify" id="3791314868" lat="47.40505" lon="18.9477606" timestamp="2017-06-14T22:33:34Z" uid="134881" user="Laci" version="2"/>
  <node action="modify" id="149377901" lat="47.4051113" lon="18.9476893" timestamp="2017-06-08T12:54:56Z" uid="2411065" user="11111010010" version="5"/>
  <node action="modify" id="5276568010" lat="47.404858" lon="18.9472134" timestamp="2017-12-11T02:09:46Z" uid="134881" user="Laci" version="1"/>
  <node action="modify" id="4904115428" lat="47.4044526" lon="18.9464518" timestamp="2017-06-08T12:54:51Z" uid="2411065" user="11111010010" version="1"/>
  <node action="modify" id="149377898" lat="47.4044445" lon="18.9464611" timestamp="2017-06-08T12:54:56Z" uid="2411065" user="11111010010" version="6"/>
  <!-- OSM link: https://osm.org/way/15117985 -->
  <!-- Original coordinates: POINT (47.404122 18.946629) -->
  <!-- OSM <-> POI distance: 12.23414179 m-->
  <!-- Checker good: {not_in_water}; bad {}-->
  <!-- Original tags: 'building':'retail'; 'name':'INTERSPAR'; 'shop':'supermarket'; 'toilets:wheelchair':'yes'; 'website':'http://www.spar.hu'; 'wheelchair':'yes'; 'wheelchair:description':'parkolóból mozgójárda';  -->
  <!-- JOSM magic link: http://localhost:8111/load_object?new_layer=false&objects=w15117985&addtags=%7Caddr%3Acity%3DDi%C3%B3sd%7Caddr%3Acountry%3DHU%7Caddr%3Ahousenumber%3D2/A%7Caddr%3Apostcode%3D2049%7Caddr%3Astreet%3DBalatoni%20%C3%BAt%7Cbranch%3DInterspar%20hipermarket%20Di%C3%B3sd%7Cbrand%3DSpar%7Cbrand%3Awikidata%3DQ610492%7Cbrand%3Awikipedia%3Dhu%3ASpar%7Cbuilding%3Dretail%7Cemail%3Dvevoszolgalat%40spar.hu%7Cfacebook%3Dhttps%3A//www.facebook.com/sparmagyarorszag%7Cimport%3Dosm_poi_matchmaker%7Cinstagram%3Dhttps%3A//www.instagram.com/sparmagyarorszag%7Cname%3DInterspar%7Coperator%3DSPAR%20Magyarorsz%C3%A1g%20Kereskedelmi%20Kft.%7Cpayment%3Aamerican_express%3Dyes%7Cpayment%3Acash%3Dyes%7Cpayment%3Acontactless%3Dyes%7Cpayment%3Aerzsebet%3Dyes%7Cpayment%3Aerzsebet_plus%3Dyes%7Cpayment%3Amaestro%3Dyes%7Cpayment%3Amastercard%3Dyes%7Cpayment%3Av_pay%3Dyes%7Cpayment%3Avisa%3Dyes%7Cpayment%3Avisa_electron%3Dyes%7Cphone%3D%2B36208237727%7Cshop%3Dsupermarket%7Csource%3Awww.spar.hu%3Adate%3D2018-11-03%7Ctoilets%3Awheelchair%3Dyes%7Cwebsite%3Dhttps%3A//www.spar.hu/content/aspiag_spar_hu/hu_HU/uzletek/20/interspar-hipermarket-diosd.html%7Cwheelchair%3Dyes%7Cwheelchair%3Adescription%3Dparkol%C3%B3b%C3%B3l%20mozg%C3%B3j%C3%A1rda%7Cyoutube%3Dhttps%3A//www.youtube.com/channel/UC9tu8COHiy4WkeTIN1k_Y8A -->
  <way action="modify" id="15117985" timestamp="2017-12-25T16:15:41Z" uid="8635934" user="osm_poi_matchmaker" version="19">
    <nd ref="149377898"/>
    <nd ref="4899509764"/>
    <nd ref="4904115427"/>
    <nd ref="4904115426"/>
    <nd ref="2542278344"/>
    <nd ref="5276567987"/>
    <nd ref="4904115425"/>
    <nd ref="4904115424"/>
    <nd ref="2542278292"/>
    <nd ref="149377899"/>
    <nd ref="4915764863"/>
    <nd ref="149377900"/>
    <nd ref="5276568224"/>
    <nd ref="5276568223"/>
    <nd ref="5276568222"/>
    <nd ref="5276568019"/>
    <nd ref="2960192526"/>
    <nd ref="4915764886"/>
    <nd ref="5276568018"/>
    <nd ref="3791314868"/>
    <nd ref="149377901"/>
    <nd ref="5276568010"/>
    <nd ref="4904115428"/>
    <nd ref="149377898"/>
    <tag k="addr:city" v="Diósd"/>
    <tag k="addr:country" v="HU"/>
    <tag k="addr:housenumber" v="2/A"/>
    <tag k="addr:postcode" v="2049"/>
    <tag k="addr:street" v="Balatoni út"/>
    <tag k="branch" v="Interspar hipermarket Diósd"/>
    <tag k="brand" v="Spar"/>
    <tag k="brand:wikidata" v="Q610492"/>
    <tag k="brand:wikipedia" v="hu:Spar"/>
    <tag k="building" v="retail"/>
    <tag k="email" v="vevoszolgalat@spar.hu"/>
    <tag k="facebook" v="https://www.facebook.com/sparmagyarorszag"/>
    <tag k="import" v="osm_poi_matchmaker"/>
    <tag k="instagram" v="https://www.instagram.com/sparmagyarorszag"/>
    <tag k="name" v="Interspar"/>
    <tag k="operator" v="SPAR Magyarország Kereskedelmi Kft."/>
    <tag k="payment:american_express" v="yes"/>
    <tag k="payment:cash" v="yes"/>
    <tag k="payment:contactless" v="yes"/>
    <tag k="payment:erzsebet" v="yes"/>
    <tag k="payment:erzsebet_plus" v="yes"/>
    <tag k="payment:maestro" v="yes"/>
    <tag k="payment:mastercard" v="yes"/>
    <tag k="payment:v_pay" v="yes"/>
    <tag k="payment:visa" v="yes"/>
    <tag k="payment:visa_electron" v="yes"/>
    <tag k="phone" v="+36208237727"/>
    <tag k="shop" v="supermarket"/>
    <tag k="source:www.spar.hu:date" v="2018-11-03"/>
    <tag k="toilets:wheelchair" v="yes"/>
    <tag k="website" v="https://www.spar.hu/content/aspiag_spar_hu/hu_HU/uzletek/20/interspar-hipermarket-diosd.html"/>
    <tag k="wheelchair" v="yes"/>
    <tag k="wheelchair:description" v="parkolóból mozgójárda"/>
    <tag k="youtube" v="https://www.youtube.com/channel/UC9tu8COHiy4WkeTIN1k_Y8A"/>
  </way>
  <node action="modify" id="1577944362" lat="46.9617962" lon="18.9198787" timestamp="2012-01-05T09:50:29Z" uid="404458" user="sw09fl" version="1"/>
  <node action="modify" id="1577944342" lat="46.9609991" lon="18.9195" timestamp="2012-01-05T09:50:28Z" uid="404458" user="sw09fl" version="1"/>
  <node action="modify" id="1577944355" lat="46.9607527" lon="18.9205814" timestamp="2012-01-05T09:50:28Z" uid="404458" user="sw09fl" version="1"/>
  <node action="modify" id="1577944348" lat="46.9615472" lon="18.9209677" timestamp="2012-01-05T09:50:28Z" uid="404458" user="sw09fl" version="1"/>
  <node action="modify" id="1577944362" lat="46.9617962" lon="18.9198787" timestamp="2012-01-05T09:50:29Z" uid="404458" user="sw09fl" version="1"/>
  <!-- OSM link: https://osm.org/way/144206063 -->
  <!-- Original coordinates: POINT (46.9608 18.91948) -->
  <!-- OSM <-> POI distance: 21.47966234 m-->
  <!-- Checker good: {not_in_water}; bad {}-->
  <!-- Original tags: 'addr:city':'Dunaújváros'; 'addr:housenumber':'1'; 'addr:postcode':'2400'; 'addr:street':'Béke körút'; 'building':'retail'; 'building:levels':'1'; 'name':'InterSPAR'; 'opening_hours':'Mo-Sa 06:00-22:00; Su 06:00-19:00'; 'phone':'+36208238176'; 'shop':'supermarket'; 'toilets:wheelchair':'yes'; 'wheelchair':'yes';  -->
  <!-- JOSM magic link: http://localhost:8111/load_object?new_layer=false&objects=w144206063&addtags=%7Caddr%3Acity%3DDuna%C3%BAjv%C3%A1ros%7Caddr%3Acountry%3DHU%7Caddr%3Ahousenumber%3D2%7Caddr%3Apostcode%3D2400%7Caddr%3Astreet%3DB%C3%A9ke%20k%C3%B6r%C3%BAt%7Cbranch%3DInterspar%20hipermarket%20Duna%C3%BAjv%C3%A1ros%7Cbrand%3DSpar%7Cbrand%3Awikidata%3DQ610492%7Cbrand%3Awikipedia%3Dhu%3ASpar%7Cbuilding%3Dretail%7Cbuilding%3Alevels%3D1%7Cemail%3Dvevoszolgalat%40spar.hu%7Cfacebook%3Dhttps%3A//www.facebook.com/sparmagyarorszag%7Cimport%3Dosm_poi_matchmaker%7Cinstagram%3Dhttps%3A//www.instagram.com/sparmagyarorszag%7Cname%3DInterspar%7Copening_hours%3DMo-Sa%2006%3A00-22%3A00%3B%20Su%2006%3A00-19%3A00%7Coperator%3DSPAR%20Magyarorsz%C3%A1g%20Kereskedelmi%20Kft.%7Cpayment%3Aamerican_express%3Dyes%7Cpayment%3Acash%3Dyes%7Cpayment%3Acontactless%3Dyes%7Cpayment%3Aerzsebet%3Dyes%7Cpayment%3Aerzsebet_plus%3Dyes%7Cpayment%3Amaestro%3Dyes%7Cpayment%3Amastercard%3Dyes%7Cpayment%3Av_pay%3Dyes%7Cpayment%3Avisa%3Dyes%7Cpayment%3Avisa_electron%3Dyes%7Cphone%3D%2B36208237727%7Cshop%3Dsupermarket%7Csource%3Awww.spar.hu%3Adate%3D2018-11-03%7Ctoilets%3Awheelchair%3Dyes%7Cwebsite%3Dhttps%3A//www.spar.hu/content/aspiag_spar_hu/hu_HU/uzletek/24/interspar-hipermarket-dunaujvaros.html%7Cwheelchair%3Dyes%7Cyoutube%3Dhttps%3A//www.youtube.com/channel/UC9tu8COHiy4WkeTIN1k_Y8A -->
  <way action="modify" id="144206063" timestamp="2017-12-25T16:16:15Z" uid="8635934" user="osm_poi_matchmaker" version="9">
    <nd ref="1577944362"/>
    <nd ref="1577944342"/>
    <nd ref="1577944355"/>
    <nd ref="1577944348"/>
    <nd ref="1577944362"/>
    <tag k="addr:city" v="Dunaújváros"/>
    <tag k="addr:country" v="HU"/>
    <tag k="addr:housenumber" v="2"/>
    <tag k="addr:postcode" v="2400"/>
    <tag k="addr:street" v="Béke körút"/>
    <tag k="branch" v="Interspar hipermarket Dunaújváros"/>
    <tag k="brand" v="Spar"/>
    <tag k="brand:wikidata" v="Q610492"/>
    <tag k="brand:wikipedia" v="hu:Spar"/>
    <tag k="building" v="retail"/>
    <tag k="building:levels" v="1"/>
    <tag k="email" v="vevoszolgalat@spar.hu"/>
    <tag k="facebook" v="https://www.facebook.com/sparmagyarorszag"/>
    <tag k="import" v="osm_poi_matchmaker"/>
    <tag k="instagram" v="https://www.instagram.com/sparmagyarorszag"/>
    <tag k="name" v="Interspar"/>
    <tag k="opening_hours" v="Mo-Sa 06:00-22:00; Su 06:00-19:00"/>
    <tag k="operator" v="SPAR Magyarország Kereskedelmi Kft."/>
    <tag k="payment:american_express" v="yes"/>
    <tag k="payment:cash" v="yes"/>
    <tag k="payment:contactless" v="yes"/>
    <tag k="payment:erzsebet" v="yes"/>
    <tag k="payment:erzsebet_plus" v="yes"/>
    <tag k="payment:maestro" v="yes"/>
    <tag k="payment:mastercard" v="yes"/>
    <tag k="payment:v_pay" v="yes"/>
    <tag k="payment:visa" v="yes"/>
    <tag k="payment:visa_electron" v="yes"/>
    <tag k="phone" v="+36208237727"/>
    <tag k="shop" v="supermarket"/>
    <tag k="source:www.spar.hu:date" v="2018-11-03"/>
    <tag k="toilets:wheelchair" v="yes"/>
    <tag k="website" v="https://www.spar.hu/content/aspiag_spar_hu/hu_HU/uzletek/24/interspar-hipermarket-dunaujvaros.html"/>
    <tag k="wheelchair" v="yes"/>
    <tag k="youtube" v="https://www.youtube.com/channel/UC9tu8COHiy4WkeTIN1k_Y8A"/>
  </way>
  <node action="modify" id="1165588745" lat="47.5914223" lon="18.3886828" timestamp="2014-03-08T01:19:40Z" uid="38952" user="grin" version="4"/>
  <node action="modify" id="1165588641" lat="47.5917512" lon="18.3896912" timestamp="2014-03-08T01:19:40Z" uid="38952" user="grin" version="4"/>
  <node action="modify" id="1165588690" lat="47.5908978" lon="18.3903031" timestamp="2014-03-08T01:19:40Z" uid="38952" user="grin" version="4"/>
  <node action="modify" id="1165589340" lat="47.5905689" lon="18.3892947" timestamp="2014-03-08T01:19:41Z" uid="38952" user="grin" version="4"/>
  <node action="modify" id="1165588745" lat="47.5914223" lon="18.3886828" timestamp="2014-03-08T01:19:40Z" uid="38952" user="grin" version="4"/>
  <!-- OSM link: https://osm.org/way/100860900 -->
  <!-- Original coordinates: POINT (47.591261 18.390463) -->
  <!-- OSM <-> POI distance: 28.37711444 m-->
  <!-- Checker good: {not_in_water}; bad {}-->
  <!-- Original tags:  -->
  <!-- JOSM magic link: http://localhost:8111/load_object?new_layer=false&objects=w100860900&addtags=%7Caddr%3Acity%3DTatab%C3%A1nya%7Caddr%3Acountry%3DHU%7Caddr%3Ahousenumber%3D25%7Caddr%3Apostcode%3D2800%7Caddr%3Astreet%3DGy%C5%91ri%20%C3%BAt%7Cbranch%3DInterspar%20hipermarket%20Tatab%C3%A1nya%7Cbrand%3DSpar%7Cbrand%3Awikidata%3DQ610492%7Cbrand%3Awikipedia%3Dhu%3ASpar%7Cemail%3Dvevoszolgalat%40spar.hu%7Cfacebook%3Dhttps%3A//www.facebook.com/sparmagyarorszag%7Cimport%3Dosm_poi_matchmaker%7Cinstagram%3Dhttps%3A//www.instagram.com/sparmagyarorszag%7Cname%3DInterspar%7Coperator%3DSPAR%20Magyarorsz%C3%A1g%20Kereskedelmi%20Kft.%7Cpayment%3Aamerican_express%3Dyes%7Cpayment%3Acash%3Dyes%7Cpayment%3Acontactless%3Dyes%7Cpayment%3Aerzsebet%3Dyes%7Cpayment%3Aerzsebet_plus%3Dyes%7Cpayment%3Amaestro%3Dyes%7Cpayment%3Amastercard%3Dyes%7Cpayment%3Av_pay%3Dyes%7Cpayment%3Avisa%3Dyes%7Cpayment%3Avisa_electron%3Dyes%7Cphone%3D%2B36208237727%7Cshop%3Dsupermarket%7Csource%3Awww.spar.hu%3Adate%3D2018-11-03%7Cwebsite%3Dhttps%3A//www.spar.hu/content/aspiag_spar_hu/hu_HU/uzletek/28/interspar-hipermarket-tatabanya.html%7Cyoutube%3Dhttps%3A//www.youtube.com/channel/UC9tu8COHiy4WkeTIN1k_Y8A -->
  <way action="modify" id="100860900" timestamp="2017-12-25T16:15:56Z" uid="8635934" user="osm_poi_matchmaker" version="7">
    <nd ref="1165588745"/>
    <nd ref="1165588641"/>
    <nd ref="1165588690"/>
    <nd ref="1165589340"/>
    <nd ref="1165588745"/>
    <tag k="addr:city" v="Tatabánya"/>
    <tag k="addr:country" v="HU"/>
    <tag k="addr:housenumber" v="25"/>
    <tag k="addr:postcode" v="2800"/>
    <tag k="addr:street" v="Győri út"/>
    <tag k="branch" v="Interspar hipermarket Tatabánya"/>
    <tag k="brand" v="Spar"/>
    <tag k="brand:wikidata" v="Q610492"/>
    <tag k="brand:wikipedia" v="hu:Spar"/>
    <tag k="email" v="vevoszolgalat@spar.hu"/>
    <tag k="facebook" v="https://www.facebook.com/sparmagyarorszag"/>
    <tag k="import" v="osm_poi_matchmaker"/>
    <tag k="instagram" v="https://www.instagram.com/sparmagyarorszag"/>
    <tag k="name" v="Interspar"/>
    <tag k="operator" v="SPAR Magyarország Kereskedelmi Kft."/>
    <tag k="payment:american_express" v="yes"/>
    <tag k="payment:cash" v="yes"/>
    <tag k="payment:contactless" v="yes"/>
    <tag k="payment:erzsebet" v="yes"/>
    <tag k="payment:erzsebet_plus" v="yes"/>
    <tag k="payment:maestro" v="yes"/>
    <tag k="payment:mastercard" v="yes"/>
    <tag k="payment:v_pay" v="yes"/>
    <tag k="payment:visa" v="yes"/>
    <tag k="payment:visa_electron" v="yes"/>
    <tag k="phone" v="+36208237727"/>
    <tag k="shop" v="supermarket"/>
    <tag k="source:www.spar.hu:date" v="2018-11-03"/>
    <tag k="website" v="https://www.spar.hu/content/aspiag_spar_hu/hu_HU/uzletek/28/interspar-hipermarket-tatabanya.html"/>
    <tag k="youtube" v="https://www.youtube.com/channel/UC9tu8COHiy4WkeTIN1k_Y8A"/>
  </way>
  <node action="modify" id="1357561448" lat="48.0995789" lon="20.7927791" timestamp="2011-07-11T08:25:14Z" uid="471661" user="fotel" version="1"/>
  <node action="modify" id="1357561413" lat="48.0994643" lon="20.7927576" timestamp="2011-07-11T08:25:12Z" uid="471661" user="fotel" version="1"/>
  <node action="modify" id="1357561513" lat="48.0994494" lon="20.7928204" timestamp="2011-07-11T08:25:16Z" uid="471661" user="fotel" version="1"/>
  <node action="modify" id="1357561514" lat="48.0992386" lon="20.7928006" timestamp="2011-07-11T08:25:16Z" uid="471661" user="fotel" version="1"/>
  <node action="modify" id="1357561569" lat="48.099213" lon="20.7931047" timestamp="2011-07-11T08:25:18Z" uid="471661" user="fotel" version="1"/>
  <node action="modify" id="1357561444" lat="48.0994566" lon="20.7931423" timestamp="2011-07-11T08:25:14Z" uid="471661" user="fotel" version="1"/>
  <node action="modify" id="1357561498" lat="48.0995109" lon="20.7930473" timestamp="2011-07-11T08:25:16Z" uid="471661" user="fotel" version="1"/>
  <node action="modify" id="1357561447" lat="48.0995569" lon="20.7930564" timestamp="2011-07-11T08:25:14Z" uid="471661" user="fotel" version="1"/>
  <node action="modify" id="1357561551" lat="48.0995574" lon="20.7928113" timestamp="2011-07-11T08:25:18Z" uid="471661" user="fotel" version="1"/>
  <node action="modify" id="1357561448" lat="48.0995789" lon="20.7927791" timestamp="2011-07-11T08:25:14Z" uid="471661" user="fotel" version="1"/>
  <!-- OSM link: https://osm.org/way/121218702 -->
  <!-- Original coordinates: POINT (48.10268 20.79223) -->
  <!-- OSM <-> POI distance: 347.23001903 m-->
  <!-- Checker good: {not_in_water}; bad {}-->
  <!-- Original tags:  -->
  <!-- JOSM magic link: http://localhost:8111/load_object?new_layer=false&objects=w121218702&addtags=%7Caddr%3Acity%3DMiskolc%7Caddr%3Acountry%3DHU%7Caddr%3Ahousenumber%3D2-4%7Caddr%3Apostcode%3D3530%7Caddr%3Astreet%3DBajcsy-Zsilinszky%20%C3%BAt%7Cbranch%3DInterspar%20hipermarket%20Miskolc%7Cbrand%3DSpar%7Cbrand%3Awikidata%3DQ610492%7Cbrand%3Awikipedia%3Dhu%3ASpar%7Cemail%3Dvevoszolgalat%40spar.hu%7Cfacebook%3Dhttps%3A//www.facebook.com/sparmagyarorszag%7Cimport%3Dosm_poi_matchmaker%7Cinstagram%3Dhttps%3A//www.instagram.com/sparmagyarorszag%7Cname%3DInterspar%7Coperator%3DSPAR%20Magyarorsz%C3%A1g%20Kereskedelmi%20Kft.%7Cpayment%3Aamerican_express%3Dyes%7Cpayment%3Acash%3Dyes%7Cpayment%3Acontactless%3Dyes%7Cpayment%3Aerzsebet%3Dyes%7Cpayment%3Aerzsebet_plus%3Dyes%7Cpayment%3Amaestro%3Dyes%7Cpayment%3Amastercard%3Dyes%7Cpayment%3Av_pay%3Dyes%7Cpayment%3Avisa%3Dyes%7Cpayment%3Avisa_electron%3Dyes%7Cphone%3D%2B36208237727%7Cshop%3Dsupermarket%7Csource%3Awww.spar.hu%3Adate%3D2018-11-03%7Cwebsite%3Dhttps%3A//www.spar.hu/content/aspiag_spar_hu/hu_HU/uzletek/35/interspar-hipermarket-miskolc.html%7Cyoutube%3Dhttps%3A//www.youtube.com/channel/UC9tu8COHiy4WkeTIN1k_Y8A -->
  <way action="modify" id="121218702" timestamp="2017-12-25T16:16:07Z" uid="8635934" user="osm_poi_matchmaker" version="4">
    <nd ref="1357561448"/>
    <nd ref="1357561413"/>
    <nd ref="1357561513"/>
    <nd ref="1357561514"/>
    <nd ref="1357561569"/>
    <nd ref="1357561444"/>
    <nd ref="1357561498"/>
    <nd ref="1357561447"/>
    <nd ref="1357561551"/>
    <nd ref="1357561448"/>
    <tag k="addr:city" v="Miskolc"/>
    <tag k="addr:country" v="HU"/>
    <tag k="addr:housenumber" v="2-4"/>
    <tag k="addr:postcode" v="3530"/>
    <tag k="addr:street" v="Bajcsy-Zsilinszky út"/>
    <tag k="branch" v="Interspar hipermarket Miskolc"/>
    <tag k="brand" v="Spar"/>
    <tag k="brand:wikidata" v="Q610492"/>
    <tag k="brand:wikipedia" v="hu:Spar"/>
    <tag k="email" v="vevoszolgalat@spar.hu"/>
    <tag k="facebook" v="https://www.facebook.com/sparmagyarorszag"/>
    <tag k="import" v="osm_poi_matchmaker"/>
    <tag k="instagram" v="https://www.instagram.com/sparmagyarorszag"/>
    <tag k="name" v="Interspar"/>
    <tag k="operator" v="SPAR Magyarország Kereskedelmi Kft."/>
    <tag k="payment:american_express" v="yes"/>
    <tag k="payment:cash" v="yes"/>
    <tag k="payment:contactless" v="yes"/>
    <tag k="payment:erzsebet" v="yes"/>
    <tag k="payment:erzsebet_plus" v="yes"/>
    <tag k="payment:maestro" v="yes"/>
    <tag k="payment:mastercard" v="yes"/>
    <tag k="payment:v_pay" v="yes"/>
    <tag k="payment:visa" v="yes"/>
    <tag k="payment:visa_electron" v="yes"/>
    <tag k="phone" v="+36208237727"/>
    <tag k="shop" v="supermarket"/>
    <tag k="source:www.spar.hu:date" v="2018-11-03"/>
    <tag k="website" v="https://www.spar.hu/content/aspiag_spar_hu/hu_HU/uzletek/35/interspar-hipermarket-miskolc.html"/>
    <tag k="youtube" v="https://www.youtube.com/channel/UC9tu8COHiy4WkeTIN1k_Y8A"/>
  </way>
  <node action="modify" id="3626013269" lat="48.2225043" lon="20.2804337" timestamp="2017-11-25T07:59:02Z" uid="6202598" user="MacBookAir15" version="3"/>
  <node action="modify" id="5246830034" lat="48.2219969" lon="20.2803449" timestamp="2017-11-25T07:58:54Z" uid="6202598" user="MacBookAir15" version="1"/>
  <node action="modify" id="5246830033" lat="48.2219986" lon="20.2803222" timestamp="2017-11-25T07:58:54Z" uid="6202598" user="MacBookAir15" version="1"/>
  <node action="modify" id="5246830028" lat="48.2218283" lon="20.280293" timestamp="2017-11-25T07:58:54Z" uid="6202598" user="MacBookAir15" version="1"/>
  <node action="modify" id="5246830030" lat="48.2218085" lon="20.2805532" timestamp="2017-11-25T07:58:54Z" uid="6202598" user="MacBookAir15" version="1"/>
  <node action="modify" id="5246830031" lat="48.2217641" lon="20.2805456" timestamp="2017-11-25T07:58:54Z" uid="6202598" user="MacBookAir15" version="1"/>
  <node action="modify" id="5246830032" lat="48.2217522" lon="20.2807025" timestamp="2017-11-25T07:58:54Z" uid="6202598" user="MacBookAir15" version="1"/>
  <node action="modify" id="5246830029" lat="48.2218052" lon="20.2807115" timestamp="2017-11-25T07:58:54Z" uid="6202598" user="MacBookAir15" version="1"/>
  <node action="modify" id="3626013271" lat="48.2217346" lon="20.2816522" timestamp="2017-11-25T07:59:02Z" uid="6202598" user="MacBookAir15" version="3"/>
  <node action="modify" id="5246543445" lat="48.2219268" lon="20.2816847" timestamp="2017-11-25T07:59:02Z" uid="6202598" user="MacBookAir15" version="2"/>
  <node action="modify" id="5246543446" lat="48.221878" lon="20.2823358" timestamp="2017-11-25T07:59:02Z" uid="6202598" user="MacBookAir15" version="2"/>
  <node action="modify" id="5246543447" lat="48.2220989" lon="20.2823731" timestamp="2017-11-25T07:59:02Z" uid="6202598" user="MacBookAir15" version="2"/>
  <node action="modify" id="5246543448" lat="48.2221526" lon="20.2816566" timestamp="2017-11-25T07:59:02Z" uid="6202598" user="MacBookAir15" version="2"/>
  <node action="modify" id="5246543444" lat="48.2224604" lon="20.2817085" timestamp="2017-11-25T07:59:02Z" uid="6202598" user="MacBookAir15" version="2"/>
  <node action="modify" id="5246543443" lat="48.2224579" lon="20.2817415" timestamp="2017-11-25T07:59:02Z" uid="6202598" user="MacBookAir15" version="2"/>
  <node action="modify" id="3626013272" lat="48.2225446" lon="20.281756" timestamp="2017-11-25T07:59:02Z" uid="6202598" user="MacBookAir15" version="3"/>
  <node action="modify" id="5246830035" lat="48.2225928" lon="20.2811101" timestamp="2017-11-25T07:58:54Z" uid="6202598" user="MacBookAir15" version="1"/>
  <node action="modify" id="5246830036" lat="48.2226384" lon="20.2811177" timestamp="2017-11-25T07:58:54Z" uid="6202598" user="MacBookAir15" version="1"/>
  <node action="modify" id="3626013273" lat="48.2226546" lon="20.2809004" timestamp="2017-11-25T07:59:02Z" uid="6202598" user="MacBookAir15" version="3"/>
  <node action="modify" id="3626013274" lat="48.2224705" lon="20.280869" timestamp="2017-11-25T07:59:02Z" uid="6202598" user="MacBookAir15" version="3"/>
  <node action="modify" id="3626013269" lat="48.2225043" lon="20.2804337" timestamp="2017-11-25T07:59:02Z" uid="6202598" user="MacBookAir15" version="3"/>
  <!-- OSM link: https://osm.org/way/357284270 -->
  <!-- Original coordinates: POINT (48.22172 20.28103) -->
  <!-- OSM <-> POI distance: 6.77253329 m-->
  <!-- Checker good: {not_in_water}; bad {}-->
  <!-- Original tags: 'building':'retail'; 'name':'Interspar'; 'shop':'supermarket'; 'toilets:wheelchair':'yes'; 'wheelchair':'yes';  -->
  <!-- JOSM magic link: http://localhost:8111/load_object?new_layer=false&objects=w357284270&addtags=%7Caddr%3Acity%3D%C3%93zd%7Caddr%3Acountry%3DHU%7Caddr%3Ahousenumber%3D4%7Caddr%3Apostcode%3D3600%7Caddr%3Astreet%3DS%C3%A1rli%20%C3%BAt%7Cbranch%3DInterspar%20hipermarket%20%C3%93zd%7Cbrand%3DSpar%7Cbrand%3Awikidata%3DQ610492%7Cbrand%3Awikipedia%3Dhu%3ASpar%7Cbuilding%3Dretail%7Cemail%3Dvevoszolgalat%40spar.hu%7Cfacebook%3Dhttps%3A//www.facebook.com/sparmagyarorszag%7Cimport%3Dosm_poi_matchmaker%7Cinstagram%3Dhttps%3A//www.instagram.com/sparmagyarorszag%7Cname%3DInterspar%7Coperator%3DSPAR%20Magyarorsz%C3%A1g%20Kereskedelmi%20Kft.%7Cpayment%3Aamerican_express%3Dyes%7Cpayment%3Acash%3Dyes%7Cpayment%3Acontactless%3Dyes%7Cpayment%3Aerzsebet%3Dyes%7Cpayment%3Aerzsebet_plus%3Dyes%7Cpayment%3Amaestro%3Dyes%7Cpayment%3Amastercard%3Dyes%7Cpayment%3Av_pay%3Dyes%7Cpayment%3Avisa%3Dyes%7Cpayment%3Avisa_electron%3Dyes%7Cphone%3D%2B36208237727%7Cshop%3Dsupermarket%7Csource%3Awww.spar.hu%3Adate%3D2018-11-03%7Ctoilets%3Awheelchair%3Dyes%7Cwebsite%3Dhttps%3A//www.spar.hu/content/aspiag_spar_hu/hu_HU/uzletek/36/interspar-hipermarket-ozd.html%7Cwheelchair%3Dyes%7Cyoutube%3Dhttps%3A//www.youtube.com/channel/UC9tu8COHiy4WkeTIN1k_Y8A -->
  <way action="modify" id="357284270" timestamp="2017-12-25T16:18:04Z" uid="8635934" user="osm_poi_matchmaker" version="7">
    <nd ref="3626013269"/>
    <nd ref="5246830034"/>
    <nd ref="5246830033"/>
    <nd ref="5246830028"/>
    <nd ref="5246830030"/>
    <nd ref="5246830031"/>
    <nd ref="5246830032"/>
    <nd ref="5246830029"/>
    <nd ref="3626013271"/>
    <nd ref="5246543445"/>
    <nd ref="5246543446"/>
    <nd ref="5246543447"/>
    <nd ref="5246543448"/>
    <nd ref="5246543444"/>
    <nd ref="5246543443"/>
    <nd ref="3626013272"/>
    <nd ref="5246830035"/>
    <nd ref="5246830036"/>
    <nd ref="3626013273"/>
    <nd ref="3626013274"/>
    <nd ref="3626013269"/>
    <tag k="addr:city" v="Ózd"/>
    <tag k="addr:country" v="HU"/>
    <tag k="addr:housenumber" v="4"/>
    <tag k="addr:postcode" v="3600"/>
    <tag k="addr:street" v="Sárli út"/>
    <tag k="branch" v="Interspar hipermarket Ózd"/>
    <tag k="brand" v="Spar"/>
    <tag k="brand:wikidata" v="Q610492"/>
    <tag k="brand:wikipedia" v="hu:Spar"/>
    <tag k="building" v="retail"/>
    <tag k="email" v="vevoszolgalat@spar.hu"/>
    <tag k="facebook" v="https://www.facebook.com/sparmagyarorszag"/>
    <tag k="import" v="osm_poi_matchmaker"/>
    <tag k="instagram" v="https://www.instagram.com/sparmagyarorszag"/>
    <tag k="name" v="Interspar"/>
    <tag k="operator" v="SPAR Magyarország Kereskedelmi Kft."/>
    <tag k="payment:american_express" v="yes"/>
    <tag k="payment:cash" v="yes"/>
    <tag k="payment:contactless" v="yes"/>
    <tag k="payment:erzsebet" v="yes"/>
    <tag k="payment:erzsebet_plus" v="yes"/>
    <tag k="payment:maestro" v="yes"/>
    <tag k="payment:mastercard" v="yes"/>
    <tag k="payment:v_pay" v="yes"/>
    <tag k="payment:visa" v="yes"/>
    <tag k="payment:visa_electron" v="yes"/>
    <tag k="phone" v="+36208237727"/>
    <tag k="shop" v="supermarket"/>
    <tag k="source:www.spar.hu:date" v="2018-11-03"/>
    <tag k="toilets:wheelchair" v="yes"/>
    <tag k="website" v="https://www.spar.hu/content/aspiag_spar_hu/hu_HU/uzletek/36/interspar-hipermarket-ozd.html"/>
    <tag k="wheelchair" v="yes"/>
    <tag k="youtube" v="https://www.youtube.com/channel/UC9tu8COHiy4WkeTIN1k_Y8A"/>
  </way>
  <!-- OSM link: https://osm.org/node/1944079233 -->
  <!-- Original coordinates: POINT (47.54167 21.61981) -->
  <!-- OSM <-> POI distance: 96.77783917 m-->
  <!-- Checker good: {not_in_water}; bad {}-->
  <!-- Original tags:  -->
  <!-- JOSM magic link: http://localhost:8111/load_object?new_layer=false&objects=n1944079233&addtags=%7Caddr%3Acity%3DDebrecen%7Caddr%3Acountry%3DHU%7Caddr%3Ahousenumber%3D27%7Caddr%3Apostcode%3D4027%7Caddr%3Astreet%3DF%C3%BCredi%20%C3%BAt%7Cbranch%3DInterspar%20hipermarket%20Debrecen%7Cbrand%3DSpar%7Cbrand%3Awikidata%3DQ610492%7Cbrand%3Awikipedia%3Dhu%3ASpar%7Cemail%3Dvevoszolgalat%40spar.hu%7Cfacebook%3Dhttps%3A//www.facebook.com/sparmagyarorszag%7Cimport%3Dosm_poi_matchmaker%7Cinstagram%3Dhttps%3A//www.instagram.com/sparmagyarorszag%7Cname%3DInterspar%7Coperator%3DSPAR%20Magyarorsz%C3%A1g%20Kereskedelmi%20Kft.%7Cpayment%3Aamerican_express%3Dyes%7Cpayment%3Acash%3Dyes%7Cpayment%3Acontactless%3Dyes%7Cpayment%3Aerzsebet%3Dyes%7Cpayment%3Aerzsebet_plus%3Dyes%7Cpayment%3Amaestro%3Dyes%7Cpayment%3Amastercard%3Dyes%7Cpayment%3Av_pay%3Dyes%7Cpayment%3Avisa%3Dyes%7Cpayment%3Avisa_electron%3Dyes%7Cphone%3D%2B36208237727%7Cshop%3Dsupermarket%7Csource%3Awww.spar.hu%3Adate%3D2018-11-03%7Cwebsite%3Dhttps%3A//www.spar.hu/content/aspiag_spar_hu/hu_HU/uzletek/40/interspar-hipermarket-debrecen.html%7Cyoutube%3Dhttps%3A//www.youtube.com/channel/UC9tu8COHiy4WkeTIN1k_Y8A -->
  <node action="modify" id="1944079233" lat="47.5423789949091" lon="21.6205577969904" timestamp="2017-09-01T05:33:03Z" uid="8635934" user="osm_poi_matchmaker" version="5">
    <tag k="addr:city" v="Debrecen"/>
    <tag k="addr:country" v="HU"/>
    <tag k="addr:housenumber" v="27"/>
    <tag k="addr:postcode" v="4027"/>
    <tag k="addr:street" v="Füredi út"/>
    <tag k="branch" v="Interspar hipermarket Debrecen"/>
    <tag k="brand" v="Spar"/>
    <tag k="brand:wikidata" v="Q610492"/>
    <tag k="brand:wikipedia" v="hu:Spar"/>
    <tag k="email" v="vevoszolgalat@spar.hu"/>
    <tag k="facebook" v="https://www.facebook.com/sparmagyarorszag"/>
    <tag k="import" v="osm_poi_matchmaker"/>
    <tag k="instagram" v="https://www.instagram.com/sparmagyarorszag"/>
    <tag k="name" v="Interspar"/>
    <tag k="operator" v="SPAR Magyarország Kereskedelmi Kft."/>
    <tag k="payment:american_express" v="yes"/>
    <tag k="payment:cash" v="yes"/>
    <tag k="payment:contactless" v="yes"/>
    <tag k="payment:erzsebet" v="yes"/>
    <tag k="payment:erzsebet_plus" v="yes"/>
    <tag k="payment:maestro" v="yes"/>
    <tag k="payment:mastercard" v="yes"/>
    <tag k="payment:v_pay" v="yes"/>
    <tag k="payment:visa" v="yes"/>
    <tag k="payment:visa_electron" v="yes"/>
    <tag k="phone" v="+36208237727"/>
    <tag k="shop" v="supermarket"/>
    <tag k="source:www.spar.hu:date" v="2018-11-03"/>
    <tag k="website" v="https://www.spar.hu/content/aspiag_spar_hu/hu_HU/uzletek/40/interspar-hipermarket-debrecen.html"/>
    <tag k="youtube" v="https://www.youtube.com/channel/UC9tu8COHiy4WkeTIN1k_Y8A"/>
  </node>
  <node action="modify" id="3028365147" lat="47.9564426" lon="21.7274881" timestamp="2014-08-19T17:56:08Z" uid="2259850" user="Kecskeméti" version="1"/>
  <node action="modify" id="2767098614" lat="47.9566274" lon="21.7264449" timestamp="2014-08-19T17:56:08Z" uid="2259850" user="Kecskeméti" version="2"/>
  <node action="modify" id="2767098615" lat="47.9566679" lon="21.726461" timestamp="2014-08-19T17:56:08Z" uid="2259850" user="Kecskeméti" version="2"/>
  <node action="modify" id="2767098616" lat="47.9567507" lon="21.7259959" timestamp="2014-08-19T17:56:09Z" uid="2259850" user="Kecskeméti" version="3"/>
  <node action="modify" id="2767098617" lat="47.9561844" lon="21.7257711" timestamp="2014-08-19T17:56:09Z" uid="2259850" user="Kecskeméti" version="3"/>
  <node action="modify" id="2767098618" lat="47.9561501" lon="21.7259639" timestamp="2014-08-19T17:56:09Z" uid="2259850" user="Kecskeméti" version="3"/>
  <node action="modify" id="2767098619" lat="47.9560356" lon="21.7259183" timestamp="2014-08-19T17:56:09Z" uid="2259850" user="Kecskeméti" version="3"/>
  <node action="modify" id="2767098620" lat="47.9560128" lon="21.7260459" timestamp="2014-08-19T17:56:09Z" uid="2259850" user="Kecskeméti" version="3"/>
  <node action="modify" id="2767098621" lat="47.9559626" lon="21.7260258" timestamp="2014-08-19T17:56:09Z" uid="2259850" user="Kecskeméti" version="3"/>
  <node action="modify" id="2767098622" lat="47.9557536" lon="21.7271874" timestamp="2014-08-19T17:56:09Z" uid="2259850" user="Kecskeméti" version="3"/>
  <node action="modify" id="2767098624" lat="47.9558889" lon="21.7272417" timestamp="2014-08-19T17:56:09Z" uid="2259850" user="Kecskeméti" version="5"/>
  <node action="modify" id="2767098625" lat="47.9558848" lon="21.727264" timestamp="2014-08-19T17:56:08Z" uid="2259850" user="Kecskeméti" version="3"/>
  <node action="modify" id="3030088328" lat="47.9561383" lon="21.7273658" timestamp="2014-08-20T15:20:36Z" uid="2231016" user="demeterm" version="1"/>
  <node action="modify" id="3028365147" lat="47.9564426" lon="21.7274881" timestamp="2014-08-19T17:56:08Z" uid="2259850" user="Kecskeméti" version="1"/>
  <!-- OSM link: https://osm.org/way/271770104 -->
  <!-- Original coordinates: POINT (47.955953 21.727577) -->
  <!-- OSM <-> POI distance: 20.5391193 m-->
  <!-- Checker good: {not_in_water}; bad {}-->
  <!-- Original tags:  -->
  <!-- JOSM magic link: http://localhost:8111/load_object?new_layer=false&objects=w271770104&addtags=%7Caddr%3Acity%3DNy%C3%ADregyh%C3%A1za%7Caddr%3Acountry%3DHU%7Caddr%3Ahousenumber%3D8%7Caddr%3Apostcode%3D4400%7Caddr%3Astreet%3DL%C3%A1szl%C3%B3%20utca%7Cbranch%3DInterspar%20hipermarket%20Ny%C3%ADregyh%C3%A1za%7Cbrand%3DSpar%7Cbrand%3Awikidata%3DQ610492%7Cbrand%3Awikipedia%3Dhu%3ASpar%7Cemail%3Dvevoszolgalat%40spar.hu%7Cfacebook%3Dhttps%3A//www.facebook.com/sparmagyarorszag%7Cimport%3Dosm_poi_matchmaker%7Cinstagram%3Dhttps%3A//www.instagram.com/sparmagyarorszag%7Cname%3DInterspar%7Coperator%3DSPAR%20Magyarorsz%C3%A1g%20Kereskedelmi%20Kft.%7Cpayment%3Aamerican_express%3Dyes%7Cpayment%3Acash%3Dyes%7Cpayment%3Acontactless%3Dyes%7Cpayment%3Aerzsebet%3Dyes%7Cpayment%3Aerzsebet_plus%3Dyes%7Cpayment%3Amaestro%3Dyes%7Cpayment%3Amastercard%3Dyes%7Cpayment%3Av_pay%3Dyes%7Cpayment%3Avisa%3Dyes%7Cpayment%3Avisa_electron%3Dyes%7Cphone%3D%2B36208237727%7Cshop%3Dsupermarket%7Csource%3Awww.spar.hu%3Adate%3D2018-11-03%7Cwebsite%3Dhttps%3A//www.spar.hu/content/aspiag_spar_hu/hu_HU/uzletek/44/interspar-hipermarket-nyiregyhaza.html%7Cyoutube%3Dhttps%3A//www.youtube.com/channel/UC9tu8COHiy4WkeTIN1k_Y8A -->
  <way action="modify" id="271770104" timestamp="2018-05-31T16:41:50Z" uid="8635934" user="osm_poi_matchmaker" version="16">
    <nd ref="3028365147"/>
    <nd ref="2767098614"/>
    <nd ref="2767098615"/>
    <nd ref="2767098616"/>
    <nd ref="2767098617"/>
    <nd ref="2767098618"/>
    <nd ref="2767098619"/>
    <nd ref="2767098620"/>
    <nd ref="2767098621"/>
    <nd ref="2767098622"/>
    <nd ref="2767098624"/>
    <nd ref="2767098625"/>
    <nd ref="3030088328"/>
    <nd ref="3028365147"/>
    <tag k="addr:city" v="Nyíregyháza"/>
    <tag k="addr:country" v="HU"/>
    <tag k="addr:housenumber" v="8"/>
    <tag k="addr:postcode" v="4400"/>
    <tag k="addr:street" v="László utca"/>
    <tag k="branch" v="Interspar hipermarket Nyíregyháza"/>
    <tag k="brand" v="Spar"/>
    <tag k="brand:wikidata" v="Q610492"/>
    <tag k="brand:wikipedia" v="hu:Spar"/>
    <tag k="email" v="vevoszolgalat@spar.hu"/>
    <tag k="facebook" v="https://www.facebook.com/sparmagyarorszag"/>
    <tag k="import" v="osm_poi_matchmaker"/>
    <tag k="instagram" v="https://www.instagram.com/sparmagyarorszag"/>
    <tag k="name" v="Interspar"/>
    <tag k="operator" v="SPAR Magyarország Kereskedelmi Kft."/>
    <tag k="payment:american_express" v="yes"/>
    <tag k="payment:cash" v="yes"/>
    <tag k="payment:contactless" v="yes"/>
    <tag k="payment:erzsebet" v="yes"/>
    <tag k="payment:erzsebet_plus" v="yes"/>
    <tag k="payment:maestro" v="yes"/>
    <tag k="payment:mastercard" v="yes"/>
    <tag k="payment:v_pay" v="yes"/>
    <tag k="payment:visa" v="yes"/>
    <tag k="payment:visa_electron" v="yes"/>
    <tag k="phone" v="+36208237727"/>
    <tag k="shop" v="supermarket"/>
    <tag k="source:www.spar.hu:date" v="2018-11-03"/>
    <tag k="website" v="https://www.spar.hu/content/aspiag_spar_hu/hu_HU/uzletek/44/interspar-hipermarket-nyiregyhaza.html"/>
    <tag k="youtube" v="https://www.youtube.com/channel/UC9tu8COHiy4WkeTIN1k_Y8A"/>
  </way>
  <node action="modify" id="3028391852" lat="47.9710376" lon="21.7265606" timestamp="2014-08-19T18:04:32Z" uid="2259850" user="Kecskeméti" version="1"/>
  <node action="modify" id="3028391853" lat="47.9709079" lon="21.7279835" timestamp="2014-08-19T18:04:32Z" uid="2259850" user="Kecskeméti" version="1"/>
  <node action="modify" id="3028391854" lat="47.9716412" lon="21.7281325" timestamp="2014-08-19T18:04:32Z" uid="2259850" user="Kecskeméti" version="1"/>
  <node action="modify" id="3028391855" lat="47.9717194" lon="21.7272741" timestamp="2014-08-19T18:04:32Z" uid="2259850" user="Kecskeméti" version="1"/>
  <node action="modify" id="3028391856" lat="47.9717719" lon="21.7272847" timestamp="2014-08-19T18:04:32Z" uid="2259850" user="Kecskeméti" version="1"/>
  <node action="modify" id="3281039297" lat="47.9718132" lon="21.726831" timestamp="2015-01-10T19:41:51Z" uid="1645575" user="GeoLaci" version="1"/>
  <node action="modify" id="3028391857" lat="47.9718221" lon="21.726733" timestamp="2014-08-19T18:04:32Z" uid="2259850" user="Kecskeméti" version="1"/>
  <node action="modify" id="3281039296" lat="47.9717367" lon="21.7267142" timestamp="2015-01-10T19:41:51Z" uid="1645575" user="GeoLaci" version="1"/>
  <node action="modify" id="3028391858" lat="47.9711591" lon="21.7265873" timestamp="2014-09-22T16:27:57Z" uid="1645575" user="GeoLaci" version="2"/>
  <node action="modify" id="3028391852" lat="47.9710376" lon="21.7265606" timestamp="2014-08-19T18:04:32Z" uid="2259850" user="Kecskeméti" version="1"/>
  <!-- OSM link: https://osm.org/way/298872726 -->
  <!-- Original coordinates: POINT (47.97224 21.72651) -->
  <!-- OSM <-> POI distance: 49.34527329 m-->
  <!-- Checker good: {not_in_water}; bad {}-->
  <!-- Original tags: 'addr:city':'Nyíregyháza'; 'addr:housenumber':'5'; 'addr:postcode':'4400'; 'addr:street':'Korányi Frigyes út'; 'building':'retail'; 'name':'Interspar'; 'opening_hours':'Mo-Sa 06:00-22:00; Su 08:00-19:00'; 'phone':'+36 20 823 8286'; 'shop':'supermarket'; 'toilets:wheelchair':'yes'; 'website':'http://www.spar.hu'; 'wheelchair':'yes';  -->
  <!-- JOSM magic link: http://localhost:8111/load_object?new_layer=false&objects=w298872726&addtags=%7Caddr%3Acity%3DNy%C3%ADregyh%C3%A1za%7Caddr%3Acountry%3DHU%7Caddr%3Ahousenumber%3D5%7Caddr%3Apostcode%3D4400%7Caddr%3Astreet%3DKor%C3%A1nyi%20Frigyes%20utca%7Cbranch%3DInterspar%20hipermarket%20Ny%C3%ADregyh%C3%A1za%7Cbrand%3DSpar%7Cbrand%3Awikidata%3DQ610492%7Cbrand%3Awikipedia%3Dhu%3ASpar%7Cbuilding%3Dretail%7Cemail%3Dvevoszolgalat%40spar.hu%7Cfacebook%3Dhttps%3A//www.facebook.com/sparmagyarorszag%7Cimport%3Dosm_poi_matchmaker%7Cinstagram%3Dhttps%3A//www.instagram.com/sparmagyarorszag%7Cname%3DInterspar%7Copening_hours%3DMo-Sa%2006%3A00-22%3A00%3B%20Su%2008%3A00-19%3A00%7Coperator%3DSPAR%20Magyarorsz%C3%A1g%20Kereskedelmi%20Kft.%7Cpayment%3Aamerican_express%3Dyes%7Cpayment%3Acash%3Dyes%7Cpayment%3Acontactless%3Dyes%7Cpayment%3Aerzsebet%3Dyes%7Cpayment%3Aerzsebet_plus%3Dyes%7Cpayment%3Amaestro%3Dyes%7Cpayment%3Amastercard%3Dyes%7Cpayment%3Av_pay%3Dyes%7Cpayment%3Avisa%3Dyes%7Cpayment%3Avisa_electron%3Dyes%7Cphone%3D%2B36208237727%7Cshop%3Dsupermarket%7Csource%3Awww.spar.hu%3Adate%3D2018-11-03%7Ctoilets%3Awheelchair%3Dyes%7Cwebsite%3Dhttps%3A//www.spar.hu/content/aspiag_spar_hu/hu_HU/uzletek/44/interspar-hipermarket-nyiregyhaza-ii-.html%7Cwheelchair%3Dyes%7Cyoutube%3Dhttps%3A//www.youtube.com/channel/UC9tu8COHiy4WkeTIN1k_Y8A -->
  <way action="modify" id="298872726" timestamp="2018-01-19T19:26:01Z" uid="8635934" user="osm_poi_matchmaker" version="12">
    <nd ref="3028391852"/>
    <nd ref="3028391853"/>
    <nd ref="3028391854"/>
    <nd ref="3028391855"/>
    <nd ref="3028391856"/>
    <nd ref="3281039297"/>
    <nd ref="3028391857"/>
    <nd ref="3281039296"/>
    <nd ref="3028391858"/>
    <nd ref="3028391852"/>
    <tag k="addr:city" v="Nyíregyháza"/>
    <tag k="addr:country" v="HU"/>
    <tag k="addr:housenumber" v="5"/>
    <tag k="addr:postcode" v="4400"/>
    <tag k="addr:street" v="Korányi Frigyes utca"/>
    <tag k="branch" v="Interspar hipermarket Nyíregyháza"/>
    <tag k="brand" v="Spar"/>
    <tag k="brand:wikidata" v="Q610492"/>
    <tag k="brand:wikipedia" v="hu:Spar"/>
    <tag k="building" v="retail"/>
    <tag k="email" v="vevoszolgalat@spar.hu"/>
    <tag k="facebook" v="https://www.facebook.com/sparmagyarorszag"/>
    <tag k="import" v="osm_poi_matchmaker"/>
    <tag k="instagram" v="https://www.instagram.com/sparmagyarorszag"/>
    <tag k="name" v="Interspar"/>
    <tag k="opening_hours" v="Mo-Sa 06:00-22:00; Su 08:00-19:00"/>
    <tag k="operator" v="SPAR Magyarország Kereskedelmi Kft."/>
    <tag k="payment:american_express" v="yes"/>
    <tag k="payment:cash" v="yes"/>
    <tag k="payment:contactless" v="yes"/>
    <tag k="payment:erzsebet" v="yes"/>
    <tag k="payment:erzsebet_plus" v="yes"/>
    <tag k="payment:maestro" v="yes"/>
    <tag k="payment:mastercard" v="yes"/>
    <tag k="payment:v_pay" v="yes"/>
    <tag k="payment:visa" v="yes"/>
    <tag k="payment:visa_electron" v="yes"/>
    <tag k="phone" v="+36208237727"/>
    <tag k="shop" v="supermarket"/>
    <tag k="source:www.spar.hu:date" v="2018-11-03"/>
    <tag k="toilets:wheelchair" v="yes"/>
    <tag k="website" v="https://www.spar.hu/content/aspiag_spar_hu/hu_HU/uzletek/44/interspar-hipermarket-nyiregyhaza-ii-.html"/>
    <tag k="wheelchair" v="yes"/>
    <tag k="youtube" v="https://www.youtube.com/channel/UC9tu8COHiy4WkeTIN1k_Y8A"/>
  </way>
  <node action="modify" id="1798291160" lat="47.1799788" lon="20.1820211" timestamp="2015-01-02T12:57:16Z" uid="94627" user="sprok" version="2"/>
  <node action="modify" id="1798291166" lat="47.1805192" lon="20.1827145" timestamp="2015-01-02T12:57:16Z" uid="94627" user="sprok" version="2"/>
  <node action="modify" id="1798291168" lat="47.18053" lon="20.1826963" timestamp="2015-01-02T12:57:16Z" uid="94627" user="sprok" version="2"/>
  <node action="modify" id="1798291172" lat="47.1806067" lon="20.1827947" timestamp="2015-01-02T12:57:16Z" uid="94627" user="sprok" version="2"/>
  <node action="modify" id="1798291170" lat="47.1805957" lon="20.1828133" timestamp="2015-01-02T12:57:16Z" uid="94627" user="sprok" version="2"/>
  <node action="modify" id="1798291173" lat="47.1806793" lon="20.1829206" timestamp="2015-01-02T12:57:16Z" uid="94627" user="sprok" version="2"/>
  <node action="modify" id="1798291165" lat="47.1804034" lon="20.1833861" timestamp="2015-01-02T12:57:16Z" uid="94627" user="sprok" version="2"/>
  <node action="modify" id="1798291163" lat="47.18032" lon="20.1832791" timestamp="2015-01-02T12:57:16Z" uid="94627" user="sprok" version="2"/>
  <node action="modify" id="1798291158" lat="47.1799574" lon="20.1838908" timestamp="2015-01-02T12:57:16Z" uid="94627" user="sprok" version="2"/>
  <node action="modify" id="3265308894" lat="47.179767" lon="20.1836464" timestamp="2015-01-02T12:57:03Z" uid="94627" user="sprok" version="1"/>
  <node action="modify" id="3265308895" lat="47.1797808" lon="20.1836231" timestamp="2015-01-02T12:57:03Z" uid="94627" user="sprok" version="1"/>
  <node action="modify" id="1798291151" lat="47.179568" lon="20.1833501" timestamp="2015-01-02T12:57:16Z" uid="94627" user="sprok" version="2"/>
  <node action="modify" id="1798291150" lat="47.1795461" lon="20.1833869" timestamp="2015-01-02T12:57:16Z" uid="94627" user="sprok" version="2"/>
  <node action="modify" id="1798291149" lat="47.1793591" lon="20.1831469" timestamp="2015-01-02T12:57:16Z" uid="94627" user="sprok" version="2"/>
  <node action="modify" id="1798291156" lat="47.1799184" lon="20.1822033" timestamp="2015-01-02T12:57:16Z" uid="94627" user="sprok" version="2"/>
  <node action="modify" id="1798291155" lat="47.1798913" lon="20.1821686" timestamp="2015-01-02T12:57:16Z" uid="94627" user="sprok" version="2"/>
  <node action="modify" id="1798291160" lat="47.1799788" lon="20.1820211" timestamp="2015-01-02T12:57:16Z" uid="94627" user="sprok" version="2"/>
  <!-- OSM link: https://osm.org/way/168588596 -->
  <!-- Original coordinates: POINT (47.179982 20.182813) -->
  <!-- OSM <-> POI distance: 0.0 m-->
  <!-- Checker good: {not_in_water}; bad {}-->
  <!-- Original tags:  -->
  <!-- JOSM magic link: http://localhost:8111/load_object?new_layer=false&objects=w168588596&addtags=%7Caddr%3Acity%3DSzolnok%7Caddr%3Acountry%3DHU%7Caddr%3Ahousenumber%3D29%7Caddr%3Apostcode%3D5000%7Caddr%3Astreet%3DM%C3%A1ty%C3%A1s%20kir%C3%A1ly%20%C3%BAt%7Cbranch%3DInterspar%20hipermarket%20Szolnok%7Cbrand%3DSpar%7Cbrand%3Awikidata%3DQ610492%7Cbrand%3Awikipedia%3Dhu%3ASpar%7Cemail%3Dvevoszolgalat%40spar.hu%7Cfacebook%3Dhttps%3A//www.facebook.com/sparmagyarorszag%7Cimport%3Dosm_poi_matchmaker%7Cinstagram%3Dhttps%3A//www.instagram.com/sparmagyarorszag%7Cname%3DInterspar%7Coperator%3DSPAR%20Magyarorsz%C3%A1g%20Kereskedelmi%20Kft.%7Cpayment%3Aamerican_express%3Dyes%7Cpayment%3Acash%3Dyes%7Cpayment%3Acontactless%3Dyes%7Cpayment%3Aerzsebet%3Dyes%7Cpayment%3Aerzsebet_plus%3Dyes%7Cpayment%3Amaestro%3Dyes%7Cpayment%3Amastercard%3Dyes%7Cpayment%3Av_pay%3Dyes%7Cpayment%3Avisa%3Dyes%7Cpayment%3Avisa_electron%3Dyes%7Cphone%3D%2B36208237727%7Cshop%3Dsupermarket%7Csource%3Awww.spar.hu%3Adate%3D2018-11-03%7Cwebsite%3Dhttps%3A//www.spar.hu/content/aspiag_spar_hu/hu_HU/uzletek/50/interspar-hipermarket-szolnok.html%7Cyoutube%3Dhttps%3A//www.youtube.com/channel/UC9tu8COHiy4WkeTIN1k_Y8A -->
  <way action="modify" id="168588596" timestamp="2017-09-15T09:27:54Z" uid="8635934" user="osm_poi_matchmaker" version="10">
    <nd ref="1798291160"/>
    <nd ref="1798291166"/>
    <nd ref="1798291168"/>
    <nd ref="1798291172"/>
    <nd ref="1798291170"/>
    <nd ref="1798291173"/>
    <nd ref="1798291165"/>
    <nd ref="1798291163"/>
    <nd ref="1798291158"/>
    <nd ref="3265308894"/>
    <nd ref="3265308895"/>
    <nd ref="1798291151"/>
    <nd ref="1798291150"/>
    <nd ref="1798291149"/>
    <nd ref="1798291156"/>
    <nd ref="1798291155"/>
    <nd ref="1798291160"/>
    <tag k="addr:city" v="Szolnok"/>
    <tag k="addr:country" v="HU"/>
    <tag k="addr:housenumber" v="29"/>
    <tag k="addr:postcode" v="5000"/>
    <tag k="addr:street" v="Mátyás király út"/>
    <tag k="branch" v="Interspar hipermarket Szolnok"/>
    <tag k="brand" v="Spar"/>
    <tag k="brand:wikidata" v="Q610492"/>
    <tag k="brand:wikipedia" v="hu:Spar"/>
    <tag k="email" v="vevoszolgalat@spar.hu"/>
    <tag k="facebook" v="https://www.facebook.com/sparmagyarorszag"/>
    <tag k="import" v="osm_poi_matchmaker"/>
    <tag k="instagram" v="https://www.instagram.com/sparmagyarorszag"/>
    <tag k="name" v="Interspar"/>
    <tag k="operator" v="SPAR Magyarország Kereskedelmi Kft."/>
    <tag k="payment:american_express" v="yes"/>
    <tag k="payment:cash" v="yes"/>
    <tag k="payment:contactless" v="yes"/>
    <tag k="payment:erzsebet" v="yes"/>
    <tag k="payment:erzsebet_plus" v="yes"/>
    <tag k="payment:maestro" v="yes"/>
    <tag k="payment:mastercard" v="yes"/>
    <tag k="payment:v_pay" v="yes"/>
    <tag k="payment:visa" v="yes"/>
    <tag k="payment:visa_electron" v="yes"/>
    <tag k="phone" v="+36208237727"/>
    <tag k="shop" v="supermarket"/>
    <tag k="source:www.spar.hu:date" v="2018-11-03"/>
    <tag k="website" v="https://www.spar.hu/content/aspiag_spar_hu/hu_HU/uzletek/50/interspar-hipermarket-szolnok.html"/>
    <tag k="youtube" v="https://www.youtube.com/channel/UC9tu8COHiy4WkeTIN1k_Y8A"/>
  </way>
  <node action="modify" id="2388594265" lat="46.6403071" lon="21.2612935" timestamp="2013-07-18T13:05:18Z" uid="610986" user="djgergely" version="1"/>
  <node action="modify" id="2706102022" lat="46.640081" lon="21.2611034" timestamp="2014-03-07T20:36:03Z" uid="311866" user="papesz" version="1"/>
  <node action="modify" id="2706102025" lat="46.6398842" lon="21.2615882" timestamp="2014-03-07T20:36:03Z" uid="311866" user="papesz" version="1"/>
  <node action="modify" id="2706102027" lat="46.6393884" lon="21.2612095" timestamp="2014-03-07T20:36:03Z" uid="311866" user="papesz" version="1"/>
  <node action="modify" id="2706102030" lat="46.6390944" lon="21.2619351" timestamp="2014-03-07T20:36:03Z" uid="311866" user="papesz" version="1"/>
  <node action="modify" id="2706102032" lat="46.6392183" lon="21.2620483" timestamp="2014-03-07T20:36:03Z" uid="311866" user="papesz" version="1"/>
  <node action="modify" id="2706102034" lat="46.6390604" lon="21.2624235" timestamp="2014-03-07T20:36:03Z" uid="311866" user="papesz" version="1"/>
  <node action="modify" id="2706102036" lat="46.6396606" lon="21.2629331" timestamp="2014-03-07T20:36:03Z" uid="311866" user="papesz" version="1"/>
  <node action="modify" id="2388594253" lat="46.6398546" lon="21.2624512" timestamp="2013-07-18T13:05:17Z" uid="610986" user="djgergely" version="1"/>
  <node action="modify" id="2388594265" lat="46.6403071" lon="21.2612935" timestamp="2013-07-18T13:05:18Z" uid="610986" user="djgergely" version="1"/>
  <!-- OSM link: https://osm.org/way/264961886 -->
  <!-- Original coordinates: POINT (46.639507 21.26215) -->
  <!-- OSM <-> POI distance: 0.0 m-->
  <!-- Checker good: {not_in_water}; bad {}-->
  <!-- Original tags: 'addr:city':'Gyula'; 'building':'retail'; 'name':'Interspar'; 'shop':'supermarket'; 'website':'http://www.spar.hu'; 'wheelchair':'yes';  -->
  <!-- JOSM magic link: http://localhost:8111/load_object?new_layer=false&objects=w264961886&addtags=%7Caddr%3Acity%3DGyula%7Caddr%3Acountry%3DHU%7Caddr%3Ahousenumber%3D1%7Caddr%3Apostcode%3D5700%7Caddr%3Astreet%3DK%C3%A9tegyh%C3%A1zi%20%C3%BAt%7Cbranch%3DInterspar%20hipermarket%20Gyula%7Cbrand%3DSpar%7Cbrand%3Awikidata%3DQ610492%7Cbrand%3Awikipedia%3Dhu%3ASpar%7Cbuilding%3Dretail%7Cemail%3Dvevoszolgalat%40spar.hu%7Cfacebook%3Dhttps%3A//www.facebook.com/sparmagyarorszag%7Cimport%3Dosm_poi_matchmaker%7Cinstagram%3Dhttps%3A//www.instagram.com/sparmagyarorszag%7Cname%3DInterspar%7Coperator%3DSPAR%20Magyarorsz%C3%A1g%20Kereskedelmi%20Kft.%7Cpayment%3Aamerican_express%3Dyes%7Cpayment%3Acash%3Dyes%7Cpayment%3Acontactless%3Dyes%7Cpayment%3Aerzsebet%3Dyes%7Cpayment%3Aerzsebet_plus%3Dyes%7Cpayment%3Amaestro%3Dyes%7Cpayment%3Amastercard%3Dyes%7Cpayment%3Av_pay%3Dyes%7Cpayment%3Avisa%3Dyes%7Cpayment%3Avisa_electron%3Dyes%7Cphone%3D%2B36208237727%7Cshop%3Dsupermarket%7Csource%3Awww.spar.hu%3Adate%3D2018-11-03%7Cwebsite%3Dhttps%3A//www.spar.hu/content/aspiag_spar_hu/hu_HU/uzletek/57/interspar-hipermarket-gyula.html%7Cwheelchair%3Dyes%7Cyoutube%3Dhttps%3A//www.youtube.com/channel/UC9tu8COHiy4WkeTIN1k_Y8A -->
  <way action="modify" id="264961886" timestamp="2018-07-23T09:23:42Z" uid="8635934" user="osm_poi_matchmaker" version="6">
    <nd ref="2388594265"/>
    <nd ref="2706102022"/>
    <nd ref="2706102025"/>
    <nd ref="2706102027"/>
    <nd ref="2706102030"/>
    <nd ref="2706102032"/>
    <nd ref="2706102034"/>
    <nd ref="2706102036"/>
    <nd ref="2388594253"/>
    <nd ref="2388594265"/>
    <tag k="addr:city" v="Gyula"/>
    <tag k="addr:country" v="HU"/>
    <tag k="addr:housenumber" v="1"/>
    <tag k="addr:postcode" v="5700"/>
    <tag k="addr:street" v="Kétegyházi út"/>
    <tag k="branch" v="Interspar hipermarket Gyula"/>
    <tag k="brand" v="Spar"/>
    <tag k="brand:wikidata" v="Q610492"/>
    <tag k="brand:wikipedia" v="hu:Spar"/>
    <tag k="building" v="retail"/>
    <tag k="email" v="vevoszolgalat@spar.hu"/>
    <tag k="facebook" v="https://www.facebook.com/sparmagyarorszag"/>
    <tag k="import" v="osm_poi_matchmaker"/>
    <tag k="instagram" v="https://www.instagram.com/sparmagyarorszag"/>
    <tag k="name" v="Interspar"/>
    <tag k="operator" v="SPAR Magyarország Kereskedelmi Kft."/>
    <tag k="payment:american_express" v="yes"/>
    <tag k="payment:cash" v="yes"/>
    <tag k="payment:contactless" v="yes"/>
    <tag k="payment:erzsebet" v="yes"/>
    <tag k="payment:erzsebet_plus" v="yes"/>
    <tag k="payment:maestro" v="yes"/>
    <tag k="payment:mastercard" v="yes"/>
    <tag k="payment:v_pay" v="yes"/>
    <tag k="payment:visa" v="yes"/>
    <tag k="payment:visa_electron" v="yes"/>
    <tag k="phone" v="+36208237727"/>
    <tag k="shop" v="supermarket"/>
    <tag k="source:www.spar.hu:date" v="2018-11-03"/>
    <tag k="website" v="https://www.spar.hu/content/aspiag_spar_hu/hu_HU/uzletek/57/interspar-hipermarket-gyula.html"/>
    <tag k="wheelchair" v="yes"/>
    <tag k="youtube" v="https://www.youtube.com/channel/UC9tu8COHiy4WkeTIN1k_Y8A"/>
  </way>
  <!-- OSM link: https://osm.org/node/1866096038 -->
  <!-- Original coordinates: POINT (46.409886 20.322447) -->
  <!-- OSM <-> POI distance: 74.24782546 m-->
  <!-- Checker good: {not_in_water}; bad {}-->
  <!-- Original tags: 'name':'INTERSPAR'; 'opening_hours':'Mo-Sa 06:00-20:00; Su 08:00-19:00; PH off'; 'shop':'supermarket'; 'toilets:wheelchair':'yes'; 'website':'http://www.spar.hu'; 'wheelchair':'yes';  -->
  <!-- JOSM magic link: http://localhost:8111/load_object?new_layer=false&objects=n1866096038&addtags=%7Caddr%3Acity%3DH%C3%B3dmez%C5%91v%C3%A1s%C3%A1rhely%7Caddr%3Acountry%3DHU%7Caddr%3Ahousenumber%3D20%7Caddr%3Apostcode%3D6800%7Caddr%3Astreet%3DKaszap%20utca%7Cbranch%3DInterspar%20hipermarket%20H%C3%B3dmez%C5%91v%C3%A1s%C3%A1rhely%7Cbrand%3DSpar%7Cbrand%3Awikidata%3DQ610492%7Cbrand%3Awikipedia%3Dhu%3ASpar%7Cemail%3Dvevoszolgalat%40spar.hu%7Cfacebook%3Dhttps%3A//www.facebook.com/sparmagyarorszag%7Cimport%3Dosm_poi_matchmaker%7Cinstagram%3Dhttps%3A//www.instagram.com/sparmagyarorszag%7Cname%3DInterspar%7Copening_hours%3DMo-Sa%2006%3A00-20%3A00%3B%20Su%2008%3A00-19%3A00%3B%20PH%20off%7Coperator%3DSPAR%20Magyarorsz%C3%A1g%20Kereskedelmi%20Kft.%7Cpayment%3Aamerican_express%3Dyes%7Cpayment%3Acash%3Dyes%7Cpayment%3Acontactless%3Dyes%7Cpayment%3Aerzsebet%3Dyes%7Cpayment%3Aerzsebet_plus%3Dyes%7Cpayment%3Amaestro%3Dyes%7Cpayment%3Amastercard%3Dyes%7Cpayment%3Av_pay%3Dyes%7Cpayment%3Avisa%3Dyes%7Cpayment%3Avisa_electron%3Dyes%7Cphone%3D%2B36208237727%7Cshop%3Dsupermarket%7Csource%3Awww.spar.hu%3Adate%3D2018-11-03%7Ctoilets%3Awheelchair%3Dyes%7Cwebsite%3Dhttps%3A//www.spar.hu/content/aspiag_spar_hu/hu_HU/uzletek/68/interspar-hipermarket-hodmezvasarhely.html%7Cwheelchair%3Dyes%7Cyoutube%3Dhttps%3A//www.youtube.com/channel/UC9tu8COHiy4WkeTIN1k_Y8A -->
  <node action="modify" id="1866096038" lat="46.4099621949594" lon="20.3214848971712" timestamp="2017-09-06T12:41:06Z" uid="8635934" user="osm_poi_matchmaker" version="3">
    <tag k="addr:city" v="Hódmezővásárhely"/>
    <tag k="addr:country" v="HU"/>
    <tag k="addr:housenumber" v="20"/>
    <tag k="addr:postcode" v="6800"/>
    <tag k="addr:street" v="Kaszap utca"/>
    <tag k="branch" v="Interspar hipermarket Hódmezővásárhely"/>
    <tag k="brand" v="Spar"/>
    <tag k="brand:wikidata" v="Q610492"/>
    <tag k="brand:wikipedia" v="hu:Spar"/>
    <tag k="email" v="vevoszolgalat@spar.hu"/>
    <tag k="facebook" v="https://www.facebook.com/sparmagyarorszag"/>
    <tag k="import" v="osm_poi_matchmaker"/>
    <tag k="instagram" v="https://www.instagram.com/sparmagyarorszag"/>
    <tag k="name" v="Interspar"/>
    <tag k="opening_hours" v="Mo-Sa 06:00-20:00; Su 08:00-19:00; PH off"/>
    <tag k="operator" v="SPAR Magyarország Kereskedelmi Kft."/>
    <tag k="payment:american_express" v="yes"/>
    <tag k="payment:cash" v="yes"/>
    <tag k="payment:contactless" v="yes"/>
    <tag k="payment:erzsebet" v="yes"/>
    <tag k="payment:erzsebet_plus" v="yes"/>
    <tag k="payment:maestro" v="yes"/>
    <tag k="payment:mastercard" v="yes"/>
    <tag k="payment:v_pay" v="yes"/>
    <tag k="payment:visa" v="yes"/>
    <tag k="payment:visa_electron" v="yes"/>
    <tag k="phone" v="+36208237727"/>
    <tag k="shop" v="supermarket"/>
    <tag k="source:www.spar.hu:date" v="2018-11-03"/>
    <tag k="toilets:wheelchair" v="yes"/>
    <tag k="website" v="https://www.spar.hu/content/aspiag_spar_hu/hu_HU/uzletek/68/interspar-hipermarket-hodmezvasarhely.html"/>
    <tag k="wheelchair" v="yes"/>
    <tag k="youtube" v="https://www.youtube.com/channel/UC9tu8COHiy4WkeTIN1k_Y8A"/>
  </node>
  <node action="modify" id="2986373404" lat="46.345713" lon="18.7087423" timestamp="2014-12-03T16:53:25Z" uid="521497" user="yano6ard" version="2"/>
  <node action="modify" id="2986373405" lat="46.3458254" lon="18.7100889" timestamp="2014-12-03T16:53:25Z" uid="521497" user="yano6ard" version="2"/>
  <node action="modify" id="2986373391" lat="46.345071" lon="18.7100322" timestamp="2014-12-03T16:53:25Z" uid="521497" user="yano6ard" version="2"/>
  <node action="modify" id="2986373392" lat="46.3451279" lon="18.70869" timestamp="2014-12-03T16:53:25Z" uid="521497" user="yano6ard" version="2"/>
  <node action="modify" id="2986373404" lat="46.345713" lon="18.7087423" timestamp="2014-12-03T16:53:25Z" uid="521497" user="yano6ard" version="2"/>
  <!-- OSM link: https://osm.org/way/294992838 -->
  <!-- Original coordinates: POINT (46.3434416 18.71086) -->
  <!-- OSM <-> POI distance: 192.00029406 m-->
  <!-- Checker good: {not_in_water}; bad {}-->
  <!-- Original tags:  -->
  <!-- JOSM magic link: http://localhost:8111/load_object?new_layer=false&objects=w294992838&addtags=%7Caddr%3Acity%3DSzeksz%C3%A1rd%7Caddr%3Acountry%3DHU%7Caddr%3Ahousenumber%3D9%7Caddr%3Apostcode%3D7100%7Caddr%3Astreet%3DTartsay%20utca%7Cbranch%3DInterspar%20hipermarket%20Szeksz%C3%A1rd%7Cbrand%3DSpar%7Cbrand%3Awikidata%3DQ610492%7Cbrand%3Awikipedia%3Dhu%3ASpar%7Cemail%3Dvevoszolgalat%40spar.hu%7Cfacebook%3Dhttps%3A//www.facebook.com/sparmagyarorszag%7Cimport%3Dosm_poi_matchmaker%7Cinstagram%3Dhttps%3A//www.instagram.com/sparmagyarorszag%7Cname%3DInterspar%7Coperator%3DSPAR%20Magyarorsz%C3%A1g%20Kereskedelmi%20Kft.%7Cpayment%3Aamerican_express%3Dyes%7Cpayment%3Acash%3Dyes%7Cpayment%3Acontactless%3Dyes%7Cpayment%3Aerzsebet%3Dyes%7Cpayment%3Aerzsebet_plus%3Dyes%7Cpayment%3Amaestro%3Dyes%7Cpayment%3Amastercard%3Dyes%7Cpayment%3Av_pay%3Dyes%7Cpayment%3Avisa%3Dyes%7Cpayment%3Avisa_electron%3Dyes%7Cphone%3D%2B36208237727%7Cshop%3Dsupermarket%7Csource%3Awww.spar.hu%3Adate%3D2018-11-03%7Cwebsite%3Dhttps%3A//www.spar.hu/content/aspiag_spar_hu/hu_HU/uzletek/71/interspar-hipermarket-szekszard.html%7Cyoutube%3Dhttps%3A//www.youtube.com/channel/UC9tu8COHiy4WkeTIN1k_Y8A -->
  <way action="modify" id="294992838" timestamp="2017-12-25T16:17:41Z" uid="8635934" user="osm_poi_matchmaker" version="5">
    <nd ref="2986373404"/>
    <nd ref="2986373405"/>
    <nd ref="2986373391"/>
    <nd ref="2986373392"/>
    <nd ref="2986373404"/>
    <tag k="addr:city" v="Szekszárd"/>
    <tag k="addr:country" v="HU"/>
    <tag k="addr:housenumber" v="9"/>
    <tag k="addr:postcode" v="7100"/>
    <tag k="addr:street" v="Tartsay utca"/>
    <tag k="branch" v="Interspar hipermarket Szekszárd"/>
    <tag k="brand" v="Spar"/>
    <tag k="brand:wikidata" v="Q610492"/>
    <tag k="brand:wikipedia" v="hu:Spar"/>
    <tag k="email" v="vevoszolgalat@spar.hu"/>
    <tag k="facebook" v="https://www.facebook.com/sparmagyarorszag"/>
    <tag k="import" v="osm_poi_matchmaker"/>
    <tag k="instagram" v="https://www.instagram.com/sparmagyarorszag"/>
    <tag k="name" v="Interspar"/>
    <tag k="operator" v="SPAR Magyarország Kereskedelmi Kft."/>
    <tag k="payment:american_express" v="yes"/>
    <tag k="payment:cash" v="yes"/>
    <tag k="payment:contactless" v="yes"/>
    <tag k="payment:erzsebet" v="yes"/>
    <tag k="payment:erzsebet_plus" v="yes"/>
    <tag k="payment:maestro" v="yes"/>
    <tag k="payment:mastercard" v="yes"/>
    <tag k="payment:v_pay" v="yes"/>
    <tag k="payment:visa" v="yes"/>
    <tag k="payment:visa_electron" v="yes"/>
    <tag k="phone" v="+36208237727"/>
    <tag k="shop" v="supermarket"/>
    <tag k="source:www.spar.hu:date" v="2018-11-03"/>
    <tag k="website" v="https://www.spar.hu/content/aspiag_spar_hu/hu_HU/uzletek/71/interspar-hipermarket-szekszard.html"/>
    <tag k="youtube" v="https://www.youtube.com/channel/UC9tu8COHiy4WkeTIN1k_Y8A"/>
  </way>
  <node action="modify" id="2631237786" lat="46.0463315" lon="18.2256176" timestamp="2015-12-21T15:07:16Z" uid="95680" user="falu" version="3"/>
  <node action="modify" id="2631237790" lat="46.046508" lon="18.2255089" timestamp="2015-12-20T19:43:39Z" uid="95680" user="falu" version="2"/>
  <node action="modify" id="2631237791" lat="46.0465344" lon="18.2255973" timestamp="2015-12-20T19:43:39Z" uid="95680" user="falu" version="2"/>
  <node action="modify" id="2631237793" lat="46.0465777" lon="18.2255733" timestamp="2015-12-21T15:07:16Z" uid="95680" user="falu" version="3"/>
  <node action="modify" id="2631237800" lat="46.0466382" lon="18.2256077" timestamp="2015-12-21T15:07:16Z" uid="95680" user="falu" version="3"/>
  <node action="modify" id="2631237806" lat="46.046677" lon="18.2257371" timestamp="2015-12-21T15:07:16Z" uid="95680" user="falu" version="3"/>
  <node action="modify" id="2631237804" lat="46.0466589" lon="18.2257473" timestamp="2015-12-20T19:43:40Z" uid="95680" user="falu" version="2"/>
  <node action="modify" id="2631237813" lat="46.0467671" lon="18.2261109" timestamp="2015-12-20T19:43:40Z" uid="95680" user="falu" version="2"/>
  <node action="modify" id="2631237795" lat="46.0466288" lon="18.2261964" timestamp="2015-12-20T19:43:39Z" uid="95680" user="falu" version="2"/>
  <node action="modify" id="2631237802" lat="46.0466411" lon="18.2262378" timestamp="2015-12-20T19:43:39Z" uid="95680" user="falu" version="2"/>
  <node action="modify" id="2631237792" lat="46.0465363" lon="18.2263025" timestamp="2015-12-20T19:43:39Z" uid="95680" user="falu" version="2"/>
  <node action="modify" id="2631237786" lat="46.0463315" lon="18.2256176" timestamp="2015-12-21T15:07:16Z" uid="95680" user="falu" version="3"/>
  <!-- OSM link: https://osm.org/way/257634788 -->
  <!-- Original coordinates: POINT (46.0460506 18.2318198) -->
  <!-- OSM <-> POI distance: 429.22528574 m-->
  <!-- Checker good: {not_in_water}; bad {}-->
  <!-- Original tags: 'addr:city':'Pécs'; 'addr:housenumber':'5'; 'addr:postcode':'7632'; 'addr:street':'Málomi út'; 'building':'retail'; 'contact:website':'http://www.spar.hu'; 'name':'SPAR (volt)'; 'shop':'supermarket'; 'website':'http://www.spar.hu';  -->
  <!-- JOSM magic link: http://localhost:8111/load_object?new_layer=false&objects=w257634788&addtags=%7Caddr%3Acity%3DP%C3%A9cs%7Caddr%3Acountry%3DHU%7Caddr%3Ahousenumber%3D37%7Caddr%3Apostcode%3D7632%7Caddr%3Astreet%3DSikl%C3%B3si%20%C3%BAt%7Cbranch%3DInterspar%20hipermarket%20P%C3%A9cs%7Cbrand%3DSpar%7Cbrand%3Awikidata%3DQ610492%7Cbrand%3Awikipedia%3Dhu%3ASpar%7Cbuilding%3Dretail%7Ccontact%3Awebsite%3Dhttp%3A//www.spar.hu%7Cemail%3Dvevoszolgalat%40spar.hu%7Cfacebook%3Dhttps%3A//www.facebook.com/sparmagyarorszag%7Cimport%3Dosm_poi_matchmaker%7Cinstagram%3Dhttps%3A//www.instagram.com/sparmagyarorszag%7Cname%3DInterspar%7Coperator%3DSPAR%20Magyarorsz%C3%A1g%20Kereskedelmi%20Kft.%7Cpayment%3Aamerican_express%3Dyes%7Cpayment%3Acash%3Dyes%7Cpayment%3Acontactless%3Dyes%7Cpayment%3Aerzsebet%3Dyes%7Cpayment%3Aerzsebet_plus%3Dyes%7Cpayment%3Amaestro%3Dyes%7Cpayment%3Amastercard%3Dyes%7Cpayment%3Av_pay%3Dyes%7Cpayment%3Avisa%3Dyes%7Cpayment%3Avisa_electron%3Dyes%7Cphone%3D%2B36208237727%7Cshop%3Dsupermarket%7Csource%3Awww.spar.hu%3Adate%3D2018-11-03%7Cwebsite%3Dhttps%3A//www.spar.hu/content/aspiag_spar_hu/hu_HU/uzletek/76/interspar-hipermarket-pecs.html%7Cyoutube%3Dhttps%3A//www.youtube.com/channel/UC9tu8COHiy4WkeTIN1k_Y8A -->
  <way action="modify" id="257634788" timestamp="2017-12-25T16:17:15Z" uid="8635934" user="osm_poi_matchmaker" version="8">
    <nd ref="2631237786"/>
    <nd ref="2631237790"/>
    <nd ref="2631237791"/>
    <nd ref="2631237793"/>
    <nd ref="2631237800"/>
    <nd ref="2631237806"/>
    <nd ref="2631237804"/>
    <nd ref="2631237813"/>
    <nd ref="2631237795"/>
    <nd ref="2631237802"/>
    <nd ref="2631237792"/>
    <nd ref="2631237786"/>
    <tag k="addr:city" v="Pécs"/>
    <tag k="addr:country" v="HU"/>
    <tag k="addr:housenumber" v="37"/>
    <tag k="addr:postcode" v="7632"/>
    <tag k="addr:street" v="Siklósi út"/>
    <tag k="branch" v="Interspar hipermarket Pécs"/>
    <tag k="brand" v="Spar"/>
    <tag k="brand:wikidata" v="Q610492"/>
    <tag k="brand:wikipedia" v="hu:Spar"/>
    <tag k="building" v="retail"/>
    <tag k="contact:website" v="http://www.spar.hu"/>
    <tag k="email" v="vevoszolgalat@spar.hu"/>
    <tag k="facebook" v="https://www.facebook.com/sparmagyarorszag"/>
    <tag k="import" v="osm_poi_matchmaker"/>
    <tag k="instagram" v="https://www.instagram.com/sparmagyarorszag"/>
    <tag k="name" v="Interspar"/>
    <tag k="operator" v="SPAR Magyarország Kereskedelmi Kft."/>
    <tag k="payment:american_express" v="yes"/>
    <tag k="payment:cash" v="yes"/>
    <tag k="payment:contactless" v="yes"/>
    <tag k="payment:erzsebet" v="yes"/>
    <tag k="payment:erzsebet_plus" v="yes"/>
    <tag k="payment:maestro" v="yes"/>
    <tag k="payment:mastercard" v="yes"/>
    <tag k="payment:v_pay" v="yes"/>
    <tag k="payment:visa" v="yes"/>
    <tag k="payment:visa_electron" v="yes"/>
    <tag k="phone" v="+36208237727"/>
    <tag k="shop" v="supermarket"/>
    <tag k="source:www.spar.hu:date" v="2018-11-03"/>
    <tag k="website" v="https://www.spar.hu/content/aspiag_spar_hu/hu_HU/uzletek/76/interspar-hipermarket-pecs.html"/>
    <tag k="youtube" v="https://www.youtube.com/channel/UC9tu8COHiy4WkeTIN1k_Y8A"/>
  </way>
  <!-- OSM link: https://osm.org/node/3184261528 -->
  <!-- Original coordinates: POINT (46.0714004 18.2298371) -->
  <!-- OSM <-> POI distance: 209.66662673 m-->
  <!-- Checker good: {not_in_water}; bad {}-->
  <!-- Original tags: 'level':'0'; 'name':'Interspar'; 'shop':'supermarket'; 'source':'sign'; 'website':'http://www.spar.hu'; 'wheelchair':'yes';  -->
  <!-- JOSM magic link: http://localhost:8111/load_object?new_layer=false&objects=n3184261528&addtags=%7Caddr%3Acity%3DP%C3%A9cs%7Caddr%3Acountry%3DHU%7Caddr%3Ahousenumber%3D11%7Caddr%3Apostcode%3D7622%7Caddr%3Astreet%3DBajcsy-Zsilinszky%20utca%7Cbranch%3DInterspar%20hipermarket%20P%C3%A9cs%7Cbrand%3DSpar%7Cbrand%3Awikidata%3DQ610492%7Cbrand%3Awikipedia%3Dhu%3ASpar%7Cemail%3Dvevoszolgalat%40spar.hu%7Cfacebook%3Dhttps%3A//www.facebook.com/sparmagyarorszag%7Cimport%3Dosm_poi_matchmaker%7Cinstagram%3Dhttps%3A//www.instagram.com/sparmagyarorszag%7Clevel%3D0%7Cname%3DInterspar%7Coperator%3DSPAR%20Magyarorsz%C3%A1g%20Kereskedelmi%20Kft.%7Cpayment%3Aamerican_express%3Dyes%7Cpayment%3Acash%3Dyes%7Cpayment%3Acontactless%3Dyes%7Cpayment%3Aerzsebet%3Dyes%7Cpayment%3Aerzsebet_plus%3Dyes%7Cpayment%3Amaestro%3Dyes%7Cpayment%3Amastercard%3Dyes%7Cpayment%3Av_pay%3Dyes%7Cpayment%3Avisa%3Dyes%7Cpayment%3Avisa_electron%3Dyes%7Cphone%3D%2B36208237727%7Cshop%3Dsupermarket%7Csource%3Dsign%7Csource%3Awww.spar.hu%3Adate%3D2018-11-03%7Cwebsite%3Dhttps%3A//www.spar.hu/content/aspiag_spar_hu/hu_HU/uzletek/76/interspar-hipermarket-pecs0.html%7Cwheelchair%3Dyes%7Cyoutube%3Dhttps%3A//www.youtube.com/channel/UC9tu8COHiy4WkeTIN1k_Y8A -->
  <node action="modify" id="3184261528" lat="46.0720084949754" lon="18.232409797462" timestamp="2015-10-25T11:50:39Z" uid="8635934" user="osm_poi_matchmaker" version="5">
    <tag k="addr:city" v="Pécs"/>
    <tag k="addr:country" v="HU"/>
    <tag k="addr:housenumber" v="11"/>
    <tag k="addr:postcode" v="7622"/>
    <tag k="addr:street" v="Bajcsy-Zsilinszky utca"/>
    <tag k="branch" v="Interspar hipermarket Pécs"/>
    <tag k="brand" v="Spar"/>
    <tag k="brand:wikidata" v="Q610492"/>
    <tag k="brand:wikipedia" v="hu:Spar"/>
    <tag k="email" v="vevoszolgalat@spar.hu"/>
    <tag k="facebook" v="https://www.facebook.com/sparmagyarorszag"/>
    <tag k="import" v="osm_poi_matchmaker"/>
    <tag k="instagram" v="https://www.instagram.com/sparmagyarorszag"/>
    <tag k="level" v="0"/>
    <tag k="name" v="Interspar"/>
    <tag k="operator" v="SPAR Magyarország Kereskedelmi Kft."/>
    <tag k="payment:american_express" v="yes"/>
    <tag k="payment:cash" v="yes"/>
    <tag k="payment:contactless" v="yes"/>
    <tag k="payment:erzsebet" v="yes"/>
    <tag k="payment:erzsebet_plus" v="yes"/>
    <tag k="payment:maestro" v="yes"/>
    <tag k="payment:mastercard" v="yes"/>
    <tag k="payment:v_pay" v="yes"/>
    <tag k="payment:visa" v="yes"/>
    <tag k="payment:visa_electron" v="yes"/>
    <tag k="phone" v="+36208237727"/>
    <tag k="shop" v="supermarket"/>
    <tag k="source" v="sign"/>
    <tag k="source:www.spar.hu:date" v="2018-11-03"/>
    <tag k="website" v="https://www.spar.hu/content/aspiag_spar_hu/hu_HU/uzletek/76/interspar-hipermarket-pecs0.html"/>
    <tag k="wheelchair" v="yes"/>
    <tag k="youtube" v="https://www.youtube.com/channel/UC9tu8COHiy4WkeTIN1k_Y8A"/>
  </node>
  <node action="modify" id="2218677354" lat="47.1906827" lon="18.4258275" timestamp="2013-03-24T14:54:51Z" uid="699437" user="Separis" version="1"/>
  <node action="modify" id="2218677319" lat="47.1905909" lon="18.4255153" timestamp="2013-03-24T14:54:51Z" uid="699437" user="Separis" version="1"/>
  <node action="modify" id="2218677334" lat="47.1906328" lon="18.4254886" timestamp="2013-03-24T14:54:51Z" uid="699437" user="Separis" version="1"/>
  <node action="modify" id="2218677359" lat="47.190394" lon="18.4246764" timestamp="2013-03-24T14:54:51Z" uid="699437" user="Separis" version="1"/>
  <node action="modify" id="2218677403" lat="47.1903126" lon="18.4245507" timestamp="2013-03-24T14:54:52Z" uid="699437" user="Separis" version="1"/>
  <node action="modify" id="2218677356" lat="47.1902738" lon="18.4242678" timestamp="2013-03-24T14:54:51Z" uid="699437" user="Separis" version="1"/>
  <node action="modify" id="2218677373" lat="47.1901216" lon="18.42375" timestamp="2013-03-24T14:54:51Z" uid="699437" user="Separis" version="1"/>
  <node action="modify" id="2218677345" lat="47.1900739" lon="18.4237803" timestamp="2013-03-24T14:54:51Z" uid="699437" user="Separis" version="1"/>
  <node action="modify" id="2218677384" lat="47.1899545" lon="18.4233741" timestamp="2013-03-24T14:54:52Z" uid="699437" user="Separis" version="1"/>
  <node action="modify" id="2218677380" lat="47.1901185" lon="18.4232697" timestamp="2013-03-24T14:54:52Z" uid="699437" user="Separis" version="1"/>
  <node action="modify" id="2218677388" lat="47.1901336" lon="18.4233213" timestamp="2013-03-24T14:54:52Z" uid="699437" user="Separis" version="1"/>
  <node action="modify" id="2218677376" lat="47.1905471" lon="18.4230581" timestamp="2013-03-24T14:54:52Z" uid="699437" user="Separis" version="1"/>
  <node action="modify" id="2218677342" lat="47.1907839" lon="18.4238637" timestamp="2013-03-24T14:54:51Z" uid="699437" user="Separis" version="1"/>
  <node action="modify" id="2218677352" lat="47.190826" lon="18.4238805" timestamp="2013-03-24T14:54:51Z" uid="699437" user="Separis" version="1"/>
  <node action="modify" id="2218677350" lat="47.1908707" lon="18.4239084" timestamp="2013-03-24T14:54:51Z" uid="699437" user="Separis" version="1"/>
  <node action="modify" id="2218677347" lat="47.1909141" lon="18.4239502" timestamp="2013-03-24T14:54:51Z" uid="699437" user="Separis" version="1"/>
  <node action="modify" id="2218677360" lat="47.190962" lon="18.4240119" timestamp="2013-03-24T14:54:51Z" uid="699437" user="Separis" version="1"/>
  <node action="modify" id="2218677336" lat="47.1910114" lon="18.4240939" timestamp="2013-03-24T14:54:51Z" uid="699437" user="Separis" version="1"/>
  <node action="modify" id="2218677355" lat="47.1910585" lon="18.4241995" timestamp="2013-03-24T14:54:51Z" uid="699437" user="Separis" version="1"/>
  <node action="modify" id="2218677357" lat="47.1911016" lon="18.4243289" timestamp="2013-03-24T14:54:51Z" uid="699437" user="Separis" version="1"/>
  <node action="modify" id="2218677358" lat="47.1912394" lon="18.4247982" timestamp="2013-03-24T14:54:51Z" uid="699437" user="Separis" version="1"/>
  <node action="modify" id="2218677362" lat="47.1911344" lon="18.4248648" timestamp="2013-03-24T14:54:51Z" uid="699437" user="Separis" version="1"/>
  <node action="modify" id="2218677399" lat="47.1912166" lon="18.4251448" timestamp="2013-03-24T14:54:52Z" uid="699437" user="Separis" version="1"/>
  <node action="modify" id="2218677393" lat="47.1911869" lon="18.4251637" timestamp="2013-03-24T14:54:52Z" uid="699437" user="Separis" version="1"/>
  <node action="modify" id="2218677369" lat="47.1912896" lon="18.4255139" timestamp="2013-03-24T14:54:51Z" uid="699437" user="Separis" version="1"/>
  <node action="modify" id="2218677340" lat="47.1912588" lon="18.4255334" timestamp="2013-03-24T14:54:51Z" uid="699437" user="Separis" version="1"/>
  <node action="modify" id="2218677396" lat="47.1912814" lon="18.4256106" timestamp="2013-03-24T14:54:52Z" uid="699437" user="Separis" version="1"/>
  <node action="modify" id="2218677338" lat="47.1912264" lon="18.4256456" timestamp="2013-03-24T14:54:51Z" uid="699437" user="Separis" version="1"/>
  <node action="modify" id="2218677344" lat="47.1912404" lon="18.4256932" timestamp="2013-03-24T14:54:51Z" uid="699437" user="Separis" version="1"/>
  <node action="modify" id="2218677400" lat="47.1910929" lon="18.425787" timestamp="2013-03-24T14:54:52Z" uid="699437" user="Separis" version="1"/>
  <node action="modify" id="2218677361" lat="47.1910014" lon="18.4254757" timestamp="2013-03-24T14:54:51Z" uid="699437" user="Separis" version="1"/>
  <node action="modify" id="2218677391" lat="47.1907307" lon="18.425648" timestamp="2013-03-24T14:54:52Z" uid="699437" user="Separis" version="1"/>
  <node action="modify" id="2218677366" lat="47.1907676" lon="18.4257735" timestamp="2013-03-24T14:54:51Z" uid="699437" user="Separis" version="1"/>
  <node action="modify" id="2218677354" lat="47.1906827" lon="18.4258275" timestamp="2013-03-24T14:54:51Z" uid="699437" user="Separis" version="1"/>
  <!-- OSM link: https://osm.org/way/211944203 -->
  <!-- Original coordinates: POINT (47.19118 18.42367) -->
  <!-- OSM <-> POI distance: 35.42698852 m-->
  <!-- Checker good: {not_in_water}; bad {}-->
  <!-- Original tags:  -->
  <!-- JOSM magic link: http://localhost:8111/load_object?new_layer=false&objects=w211944203&addtags=%7Caddr%3Acity%3DSz%C3%A9kesfeh%C3%A9rv%C3%A1r%7Caddr%3Acountry%3DHU%7Caddr%3Ahousenumber%3D41%7Caddr%3Apostcode%3D8000%7Caddr%3Astreet%3DBudai%20%C3%BAt%7Cbranch%3DInterspar%20hipermarket%20Sz%C3%A9kesfeh%C3%A9rv%C3%A1r%7Cbrand%3DSpar%7Cbrand%3Awikidata%3DQ610492%7Cbrand%3Awikipedia%3Dhu%3ASpar%7Cemail%3Dvevoszolgalat%40spar.hu%7Cfacebook%3Dhttps%3A//www.facebook.com/sparmagyarorszag%7Cimport%3Dosm_poi_matchmaker%7Cinstagram%3Dhttps%3A//www.instagram.com/sparmagyarorszag%7Cname%3DInterspar%7Coperator%3DSPAR%20Magyarorsz%C3%A1g%20Kereskedelmi%20Kft.%7Cpayment%3Aamerican_express%3Dyes%7Cpayment%3Acash%3Dyes%7Cpayment%3Acontactless%3Dyes%7Cpayment%3Aerzsebet%3Dyes%7Cpayment%3Aerzsebet_plus%3Dyes%7Cpayment%3Amaestro%3Dyes%7Cpayment%3Amastercard%3Dyes%7Cpayment%3Av_pay%3Dyes%7Cpayment%3Avisa%3Dyes%7Cpayment%3Avisa_electron%3Dyes%7Cphone%3D%2B36208237727%7Cshop%3Dsupermarket%7Csource%3Awww.spar.hu%3Adate%3D2018-11-03%7Cwebsite%3Dhttps%3A//www.spar.hu/content/aspiag_spar_hu/hu_HU/uzletek/80/interspar-hipermarket-szekesfehervar.html%7Cyoutube%3Dhttps%3A//www.youtube.com/channel/UC9tu8COHiy4WkeTIN1k_Y8A -->
  <way action="modify" id="211944203" timestamp="2018-01-27T20:29:14Z" uid="8635934" user="osm_poi_matchmaker" version="7">
    <nd ref="2218677354"/>
    <nd ref="2218677319"/>
    <nd ref="2218677334"/>
    <nd ref="2218677359"/>
    <nd ref="2218677403"/>
    <nd ref="2218677356"/>
    <nd ref="2218677373"/>
    <nd ref="2218677345"/>
    <nd ref="2218677384"/>
    <nd ref="2218677380"/>
    <nd ref="2218677388"/>
    <nd ref="2218677376"/>
    <nd ref="2218677342"/>
    <nd ref="2218677352"/>
    <nd ref="2218677350"/>
    <nd ref="2218677347"/>
    <nd ref="2218677360"/>
    <nd ref="2218677336"/>
    <nd ref="2218677355"/>
    <nd ref="2218677357"/>
    <nd ref="2218677358"/>
    <nd ref="2218677362"/>
    <nd ref="2218677399"/>
    <nd ref="2218677393"/>
    <nd ref="2218677369"/>
    <nd ref="2218677340"/>
    <nd ref="2218677396"/>
    <nd ref="2218677338"/>
    <nd ref="2218677344"/>
    <nd ref="2218677400"/>
    <nd ref="2218677361"/>
    <nd ref="2218677391"/>
    <nd ref="2218677366"/>
    <nd ref="2218677354"/>
    <tag k="addr:city" v="Székesfehérvár"/>
    <tag k="addr:country" v="HU"/>
    <tag k="addr:housenumber" v="41"/>
    <tag k="addr:postcode" v="8000"/>
    <tag k="addr:street" v="Budai út"/>
    <tag k="branch" v="Interspar hipermarket Székesfehérvár"/>
    <tag k="brand" v="Spar"/>
    <tag k="brand:wikidata" v="Q610492"/>
    <tag k="brand:wikipedia" v="hu:Spar"/>
    <tag k="email" v="vevoszolgalat@spar.hu"/>
    <tag k="facebook" v="https://www.facebook.com/sparmagyarorszag"/>
    <tag k="import" v="osm_poi_matchmaker"/>
    <tag k="instagram" v="https://www.instagram.com/sparmagyarorszag"/>
    <tag k="name" v="Interspar"/>
    <tag k="operator" v="SPAR Magyarország Kereskedelmi Kft."/>
    <tag k="payment:american_express" v="yes"/>
    <tag k="payment:cash" v="yes"/>
    <tag k="payment:contactless" v="yes"/>
    <tag k="payment:erzsebet" v="yes"/>
    <tag k="payment:erzsebet_plus" v="yes"/>
    <tag k="payment:maestro" v="yes"/>
    <tag k="payment:mastercard" v="yes"/>
    <tag k="payment:v_pay" v="yes"/>
    <tag k="payment:visa" v="yes"/>
    <tag k="payment:visa_electron" v="yes"/>
    <tag k="phone" v="+36208237727"/>
    <tag k="shop" v="supermarket"/>
    <tag k="source:www.spar.hu:date" v="2018-11-03"/>
    <tag k="website" v="https://www.spar.hu/content/aspiag_spar_hu/hu_HU/uzletek/80/interspar-hipermarket-szekesfehervar.html"/>
    <tag k="youtube" v="https://www.youtube.com/channel/UC9tu8COHiy4WkeTIN1k_Y8A"/>
  </way>
  <node action="modify" id="469128787" lat="47.1648911" lon="18.4046953" timestamp="2016-07-03T08:42:23Z" uid="3959332" user="Zsiga" version="3"/>
  <node action="modify" id="2268656840" lat="47.1648856" lon="18.4045697" timestamp="2016-07-03T08:41:54Z" uid="3959332" user="Zsiga" version="2"/>
  <node action="modify" id="2268656810" lat="47.1650749" lon="18.4045517" timestamp="2016-07-03T08:41:54Z" uid="3959332" user="Zsiga" version="2"/>
  <node action="modify" id="2268656920" lat="47.1651181" lon="18.4055356" timestamp="2016-07-03T08:41:55Z" uid="3959332" user="Zsiga" version="2"/>
  <node action="modify" id="2268656899" lat="47.1650459" lon="18.4055425" timestamp="2016-07-03T08:41:55Z" uid="3959332" user="Zsiga" version="2"/>
  <node action="modify" id="469128786" lat="47.1650508" lon="18.405654" timestamp="2016-07-03T08:42:23Z" uid="3959332" user="Zsiga" version="3"/>
  <node action="modify" id="469128789" lat="47.164255" lon="18.4057297" timestamp="2016-07-03T08:42:23Z" uid="3959332" user="Zsiga" version="3"/>
  <node action="modify" id="469128788" lat="47.1642123" lon="18.4047599" timestamp="2016-07-03T08:42:23Z" uid="3959332" user="Zsiga" version="3"/>
  <node action="modify" id="469128787" lat="47.1648911" lon="18.4046953" timestamp="2016-07-03T08:42:23Z" uid="3959332" user="Zsiga" version="3"/>
  <!-- OSM link: https://osm.org/way/39165113 -->
  <!-- Original coordinates: POINT (47.16488 18.40374) -->
  <!-- OSM <-> POI distance: 62.63500705 m-->
  <!-- Checker good: {not_in_water}; bad {}-->
  <!-- Original tags: 'building':'retail'; 'name':'INTERSPAR'; 'shop':'supermarket'; 'toilets:wheelchair':'yes'; 'website':'http://www.spar.hu'; 'wheelchair':'yes';  -->
  <!-- JOSM magic link: http://localhost:8111/load_object?new_layer=false&objects=w39165113&addtags=%7Caddr%3Acity%3DSz%C3%A9kesfeh%C3%A9rv%C3%A1r%7Caddr%3Acountry%3DHU%7Caddr%3Ahousenumber%3D44-46%7Caddr%3Apostcode%3D8000%7Caddr%3Astreet%3DBalatoni%20%C3%BAt%7Cbranch%3DInterspar%20hipermarket%20Sz%C3%A9kesfeh%C3%A9rv%C3%A1r%7Cbrand%3DSpar%7Cbrand%3Awikidata%3DQ610492%7Cbrand%3Awikipedia%3Dhu%3ASpar%7Cbuilding%3Dretail%7Cemail%3Dvevoszolgalat%40spar.hu%7Cfacebook%3Dhttps%3A//www.facebook.com/sparmagyarorszag%7Cimport%3Dosm_poi_matchmaker%7Cinstagram%3Dhttps%3A//www.instagram.com/sparmagyarorszag%7Cname%3DInterspar%7Coperator%3DSPAR%20Magyarorsz%C3%A1g%20Kereskedelmi%20Kft.%7Cpayment%3Aamerican_express%3Dyes%7Cpayment%3Acash%3Dyes%7Cpayment%3Acontactless%3Dyes%7Cpayment%3Aerzsebet%3Dyes%7Cpayment%3Aerzsebet_plus%3Dyes%7Cpayment%3Amaestro%3Dyes%7Cpayment%3Amastercard%3Dyes%7Cpayment%3Av_pay%3Dyes%7Cpayment%3Avisa%3Dyes%7Cpayment%3Avisa_electron%3Dyes%7Cphone%3D%2B36208237727%7Cshop%3Dsupermarket%7Csource%3Awww.spar.hu%3Adate%3D2018-11-03%7Ctoilets%3Awheelchair%3Dyes%7Cwebsite%3Dhttps%3A//www.spar.hu/content/aspiag_spar_hu/hu_HU/uzletek/80/interspar-hipermarket-szekesfehervar0.html%7Cwheelchair%3Dyes%7Cyoutube%3Dhttps%3A//www.youtube.com/channel/UC9tu8COHiy4WkeTIN1k_Y8A -->
  <way action="modify" id="39165113" timestamp="2017-12-25T16:15:45Z" uid="8635934" user="osm_poi_matchmaker" version="6">
    <nd ref="469128787"/>
    <nd ref="2268656840"/>
    <nd ref="2268656810"/>
    <nd ref="2268656920"/>
    <nd ref="2268656899"/>
    <nd ref="469128786"/>
    <nd ref="469128789"/>
    <nd ref="469128788"/>
    <nd ref="469128787"/>
    <tag k="addr:city" v="Székesfehérvár"/>
    <tag k="addr:country" v="HU"/>
    <tag k="addr:housenumber" v="44-46"/>
    <tag k="addr:postcode" v="8000"/>
    <tag k="addr:street" v="Balatoni út"/>
    <tag k="branch" v="Interspar hipermarket Székesfehérvár"/>
    <tag k="brand" v="Spar"/>
    <tag k="brand:wikidata" v="Q610492"/>
    <tag k="brand:wikipedia" v="hu:Spar"/>
    <tag k="building" v="retail"/>
    <tag k="email" v="vevoszolgalat@spar.hu"/>
    <tag k="facebook" v="https://www.facebook.com/sparmagyarorszag"/>
    <tag k="import" v="osm_poi_matchmaker"/>
    <tag k="instagram" v="https://www.instagram.com/sparmagyarorszag"/>
    <tag k="name" v="Interspar"/>
    <tag k="operator" v="SPAR Magyarország Kereskedelmi Kft."/>
    <tag k="payment:american_express" v="yes"/>
    <tag k="payment:cash" v="yes"/>
    <tag k="payment:contactless" v="yes"/>
    <tag k="payment:erzsebet" v="yes"/>
    <tag k="payment:erzsebet_plus" v="yes"/>
    <tag k="payment:maestro" v="yes"/>
    <tag k="payment:mastercard" v="yes"/>
    <tag k="payment:v_pay" v="yes"/>
    <tag k="payment:visa" v="yes"/>
    <tag k="payment:visa_electron" v="yes"/>
    <tag k="phone" v="+36208237727"/>
    <tag k="shop" v="supermarket"/>
    <tag k="source:www.spar.hu:date" v="2018-11-03"/>
    <tag k="toilets:wheelchair" v="yes"/>
    <tag k="website" v="https://www.spar.hu/content/aspiag_spar_hu/hu_HU/uzletek/80/interspar-hipermarket-szekesfehervar0.html"/>
    <tag k="wheelchair" v="yes"/>
    <tag k="youtube" v="https://www.youtube.com/channel/UC9tu8COHiy4WkeTIN1k_Y8A"/>
  </way>
  <node action="modify" id="2829870831" lat="47.0849686" lon="17.9261086" timestamp="2014-05-01T17:03:23Z" uid="613605" user="Plutoz" version="1"/>
  <node action="modify" id="2829810189" lat="47.084216" lon="17.9255338" timestamp="2014-05-01T17:03:22Z" uid="613605" user="Plutoz" version="1"/>
  <node action="modify" id="299650854" lat="47.0842347" lon="17.9254809" timestamp="2014-05-01T17:03:31Z" uid="613605" user="Plutoz" version="4"/>
  <node action="modify" id="2829810184" lat="47.084072" lon="17.9253566" timestamp="2014-05-01T17:03:22Z" uid="613605" user="Plutoz" version="1"/>
  <node action="modify" id="2829810196" lat="47.0843014" lon="17.9247088" timestamp="2014-05-01T17:03:22Z" uid="613605" user="Plutoz" version="1"/>
  <node action="modify" id="2829870812" lat="47.0845517" lon="17.9249" timestamp="2014-05-01T17:03:22Z" uid="613605" user="Plutoz" version="1"/>
  <node action="modify" id="2829870816" lat="47.0846209" lon="17.9247046" timestamp="2014-05-01T17:03:22Z" uid="613605" user="Plutoz" version="1"/>
  <node action="modify" id="2829870838" lat="47.0851372" lon="17.9250991" timestamp="2014-05-01T17:03:23Z" uid="613605" user="Plutoz" version="1"/>
  <node action="modify" id="2829870836" lat="47.0850984" lon="17.9252089" timestamp="2014-05-01T17:03:23Z" uid="613605" user="Plutoz" version="1"/>
  <node action="modify" id="2829870834" lat="47.085078" lon="17.9251933" timestamp="2014-05-01T17:03:23Z" uid="613605" user="Plutoz" version="1"/>
  <node action="modify" id="2829870829" lat="47.084939" lon="17.9255858" timestamp="2014-05-01T17:03:23Z" uid="613605" user="Plutoz" version="1"/>
  <node action="modify" id="2829870837" lat="47.085108" lon="17.9257149" timestamp="2014-05-01T17:03:23Z" uid="613605" user="Plutoz" version="1"/>
  <node action="modify" id="2829870831" lat="47.0849686" lon="17.9261086" timestamp="2014-05-01T17:03:23Z" uid="613605" user="Plutoz" version="1"/>
  <!-- OSM link: https://osm.org/way/278658218 -->
  <!-- Original coordinates: POINT (47.08457 17.9259) -->
  <!-- OSM <-> POI distance: 6.43745246 m-->
  <!-- Checker good: {not_in_water}; bad {}-->
  <!-- Original tags:  -->
  <!-- JOSM magic link: http://localhost:8111/load_object?new_layer=false&objects=w278658218&addtags=%7Caddr%3Acity%3DVeszpr%C3%A9m%7Caddr%3Acountry%3DHU%7Caddr%3Ahousenumber%3D4%7Caddr%3Apostcode%3D8200%7Caddr%3Astreet%3DDornyai%20B%C3%A9la%20utca%7Cbranch%3DInterspar%20hipermarket%20Veszpr%C3%A9m%7Cbrand%3DSpar%7Cbrand%3Awikidata%3DQ610492%7Cbrand%3Awikipedia%3Dhu%3ASpar%7Cemail%3Dvevoszolgalat%40spar.hu%7Cfacebook%3Dhttps%3A//www.facebook.com/sparmagyarorszag%7Cimport%3Dosm_poi_matchmaker%7Cinstagram%3Dhttps%3A//www.instagram.com/sparmagyarorszag%7Cname%3DInterspar%7Coperator%3DSPAR%20Magyarorsz%C3%A1g%20Kereskedelmi%20Kft.%7Cpayment%3Aamerican_express%3Dyes%7Cpayment%3Acash%3Dyes%7Cpayment%3Acontactless%3Dyes%7Cpayment%3Aerzsebet%3Dyes%7Cpayment%3Aerzsebet_plus%3Dyes%7Cpayment%3Amaestro%3Dyes%7Cpayment%3Amastercard%3Dyes%7Cpayment%3Av_pay%3Dyes%7Cpayment%3Avisa%3Dyes%7Cpayment%3Avisa_electron%3Dyes%7Cphone%3D%2B36208237727%7Cshop%3Dsupermarket%7Csource%3Awww.spar.hu%3Adate%3D2018-11-03%7Cwebsite%3Dhttps%3A//www.spar.hu/content/aspiag_spar_hu/hu_HU/uzletek/82/interspar-hipermarket-veszprem.html%7Cyoutube%3Dhttps%3A//www.youtube.com/channel/UC9tu8COHiy4WkeTIN1k_Y8A -->
  <way action="modify" id="278658218" timestamp="2017-12-25T16:17:30Z" uid="8635934" user="osm_poi_matchmaker" version="4">
    <nd ref="2829870831"/>
    <nd ref="2829810189"/>
    <nd ref="299650854"/>
    <nd ref="2829810184"/>
    <nd ref="2829810196"/>
    <nd ref="2829870812"/>
    <nd ref="2829870816"/>
    <nd ref="2829870838"/>
    <nd ref="2829870836"/>
    <nd ref="2829870834"/>
    <nd ref="2829870829"/>
    <nd ref="2829870837"/>
    <nd ref="2829870831"/>
    <tag k="addr:city" v="Veszprém"/>
    <tag k="addr:country" v="HU"/>
    <tag k="addr:housenumber" v="4"/>
    <tag k="addr:postcode" v="8200"/>
    <tag k="addr:street" v="Dornyai Béla utca"/>
    <tag k="branch" v="Interspar hipermarket Veszprém"/>
    <tag k="brand" v="Spar"/>
    <tag k="brand:wikidata" v="Q610492"/>
    <tag k="brand:wikipedia" v="hu:Spar"/>
    <tag k="email" v="vevoszolgalat@spar.hu"/>
    <tag k="facebook" v="https://www.facebook.com/sparmagyarorszag"/>
    <tag k="import" v="osm_poi_matchmaker"/>
    <tag k="instagram" v="https://www.instagram.com/sparmagyarorszag"/>
    <tag k="name" v="Interspar"/>
    <tag k="operator" v="SPAR Magyarország Kereskedelmi Kft."/>
    <tag k="payment:american_express" v="yes"/>
    <tag k="payment:cash" v="yes"/>
    <tag k="payment:contactless" v="yes"/>
    <tag k="payment:erzsebet" v="yes"/>
    <tag k="payment:erzsebet_plus" v="yes"/>
    <tag k="payment:maestro" v="yes"/>
    <tag k="payment:mastercard" v="yes"/>
    <tag k="payment:v_pay" v="yes"/>
    <tag k="payment:visa" v="yes"/>
    <tag k="payment:visa_electron" v="yes"/>
    <tag k="phone" v="+36208237727"/>
    <tag k="shop" v="supermarket"/>
    <tag k="source:www.spar.hu:date" v="2018-11-03"/>
    <tag k="website" v="https://www.spar.hu/content/aspiag_spar_hu/hu_HU/uzletek/82/interspar-hipermarket-veszprem.html"/>
    <tag k="youtube" v="https://www.youtube.com/channel/UC9tu8COHiy4WkeTIN1k_Y8A"/>
  </way>
  <node action="modify" id="1828948239" lat="46.7741746" lon="17.267755" timestamp="2014-08-06T10:55:53Z" uid="1092768" user="kla25" version="4"/>
  <node action="modify" id="1828948234" lat="46.7741405" lon="17.2668224" timestamp="2013-05-28T06:13:01Z" uid="613605" user="Plutoz" version="3"/>
  <node action="modify" id="1828952593" lat="46.774278" lon="17.2668117" timestamp="2013-05-28T06:13:02Z" uid="613605" user="Plutoz" version="3"/>
  <node action="modify" id="1828948258" lat="46.7748803" lon="17.2667647" timestamp="2013-05-28T06:13:01Z" uid="613605" user="Plutoz" version="3"/>
  <node action="modify" id="1828948237" lat="46.7749143" lon="17.2676956" timestamp="2013-05-28T06:13:01Z" uid="613605" user="Plutoz" version="3"/>
  <node action="modify" id="1828952592" lat="46.7742623" lon="17.2677464" timestamp="2013-05-28T06:13:02Z" uid="613605" user="Plutoz" version="3"/>
  <node action="modify" id="1828948239" lat="46.7741746" lon="17.267755" timestamp="2014-08-06T10:55:53Z" uid="1092768" user="kla25" version="4"/>
  <!-- OSM link: https://osm.org/way/171936722 -->
  <!-- Original coordinates: POINT (46.77389 17.2674) -->
  <!-- OSM <-> POI distance: 30.15936375 m-->
  <!-- Checker good: {not_in_water}; bad {}-->
  <!-- Original tags:  -->
  <!-- JOSM magic link: http://localhost:8111/load_object?new_layer=false&objects=w171936722&addtags=%7Caddr%3Acity%3DKeszthely%7Caddr%3Acountry%3DHU%7Caddr%3Ahousenumber%3D37%7Caddr%3Apostcode%3D8360%7Caddr%3Astreet%3DTapolcai%20%C3%BAt%7Cbranch%3DInterspar%20hipermarket%20Keszthely%7Cbrand%3DSpar%7Cbrand%3Awikidata%3DQ610492%7Cbrand%3Awikipedia%3Dhu%3ASpar%7Cemail%3Dvevoszolgalat%40spar.hu%7Cfacebook%3Dhttps%3A//www.facebook.com/sparmagyarorszag%7Cimport%3Dosm_poi_matchmaker%7Cinstagram%3Dhttps%3A//www.instagram.com/sparmagyarorszag%7Cname%3DInterspar%7Coperator%3DSPAR%20Magyarorsz%C3%A1g%20Kereskedelmi%20Kft.%7Cpayment%3Aamerican_express%3Dyes%7Cpayment%3Acash%3Dyes%7Cpayment%3Acontactless%3Dyes%7Cpayment%3Aerzsebet%3Dyes%7Cpayment%3Aerzsebet_plus%3Dyes%7Cpayment%3Amaestro%3Dyes%7Cpayment%3Amastercard%3Dyes%7Cpayment%3Av_pay%3Dyes%7Cpayment%3Avisa%3Dyes%7Cpayment%3Avisa_electron%3Dyes%7Cphone%3D%2B36208237727%7Cshop%3Dsupermarket%7Csource%3Awww.spar.hu%3Adate%3D2018-11-03%7Cwebsite%3Dhttps%3A//www.spar.hu/content/aspiag_spar_hu/hu_HU/uzletek/83/interspar-hipermarket-keszthely.html%7Cyoutube%3Dhttps%3A//www.youtube.com/channel/UC9tu8COHiy4WkeTIN1k_Y8A -->
  <way action="modify" id="171936722" timestamp="2017-09-19T12:31:04Z" uid="8635934" user="osm_poi_matchmaker" version="8">
    <nd ref="1828948239"/>
    <nd ref="1828948234"/>
    <nd ref="1828952593"/>
    <nd ref="1828948258"/>
    <nd ref="1828948237"/>
    <nd ref="1828952592"/>
    <nd ref="1828948239"/>
    <tag k="addr:city" v="Keszthely"/>
    <tag k="addr:country" v="HU"/>
    <tag k="addr:housenumber" v="37"/>
    <tag k="addr:postcode" v="8360"/>
    <tag k="addr:street" v="Tapolcai út"/>
    <tag k="branch" v="Interspar hipermarket Keszthely"/>
    <tag k="brand" v="Spar"/>
    <tag k="brand:wikidata" v="Q610492"/>
    <tag k="brand:wikipedia" v="hu:Spar"/>
    <tag k="email" v="vevoszolgalat@spar.hu"/>
    <tag k="facebook" v="https://www.facebook.com/sparmagyarorszag"/>
    <tag k="import" v="osm_poi_matchmaker"/>
    <tag k="instagram" v="https://www.instagram.com/sparmagyarorszag"/>
    <tag k="name" v="Interspar"/>
    <tag k="operator" v="SPAR Magyarország Kereskedelmi Kft."/>
    <tag k="payment:american_express" v="yes"/>
    <tag k="payment:cash" v="yes"/>
    <tag k="payment:contactless" v="yes"/>
    <tag k="payment:erzsebet" v="yes"/>
    <tag k="payment:erzsebet_plus" v="yes"/>
    <tag k="payment:maestro" v="yes"/>
    <tag k="payment:mastercard" v="yes"/>
    <tag k="payment:v_pay" v="yes"/>
    <tag k="payment:visa" v="yes"/>
    <tag k="payment:visa_electron" v="yes"/>
    <tag k="phone" v="+36208237727"/>
    <tag k="shop" v="supermarket"/>
    <tag k="source:www.spar.hu:date" v="2018-11-03"/>
    <tag k="website" v="https://www.spar.hu/content/aspiag_spar_hu/hu_HU/uzletek/83/interspar-hipermarket-keszthely.html"/>
    <tag k="youtube" v="https://www.youtube.com/channel/UC9tu8COHiy4WkeTIN1k_Y8A"/>
  </way>
  <node action="modify" id="2377001292" lat="47.3298677" lon="17.4587714" timestamp="2013-07-07T11:35:33Z" uid="699437" user="Separis" version="1"/>
  <node action="modify" id="2377001222" lat="47.3295895" lon="17.4582241" timestamp="2013-07-07T11:35:32Z" uid="699437" user="Separis" version="1"/>
  <node action="modify" id="2377001265" lat="47.3300392" lon="17.4577265" timestamp="2013-07-07T11:35:32Z" uid="699437" user="Separis" version="1"/>
  <node action="modify" id="2377001267" lat="47.3293006" lon="17.4562735" timestamp="2013-07-07T11:35:32Z" uid="699437" user="Separis" version="1"/>
  <node action="modify" id="2377001199" lat="47.3294818" lon="17.4560729" timestamp="2013-07-07T11:35:32Z" uid="699437" user="Separis" version="1"/>
  <node action="modify" id="2377001273" lat="47.3295116" lon="17.4561315" timestamp="2013-07-07T11:35:32Z" uid="699437" user="Separis" version="1"/>
  <node action="modify" id="2377001314" lat="47.3299623" lon="17.4556328" timestamp="2013-07-07T11:35:33Z" uid="699437" user="Separis" version="1"/>
  <node action="modify" id="2377001236" lat="47.33054" lon="17.4567692" timestamp="2013-07-07T11:35:32Z" uid="699437" user="Separis" version="1"/>
  <node action="modify" id="2377001260" lat="47.3303657" lon="17.456962" timestamp="2013-07-07T11:35:32Z" uid="699437" user="Separis" version="1"/>
  <node action="modify" id="2377001219" lat="47.3304095" lon="17.4570482" timestamp="2013-07-07T11:35:32Z" uid="699437" user="Separis" version="1"/>
  <node action="modify" id="2377001240" lat="47.3303088" lon="17.4571596" timestamp="2013-07-07T11:35:32Z" uid="699437" user="Separis" version="1"/>
  <node action="modify" id="2377001202" lat="47.3304806" lon="17.4574975" timestamp="2013-07-07T11:35:32Z" uid="699437" user="Separis" version="1"/>
  <node action="modify" id="2377001184" lat="47.3304257" lon="17.4575582" timestamp="2013-07-07T11:35:31Z" uid="699437" user="Separis" version="1"/>
  <node action="modify" id="2377001318" lat="47.3305186" lon="17.457741" timestamp="2013-07-07T11:35:33Z" uid="699437" user="Separis" version="1"/>
  <node action="modify" id="2377001195" lat="47.3302569" lon="17.4580305" timestamp="2013-07-07T11:35:32Z" uid="699437" user="Separis" version="1"/>
  <node action="modify" id="2377001185" lat="47.3303017" lon="17.4581186" timestamp="2013-07-07T11:35:32Z" uid="699437" user="Separis" version="1"/>
  <node action="modify" id="2377001277" lat="47.3299764" lon="17.4584785" timestamp="2013-07-07T11:35:32Z" uid="699437" user="Separis" version="1"/>
  <node action="modify" id="2377001216" lat="47.3300326" lon="17.458589" timestamp="2013-07-07T11:35:32Z" uid="699437" user="Separis" version="1"/>
  <node action="modify" id="2377001292" lat="47.3298677" lon="17.4587714" timestamp="2013-07-07T11:35:33Z" uid="699437" user="Separis" version="1"/>
  <!-- OSM link: https://osm.org/way/229063446 -->
  <!-- Original coordinates: POINT (47.329301 17.456956) -->
  <!-- OSM <-> POI distance: 30.82648624 m-->
  <!-- Checker good: {not_in_water}; bad {}-->
  <!-- Original tags: 'building':'retail'; 'name':'INTERSPAR'; 'note':'Large supermarket, has barbershop, bakery and other small shops inside.'; 'operator':'Interspar'; 'shop':'supermarket'; 'toilets:wheelchair':'limited'; 'website':'http://www.spar.hu'; 'wheelchair':'yes';  -->
  <!-- JOSM magic link: http://localhost:8111/load_object?new_layer=false&objects=w229063446&addtags=%7Caddr%3Acity%3DP%C3%A1pa%7Caddr%3Acountry%3DHU%7Caddr%3Ahousenumber%3D21%7Caddr%3Apostcode%3D8500%7Caddr%3Astreet%3DCelli%20%C3%BAt%7Cbranch%3DInterspar%20hipermarket%20P%C3%A1pa%7Cbrand%3DSpar%7Cbrand%3Awikidata%3DQ610492%7Cbrand%3Awikipedia%3Dhu%3ASpar%7Cbuilding%3Dretail%7Cemail%3Dvevoszolgalat%40spar.hu%7Cfacebook%3Dhttps%3A//www.facebook.com/sparmagyarorszag%7Cimport%3Dosm_poi_matchmaker%7Cinstagram%3Dhttps%3A//www.instagram.com/sparmagyarorszag%7Cname%3DInterspar%7Cnote%3DLarge%20supermarket%2C%20has%20barbershop%2C%20bakery%20and%20other%20small%20shops%20inside.%7Coperator%3DSPAR%20Magyarorsz%C3%A1g%20Kereskedelmi%20Kft.%7Cpayment%3Aamerican_express%3Dyes%7Cpayment%3Acash%3Dyes%7Cpayment%3Acontactless%3Dyes%7Cpayment%3Aerzsebet%3Dyes%7Cpayment%3Aerzsebet_plus%3Dyes%7Cpayment%3Amaestro%3Dyes%7Cpayment%3Amastercard%3Dyes%7Cpayment%3Av_pay%3Dyes%7Cpayment%3Avisa%3Dyes%7Cpayment%3Avisa_electron%3Dyes%7Cphone%3D%2B36208237727%7Cshop%3Dsupermarket%7Csource%3Awww.spar.hu%3Adate%3D2018-11-03%7Ctoilets%3Awheelchair%3Dlimited%7Cwebsite%3Dhttps%3A//www.spar.hu/content/aspiag_spar_hu/hu_HU/uzletek/85/interspar-hipermarket-papa.html%7Cwheelchair%3Dyes%7Cyoutube%3Dhttps%3A//www.youtube.com/channel/UC9tu8COHiy4WkeTIN1k_Y8A -->
  <way action="modify" id="229063446" timestamp="2017-12-25T16:16:53Z" uid="8635934" user="osm_poi_matchmaker" version="5">
    <nd ref="2377001292"/>
    <nd ref="2377001222"/>
    <nd ref="2377001265"/>
    <nd ref="2377001267"/>
    <nd ref="2377001199"/>
    <nd ref="2377001273"/>
    <nd ref="2377001314"/>
    <nd ref="2377001236"/>
    <nd ref="2377001260"/>
    <nd ref="2377001219"/>
    <nd ref="2377001240"/>
    <nd ref="2377001202"/>
    <nd ref="2377001184"/>
    <nd ref="2377001318"/>
    <nd ref="2377001195"/>
    <nd ref="2377001185"/>
    <nd ref="2377001277"/>
    <nd ref="2377001216"/>
    <nd ref="2377001292"/>
    <tag k="addr:city" v="Pápa"/>
    <tag k="addr:country" v="HU"/>
    <tag k="addr:housenumber" v="21"/>
    <tag k="addr:postcode" v="8500"/>
    <tag k="addr:street" v="Celli út"/>
    <tag k="branch" v="Interspar hipermarket Pápa"/>
    <tag k="brand" v="Spar"/>
    <tag k="brand:wikidata" v="Q610492"/>
    <tag k="brand:wikipedia" v="hu:Spar"/>
    <tag k="building" v="retail"/>
    <tag k="email" v="vevoszolgalat@spar.hu"/>
    <tag k="facebook" v="https://www.facebook.com/sparmagyarorszag"/>
    <tag k="import" v="osm_poi_matchmaker"/>
    <tag k="instagram" v="https://www.instagram.com/sparmagyarorszag"/>
    <tag k="name" v="Interspar"/>
    <tag k="note" v="Large supermarket, has barbershop, bakery and other small shops inside."/>
    <tag k="operator" v="SPAR Magyarország Kereskedelmi Kft."/>
    <tag k="payment:american_express" v="yes"/>
    <tag k="payment:cash" v="yes"/>
    <tag k="payment:contactless" v="yes"/>
    <tag k="payment:erzsebet" v="yes"/>
    <tag k="payment:erzsebet_plus" v="yes"/>
    <tag k="payment:maestro" v="yes"/>
    <tag k="payment:mastercard" v="yes"/>
    <tag k="payment:v_pay" v="yes"/>
    <tag k="payment:visa" v="yes"/>
    <tag k="payment:visa_electron" v="yes"/>
    <tag k="phone" v="+36208237727"/>
    <tag k="shop" v="supermarket"/>
    <tag k="source:www.spar.hu:date" v="2018-11-03"/>
    <tag k="toilets:wheelchair" v="limited"/>
    <tag k="website" v="https://www.spar.hu/content/aspiag_spar_hu/hu_HU/uzletek/85/interspar-hipermarket-papa.html"/>
    <tag k="wheelchair" v="yes"/>
    <tag k="youtube" v="https://www.youtube.com/channel/UC9tu8COHiy4WkeTIN1k_Y8A"/>
  </way>
  <!-- OSM link: https://osm.org/node/4939280641 -->
  <!-- Original coordinates: POINT (46.45345 17.0112) -->
  <!-- OSM <-> POI distance: 77.32871324 m-->
  <!-- Checker good: {not_in_water}; bad {}-->
  <!-- Original tags:  -->
  <!-- JOSM magic link: http://localhost:8111/load_object?new_layer=false&objects=n4939280641&addtags=%7Caddr%3Acity%3DNagykanizsa%7Caddr%3Acountry%3DHU%7Caddr%3Ahousenumber%3D4%7Caddr%3Apostcode%3D8800%7Caddr%3Astreet%3DT%C3%A1borhely%20utca%7Cbranch%3DInterspar%20hipermarket%20Nagykanizsa%7Cbrand%3DSpar%7Cbrand%3Awikidata%3DQ610492%7Cbrand%3Awikipedia%3Dhu%3ASpar%7Cemail%3Dvevoszolgalat%40spar.hu%7Cfacebook%3Dhttps%3A//www.facebook.com/sparmagyarorszag%7Cimport%3Dosm_poi_matchmaker%7Cinstagram%3Dhttps%3A//www.instagram.com/sparmagyarorszag%7Cname%3DInterspar%7Coperator%3DSPAR%20Magyarorsz%C3%A1g%20Kereskedelmi%20Kft.%7Cpayment%3Aamerican_express%3Dyes%7Cpayment%3Acash%3Dyes%7Cpayment%3Acontactless%3Dyes%7Cpayment%3Aerzsebet%3Dyes%7Cpayment%3Aerzsebet_plus%3Dyes%7Cpayment%3Amaestro%3Dyes%7Cpayment%3Amastercard%3Dyes%7Cpayment%3Av_pay%3Dyes%7Cpayment%3Avisa%3Dyes%7Cpayment%3Avisa_electron%3Dyes%7Cphone%3D%2B36208237727%7Cshop%3Dsupermarket%7Csource%3Awww.spar.hu%3Adate%3D2018-11-03%7Cwebsite%3Dhttps%3A//www.spar.hu/content/aspiag_spar_hu/hu_HU/uzletek/88/interspar-hipermarket-nagykanizsa.html%7Cyoutube%3Dhttps%3A//www.youtube.com/channel/UC9tu8COHiy4WkeTIN1k_Y8A -->
  <node action="modify" id="4939280641" lat="46.4540448949573" lon="17.011722797632" timestamp="2017-08-07T22:07:06Z" uid="8635934" user="osm_poi_matchmaker" version="2">
    <tag k="addr:city" v="Nagykanizsa"/>
    <tag k="addr:country" v="HU"/>
    <tag k="addr:housenumber" v="4"/>
    <tag k="addr:postcode" v="8800"/>
    <tag k="addr:street" v="Táborhely utca"/>
    <tag k="branch" v="Interspar hipermarket Nagykanizsa"/>
    <tag k="brand" v="Spar"/>
    <tag k="brand:wikidata" v="Q610492"/>
    <tag k="brand:wikipedia" v="hu:Spar"/>
    <tag k="email" v="vevoszolgalat@spar.hu"/>
    <tag k="facebook" v="https://www.facebook.com/sparmagyarorszag"/>
    <tag k="import" v="osm_poi_matchmaker"/>
    <tag k="instagram" v="https://www.instagram.com/sparmagyarorszag"/>
    <tag k="name" v="Interspar"/>
    <tag k="operator" v="SPAR Magyarország Kereskedelmi Kft."/>
    <tag k="payment:american_express" v="yes"/>
    <tag k="payment:cash" v="yes"/>
    <tag k="payment:contactless" v="yes"/>
    <tag k="payment:erzsebet" v="yes"/>
    <tag k="payment:erzsebet_plus" v="yes"/>
    <tag k="payment:maestro" v="yes"/>
    <tag k="payment:mastercard" v="yes"/>
    <tag k="payment:v_pay" v="yes"/>
    <tag k="payment:visa" v="yes"/>
    <tag k="payment:visa_electron" v="yes"/>
    <tag k="phone" v="+36208237727"/>
    <tag k="shop" v="supermarket"/>
    <tag k="source:www.spar.hu:date" v="2018-11-03"/>
    <tag k="website" v="https://www.spar.hu/content/aspiag_spar_hu/hu_HU/uzletek/88/interspar-hipermarket-nagykanizsa.html"/>
    <tag k="youtube" v="https://www.youtube.com/channel/UC9tu8COHiy4WkeTIN1k_Y8A"/>
  </node>
  <node action="modify" id="1255834699" lat="46.8477186" lon="16.8319069" timestamp="2013-03-03T07:03:45Z" uid="699437" user="Separis" version="4"/>
  <node action="modify" id="2183136016" lat="46.8478458" lon="16.8319343" timestamp="2013-03-03T07:03:43Z" uid="699437" user="Separis" version="1"/>
  <node action="modify" id="2183136030" lat="46.8478351" lon="16.8320405" timestamp="2013-03-03T07:03:43Z" uid="699437" user="Separis" version="1"/>
  <node action="modify" id="2183136018" lat="46.8478957" lon="16.8320535" timestamp="2013-03-03T07:03:43Z" uid="699437" user="Separis" version="1"/>
  <node action="modify" id="2183136026" lat="46.8478895" lon="16.8321147" timestamp="2013-03-03T07:03:43Z" uid="699437" user="Separis" version="1"/>
  <node action="modify" id="2183135971" lat="46.8481511" lon="16.8321709" timestamp="2013-03-03T07:03:43Z" uid="699437" user="Separis" version="1"/>
  <node action="modify" id="2183135989" lat="46.8481637" lon="16.8320448" timestamp="2013-03-03T07:03:43Z" uid="699437" user="Separis" version="1"/>
  <node action="modify" id="2183135964" lat="46.848215" lon="16.8320558" timestamp="2013-03-03T07:03:43Z" uid="699437" user="Separis" version="1"/>
  <node action="modify" id="2183136041" lat="46.8482227" lon="16.8319794" timestamp="2013-03-03T07:03:43Z" uid="699437" user="Separis" version="1"/>
  <node action="modify" id="1255834575" lat="46.8484073" lon="16.832019" timestamp="2013-03-03T07:03:45Z" uid="699437" user="Separis" version="4"/>
  <node action="modify" id="1255834666" lat="46.8483548" lon="16.8325418" timestamp="2013-03-03T07:03:45Z" uid="699437" user="Separis" version="4"/>
  <node action="modify" id="1255834735" lat="46.8483102" lon="16.8325322" timestamp="2013-03-03T07:03:45Z" uid="699437" user="Separis" version="4"/>
  <node action="modify" id="2183136025" lat="46.8482801" lon="16.8328318" timestamp="2013-03-03T07:03:43Z" uid="699437" user="Separis" version="1"/>
  <node action="modify" id="2183135959" lat="46.8481882" lon="16.832812" timestamp="2013-03-03T07:03:43Z" uid="699437" user="Separis" version="1"/>
  <node action="modify" id="2183135996" lat="46.8481206" lon="16.8334849" timestamp="2013-03-03T07:03:43Z" uid="699437" user="Separis" version="1"/>
  <node action="modify" id="1255834766" lat="46.8480698" lon="16.833474" timestamp="2013-03-03T07:03:45Z" uid="699437" user="Separis" version="4"/>
  <node action="modify" id="2183136036" lat="46.8480538" lon="16.8336334" timestamp="2013-03-03T07:03:43Z" uid="699437" user="Separis" version="1"/>
  <node action="modify" id="1255834803" lat="46.8476659" lon="16.8335501" timestamp="2013-03-03T07:03:44Z" uid="699437" user="Separis" version="4"/>
  <node action="modify" id="1255834605" lat="46.8475724" lon="16.8333615" timestamp="2013-03-03T07:03:44Z" uid="699437" user="Separis" version="4"/>
  <node action="modify" id="1255834699" lat="46.8477186" lon="16.8319069" timestamp="2013-03-03T07:03:45Z" uid="699437" user="Separis" version="4"/>
  <!-- OSM link: https://osm.org/way/109789426 -->
  <!-- Original coordinates: POINT (46.84764 16.8339) -->
  <!-- OSM <-> POI distance: 26.74632345 m-->
  <!-- Checker good: {not_in_water}; bad {}-->
  <!-- Original tags:  -->
  <!-- JOSM magic link: http://localhost:8111/load_object?new_layer=false&objects=w109789426&addtags=%7Caddr%3Acity%3DZalaegerszeg%7Caddr%3Acountry%3DHU%7Caddr%3Ahousenumber%3D1%7Caddr%3Apostcode%3D8900%7Caddr%3Astreet%3DOla%20utca%7Cbranch%3DInterspar%20hipermarket%20Zalaegerszeg%7Cbrand%3DSpar%7Cbrand%3Awikidata%3DQ610492%7Cbrand%3Awikipedia%3Dhu%3ASpar%7Cemail%3Dvevoszolgalat%40spar.hu%7Cfacebook%3Dhttps%3A//www.facebook.com/sparmagyarorszag%7Cimport%3Dosm_poi_matchmaker%7Cinstagram%3Dhttps%3A//www.instagram.com/sparmagyarorszag%7Cname%3DInterspar%7Coperator%3DSPAR%20Magyarorsz%C3%A1g%20Kereskedelmi%20Kft.%7Cpayment%3Aamerican_express%3Dyes%7Cpayment%3Acash%3Dyes%7Cpayment%3Acontactless%3Dyes%7Cpayment%3Aerzsebet%3Dyes%7Cpayment%3Aerzsebet_plus%3Dyes%7Cpayment%3Amaestro%3Dyes%7Cpayment%3Amastercard%3Dyes%7Cpayment%3Av_pay%3Dyes%7Cpayment%3Avisa%3Dyes%7Cpayment%3Avisa_electron%3Dyes%7Cphone%3D%2B36208237727%7Cshop%3Dsupermarket%7Csource%3Awww.spar.hu%3Adate%3D2018-11-03%7Cwebsite%3Dhttps%3A//www.spar.hu/content/aspiag_spar_hu/hu_HU/uzletek/89/interspar-hipermarket-zalaegerszeg.html%7Cyoutube%3Dhttps%3A//www.youtube.com/channel/UC9tu8COHiy4WkeTIN1k_Y8A -->
  <way action="modify" id="109789426" timestamp="2017-12-25T16:15:59Z" uid="8635934" user="osm_poi_matchmaker" version="9">
    <nd ref="1255834699"/>
    <nd ref="2183136016"/>
    <nd ref="2183136030"/>
    <nd ref="2183136018"/>
    <nd ref="2183136026"/>
    <nd ref="2183135971"/>
    <nd ref="2183135989"/>
    <nd ref="2183135964"/>
    <nd ref="2183136041"/>
    <nd ref="1255834575"/>
    <nd ref="1255834666"/>
    <nd ref="1255834735"/>
    <nd ref="2183136025"/>
    <nd ref="2183135959"/>
    <nd ref="2183135996"/>
    <nd ref="1255834766"/>
    <nd ref="2183136036"/>
    <nd ref="1255834803"/>
    <nd ref="1255834605"/>
    <nd ref="1255834699"/>
    <tag k="addr:city" v="Zalaegerszeg"/>
    <tag k="addr:country" v="HU"/>
    <tag k="addr:housenumber" v="1"/>
    <tag k="addr:postcode" v="8900"/>
    <tag k="addr:street" v="Ola utca"/>
    <tag k="branch" v="Interspar hipermarket Zalaegerszeg"/>
    <tag k="brand" v="Spar"/>
    <tag k="brand:wikidata" v="Q610492"/>
    <tag k="brand:wikipedia" v="hu:Spar"/>
    <tag k="email" v="vevoszolgalat@spar.hu"/>
    <tag k="facebook" v="https://www.facebook.com/sparmagyarorszag"/>
    <tag k="import" v="osm_poi_matchmaker"/>
    <tag k="instagram" v="https://www.instagram.com/sparmagyarorszag"/>
    <tag k="name" v="Interspar"/>
    <tag k="operator" v="SPAR Magyarország Kereskedelmi Kft."/>
    <tag k="payment:american_express" v="yes"/>
    <tag k="payment:cash" v="yes"/>
    <tag k="payment:contactless" v="yes"/>
    <tag k="payment:erzsebet" v="yes"/>
    <tag k="payment:erzsebet_plus" v="yes"/>
    <tag k="payment:maestro" v="yes"/>
    <tag k="payment:mastercard" v="yes"/>
    <tag k="payment:v_pay" v="yes"/>
    <tag k="payment:visa" v="yes"/>
    <tag k="payment:visa_electron" v="yes"/>
    <tag k="phone" v="+36208237727"/>
    <tag k="shop" v="supermarket"/>
    <tag k="source:www.spar.hu:date" v="2018-11-03"/>
    <tag k="website" v="https://www.spar.hu/content/aspiag_spar_hu/hu_HU/uzletek/89/interspar-hipermarket-zalaegerszeg.html"/>
    <tag k="youtube" v="https://www.youtube.com/channel/UC9tu8COHiy4WkeTIN1k_Y8A"/>
  </way>
  <node action="modify" id="1355696707" lat="47.6880695" lon="17.6483982" timestamp="2011-07-09T22:03:19Z" uid="381122" user="herrbert74" version="1"/>
  <node action="modify" id="1823918265" lat="47.6876911" lon="17.6487915" timestamp="2012-08-23T19:07:41Z" uid="381122" user="herrbert74" version="3"/>
  <node action="modify" id="1355696674" lat="47.6871585" lon="17.649345" timestamp="2011-07-09T22:03:18Z" uid="381122" user="herrbert74" version="1"/>
  <node action="modify" id="1355696702" lat="47.6880422" lon="17.6512215" timestamp="2011-07-09T22:03:18Z" uid="381122" user="herrbert74" version="1"/>
  <node action="modify" id="2766655864" lat="47.6886252" lon="17.6506156" timestamp="2014-04-04T07:43:09Z" uid="50797" user="Rugo" version="1"/>
  <node action="modify" id="1355696715" lat="47.6889532" lon="17.6502747" timestamp="2011-07-09T22:03:19Z" uid="381122" user="herrbert74" version="1"/>
  <node action="modify" id="1355696707" lat="47.6880695" lon="17.6483982" timestamp="2011-07-09T22:03:19Z" uid="381122" user="herrbert74" version="1"/>
  <!-- OSM link: https://osm.org/way/121040321 -->
  <!-- Original coordinates: POINT (47.68765 17.64882) -->
  <!-- OSM <-> POI distance: 0.87128369 m-->
  <!-- Checker good: {not_in_water}; bad {}-->
  <!-- Original tags: 'building':'retail'; 'name':'InterSpar Center'; 'shop':'supermarket'; 'toilets:wheelchair':'limited'; 'wheelchair':'yes';  -->
  <!-- JOSM magic link: http://localhost:8111/load_object?new_layer=false&objects=w121040321&addtags=%7Caddr%3Acity%3DGy%C5%91r%7Caddr%3Acountry%3DHU%7Caddr%3Ahousenumber%3D3%7Caddr%3Apostcode%3D9023%7Caddr%3Astreet%3DFeh%C3%A9rv%C3%A1ri%20%C3%BAt%7Cbranch%3DInterspar%20hipermarket%20Gy%C5%91r%7Cbrand%3DSpar%7Cbrand%3Awikidata%3DQ610492%7Cbrand%3Awikipedia%3Dhu%3ASpar%7Cbuilding%3Dretail%7Cemail%3Dvevoszolgalat%40spar.hu%7Cfacebook%3Dhttps%3A//www.facebook.com/sparmagyarorszag%7Cimport%3Dosm_poi_matchmaker%7Cinstagram%3Dhttps%3A//www.instagram.com/sparmagyarorszag%7Cname%3DInterspar%7Coperator%3DSPAR%20Magyarorsz%C3%A1g%20Kereskedelmi%20Kft.%7Cpayment%3Aamerican_express%3Dyes%7Cpayment%3Acash%3Dyes%7Cpayment%3Acontactless%3Dyes%7Cpayment%3Aerzsebet%3Dyes%7Cpayment%3Aerzsebet_plus%3Dyes%7Cpayment%3Amaestro%3Dyes%7Cpayment%3Amastercard%3Dyes%7Cpayment%3Av_pay%3Dyes%7Cpayment%3Avisa%3Dyes%7Cpayment%3Avisa_electron%3Dyes%7Cphone%3D%2B36208237727%7Cshop%3Dsupermarket%7Csource%3Awww.spar.hu%3Adate%3D2018-11-03%7Ctoilets%3Awheelchair%3Dlimited%7Cwebsite%3Dhttps%3A//www.spar.hu/content/aspiag_spar_hu/hu_HU/uzletek/90/interspar-hipermarket-gyr.html%7Cwheelchair%3Dyes%7Cyoutube%3Dhttps%3A//www.youtube.com/channel/UC9tu8COHiy4WkeTIN1k_Y8A -->
  <way action="modify" id="121040321" timestamp="2017-12-25T16:16:06Z" uid="8635934" user="osm_poi_matchmaker" version="9">
    <nd ref="1355696707"/>
    <nd ref="1823918265"/>
    <nd ref="1355696674"/>
    <nd ref="1355696702"/>
    <nd ref="2766655864"/>
    <nd ref="1355696715"/>
    <nd ref="1355696707"/>
    <tag k="addr:city" v="Győr"/>
    <tag k="addr:country" v="HU"/>
    <tag k="addr:housenumber" v="3"/>
    <tag k="addr:postcode" v="9023"/>
    <tag k="addr:street" v="Fehérvári út"/>
    <tag k="branch" v="Interspar hipermarket Győr"/>
    <tag k="brand" v="Spar"/>
    <tag k="brand:wikidata" v="Q610492"/>
    <tag k="brand:wikipedia" v="hu:Spar"/>
    <tag k="building" v="retail"/>
    <tag k="email" v="vevoszolgalat@spar.hu"/>
    <tag k="facebook" v="https://www.facebook.com/sparmagyarorszag"/>
    <tag k="import" v="osm_poi_matchmaker"/>
    <tag k="instagram" v="https://www.instagram.com/sparmagyarorszag"/>
    <tag k="name" v="Interspar"/>
    <tag k="operator" v="SPAR Magyarország Kereskedelmi Kft."/>
    <tag k="payment:american_express" v="yes"/>
    <tag k="payment:cash" v="yes"/>
    <tag k="payment:contactless" v="yes"/>
    <tag k="payment:erzsebet" v="yes"/>
    <tag k="payment:erzsebet_plus" v="yes"/>
    <tag k="payment:maestro" v="yes"/>
    <tag k="payment:mastercard" v="yes"/>
    <tag k="payment:v_pay" v="yes"/>
    <tag k="payment:visa" v="yes"/>
    <tag k="payment:visa_electron" v="yes"/>
    <tag k="phone" v="+36208237727"/>
    <tag k="shop" v="supermarket"/>
    <tag k="source:www.spar.hu:date" v="2018-11-03"/>
    <tag k="toilets:wheelchair" v="limited"/>
    <tag k="website" v="https://www.spar.hu/content/aspiag_spar_hu/hu_HU/uzletek/90/interspar-hipermarket-gyr.html"/>
    <tag k="wheelchair" v="yes"/>
    <tag k="youtube" v="https://www.youtube.com/channel/UC9tu8COHiy4WkeTIN1k_Y8A"/>
  </way>
  <node action="modify" id="1355696707" lat="47.6880695" lon="17.6483982" timestamp="2011-07-09T22:03:19Z" uid="381122" user="herrbert74" version="1"/>
  <node action="modify" id="1823918265" lat="47.6876911" lon="17.6487915" timestamp="2012-08-23T19:07:41Z" uid="381122" user="herrbert74" version="3"/>
  <node action="modify" id="1355696674" lat="47.6871585" lon="17.649345" timestamp="2011-07-09T22:03:18Z" uid="381122" user="herrbert74" version="1"/>
  <node action="modify" id="1355696702" lat="47.6880422" lon="17.6512215" timestamp="2011-07-09T22:03:18Z" uid="381122" user="herrbert74" version="1"/>
  <node action="modify" id="2766655864" lat="47.6886252" lon="17.6506156" timestamp="2014-04-04T07:43:09Z" uid="50797" user="Rugo" version="1"/>
  <node action="modify" id="1355696715" lat="47.6889532" lon="17.6502747" timestamp="2011-07-09T22:03:19Z" uid="381122" user="herrbert74" version="1"/>
  <node action="modify" id="1355696707" lat="47.6880695" lon="17.6483982" timestamp="2011-07-09T22:03:19Z" uid="381122" user="herrbert74" version="1"/>
  <!-- OSM link: https://osm.org/way/121040321 -->
  <!-- Original coordinates: POINT (47.69119 17.64552) -->
  <!-- OSM <-> POI distance: 407.8103654 m-->
  <!-- Checker good: {not_in_water}; bad {}-->
  <!-- Original tags:  -->
  <!-- JOSM magic link: http://localhost:8111/load_object?new_layer=false&objects=w121040321&addtags=%7Caddr%3Acity%3DGy%C5%91r%7Caddr%3Acountry%3DHU%7Caddr%3Ahousenumber%3D1%7Caddr%3Apostcode%3D9022%7Caddr%3Astreet%3DBudai%20%C3%BAt%7Cbranch%3DInterspar%20hipermarket%20Gy%C5%91r%7Cbrand%3DSpar%7Cbrand%3Awikidata%3DQ610492%7Cbrand%3Awikipedia%3Dhu%3ASpar%7Cemail%3Dvevoszolgalat%40spar.hu%7Cfacebook%3Dhttps%3A//www.facebook.com/sparmagyarorszag%7Cimport%3Dosm_poi_matchmaker%7Cinstagram%3Dhttps%3A//www.instagram.com/sparmagyarorszag%7Cname%3DInterspar%7Coperator%3DSPAR%20Magyarorsz%C3%A1g%20Kereskedelmi%20Kft.%7Cpayment%3Aamerican_express%3Dyes%7Cpayment%3Acash%3Dyes%7Cpayment%3Acontactless%3Dyes%7Cpayment%3Aerzsebet%3Dyes%7Cpayment%3Aerzsebet_plus%3Dyes%7Cpayment%3Amaestro%3Dyes%7Cpayment%3Amastercard%3Dyes%7Cpayment%3Av_pay%3Dyes%7Cpayment%3Avisa%3Dyes%7Cpayment%3Avisa_electron%3Dyes%7Cphone%3D%2B36208237727%7Cshop%3Dsupermarket%7Csource%3Awww.spar.hu%3Adate%3D2018-11-03%7Cwebsite%3Dhttps%3A//www.spar.hu/content/aspiag_spar_hu/hu_HU/uzletek/90/interspar-hipermarket-gyr-ece.html%7Cyoutube%3Dhttps%3A//www.youtube.com/channel/UC9tu8COHiy4WkeTIN1k_Y8A -->
  <way action="modify" id="121040321" timestamp="2017-12-25T16:16:06Z" uid="8635934" user="osm_poi_matchmaker" version="9">
    <nd ref="1355696707"/>
    <nd ref="1823918265"/>
    <nd ref="1355696674"/>
    <nd ref="1355696702"/>
    <nd ref="2766655864"/>
    <nd ref="1355696715"/>
    <nd ref="1355696707"/>
    <tag k="addr:city" v="Győr"/>
    <tag k="addr:country" v="HU"/>
    <tag k="addr:housenumber" v="1"/>
    <tag k="addr:postcode" v="9022"/>
    <tag k="addr:street" v="Budai út"/>
    <tag k="branch" v="Interspar hipermarket Győr"/>
    <tag k="brand" v="Spar"/>
    <tag k="brand:wikidata" v="Q610492"/>
    <tag k="brand:wikipedia" v="hu:Spar"/>
    <tag k="email" v="vevoszolgalat@spar.hu"/>
    <tag k="facebook" v="https://www.facebook.com/sparmagyarorszag"/>
    <tag k="import" v="osm_poi_matchmaker"/>
    <tag k="instagram" v="https://www.instagram.com/sparmagyarorszag"/>
    <tag k="name" v="Interspar"/>
    <tag k="operator" v="SPAR Magyarország Kereskedelmi Kft."/>
    <tag k="payment:american_express" v="yes"/>
    <tag k="payment:cash" v="yes"/>
    <tag k="payment:contactless" v="yes"/>
    <tag k="payment:erzsebet" v="yes"/>
    <tag k="payment:erzsebet_plus" v="yes"/>
    <tag k="payment:maestro" v="yes"/>
    <tag k="payment:mastercard" v="yes"/>
    <tag k="payment:v_pay" v="yes"/>
    <tag k="payment:visa" v="yes"/>
    <tag k="payment:visa_electron" v="yes"/>
    <tag k="phone" v="+36208237727"/>
    <tag k="shop" v="supermarket"/>
    <tag k="source:www.spar.hu:date" v="2018-11-03"/>
    <tag k="website" v="https://www.spar.hu/content/aspiag_spar_hu/hu_HU/uzletek/90/interspar-hipermarket-gyr-ece.html"/>
    <tag k="youtube" v="https://www.youtube.com/channel/UC9tu8COHiy4WkeTIN1k_Y8A"/>
  </way>
  <node action="modify" id="1097746732" lat="47.688776" lon="16.5832355" timestamp="2014-09-02T10:46:48Z" uid="36129" user="City-busz" version="2"/>
  <node action="modify" id="3055241792" lat="47.6888806" lon="16.5833456" timestamp="2014-09-02T10:46:47Z" uid="36129" user="City-busz" version="1"/>
  <node action="modify" id="3055241791" lat="47.6888253" lon="16.5834615" timestamp="2014-09-02T10:46:47Z" uid="36129" user="City-busz" version="1"/>
  <node action="modify" id="1097746736" lat="47.6894764" lon="16.584147" timestamp="2014-09-02T10:46:48Z" uid="36129" user="City-busz" version="2"/>
  <node action="modify" id="3055241796" lat="47.6897703" lon="16.58357" timestamp="2014-09-02T10:46:47Z" uid="36129" user="City-busz" version="1"/>
  <node action="modify" id="3055241798" lat="47.6898237" lon="16.5836261" timestamp="2014-09-02T10:46:47Z" uid="36129" user="City-busz" version="1"/>
  <node action="modify" id="3055241799" lat="47.6898798" lon="16.5835085" timestamp="2014-09-02T10:46:47Z" uid="36129" user="City-busz" version="1"/>
  <node action="modify" id="3055241797" lat="47.6898039" lon="16.5834284" timestamp="2014-09-02T10:46:47Z" uid="36129" user="City-busz" version="1"/>
  <node action="modify" id="1097746717" lat="47.6899215" lon="16.5831267" timestamp="2014-09-02T10:46:47Z" uid="36129" user="City-busz" version="2"/>
  <node action="modify" id="3080816958" lat="47.6896856" lon="16.5829149" timestamp="2014-09-16T18:32:44Z" uid="36129" user="City-busz" version="1"/>
  <node action="modify" id="3055241795" lat="47.689618" lon="16.5828542" timestamp="2014-09-02T10:46:47Z" uid="36129" user="City-busz" version="1"/>
  <node action="modify" id="3055241793" lat="47.6894948" lon="16.5827216" timestamp="2014-09-02T10:46:47Z" uid="36129" user="City-busz" version="1"/>
  <node action="modify" id="3055241794" lat="47.6895046" lon="16.5826991" timestamp="2014-09-02T10:46:47Z" uid="36129" user="City-busz" version="1"/>
  <node action="modify" id="3080816952" lat="47.689455" lon="16.5826469" timestamp="2014-09-16T18:32:44Z" uid="36129" user="City-busz" version="1"/>
  <node action="modify" id="3080816951" lat="47.6893884" lon="16.5825768" timestamp="2014-09-16T18:32:44Z" uid="36129" user="City-busz" version="1"/>
  <node action="modify" id="1097746720" lat="47.68919" lon="16.5823678" timestamp="2014-09-02T10:46:47Z" uid="36129" user="City-busz" version="2"/>
  <node action="modify" id="1097746732" lat="47.688776" lon="16.5832355" timestamp="2014-09-02T10:46:48Z" uid="36129" user="City-busz" version="2"/>
  <!-- OSM link: https://osm.org/way/94504489 -->
  <!-- Original coordinates: POINT (47.689585 16.583954) -->
  <!-- OSM <-> POI distance: 0.91325011 m-->
  <!-- Checker good: {not_in_water}; bad {}-->
  <!-- Original tags:  -->
  <!-- JOSM magic link: http://localhost:8111/load_object?new_layer=false&objects=w94504489&addtags=%7Caddr%3Acity%3DSopron%7Caddr%3Acountry%3DHU%7Caddr%3Ahousenumber%3D15-17%7Caddr%3Apostcode%3D9400%7Caddr%3Astreet%3DSelmeci%20utca%7Cbranch%3DInterspar%20hipermarket%20Sopron%7Cbrand%3DSpar%7Cbrand%3Awikidata%3DQ610492%7Cbrand%3Awikipedia%3Dhu%3ASpar%7Cemail%3Dvevoszolgalat%40spar.hu%7Cfacebook%3Dhttps%3A//www.facebook.com/sparmagyarorszag%7Cimport%3Dosm_poi_matchmaker%7Cinstagram%3Dhttps%3A//www.instagram.com/sparmagyarorszag%7Cname%3DInterspar%7Coperator%3DSPAR%20Magyarorsz%C3%A1g%20Kereskedelmi%20Kft.%7Cpayment%3Aamerican_express%3Dyes%7Cpayment%3Acash%3Dyes%7Cpayment%3Acontactless%3Dyes%7Cpayment%3Aerzsebet%3Dyes%7Cpayment%3Aerzsebet_plus%3Dyes%7Cpayment%3Amaestro%3Dyes%7Cpayment%3Amastercard%3Dyes%7Cpayment%3Av_pay%3Dyes%7Cpayment%3Avisa%3Dyes%7Cpayment%3Avisa_electron%3Dyes%7Cphone%3D%2B36208237727%7Cshop%3Dsupermarket%7Csource%3Awww.spar.hu%3Adate%3D2018-11-03%7Cwebsite%3Dhttps%3A//www.spar.hu/content/aspiag_spar_hu/hu_HU/uzletek/94/interspar-hipermarket-sopron.html%7Cyoutube%3Dhttps%3A//www.youtube.com/channel/UC9tu8COHiy4WkeTIN1k_Y8A -->
  <way action="modify" id="94504489" timestamp="2017-09-11T05:22:26Z" uid="8635934" user="osm_poi_matchmaker" version="6">
    <nd ref="1097746732"/>
    <nd ref="3055241792"/>
    <nd ref="3055241791"/>
    <nd ref="1097746736"/>
    <nd ref="3055241796"/>
    <nd ref="3055241798"/>
    <nd ref="3055241799"/>
    <nd ref="3055241797"/>
    <nd ref="1097746717"/>
    <nd ref="3080816958"/>
    <nd ref="3055241795"/>
    <nd ref="3055241793"/>
    <nd ref="3055241794"/>
    <nd ref="3080816952"/>
    <nd ref="3080816951"/>
    <nd ref="1097746720"/>
    <nd ref="1097746732"/>
    <tag k="addr:city" v="Sopron"/>
    <tag k="addr:country" v="HU"/>
    <tag k="addr:housenumber" v="15-17"/>
    <tag k="addr:postcode" v="9400"/>
    <tag k="addr:street" v="Selmeci utca"/>
    <tag k="branch" v="Interspar hipermarket Sopron"/>
    <tag k="brand" v="Spar"/>
    <tag k="brand:wikidata" v="Q610492"/>
    <tag k="brand:wikipedia" v="hu:Spar"/>
    <tag k="email" v="vevoszolgalat@spar.hu"/>
    <tag k="facebook" v="https://www.facebook.com/sparmagyarorszag"/>
    <tag k="import" v="osm_poi_matchmaker"/>
    <tag k="instagram" v="https://www.instagram.com/sparmagyarorszag"/>
    <tag k="name" v="Interspar"/>
    <tag k="operator" v="SPAR Magyarország Kereskedelmi Kft."/>
    <tag k="payment:american_express" v="yes"/>
    <tag k="payment:cash" v="yes"/>
    <tag k="payment:contactless" v="yes"/>
    <tag k="payment:erzsebet" v="yes"/>
    <tag k="payment:erzsebet_plus" v="yes"/>
    <tag k="payment:maestro" v="yes"/>
    <tag k="payment:mastercard" v="yes"/>
    <tag k="payment:v_pay" v="yes"/>
    <tag k="payment:visa" v="yes"/>
    <tag k="payment:visa_electron" v="yes"/>
    <tag k="phone" v="+36208237727"/>
    <tag k="shop" v="supermarket"/>
    <tag k="source:www.spar.hu:date" v="2018-11-03"/>
    <tag k="website" v="https://www.spar.hu/content/aspiag_spar_hu/hu_HU/uzletek/94/interspar-hipermarket-sopron.html"/>
    <tag k="youtube" v="https://www.youtube.com/channel/UC9tu8COHiy4WkeTIN1k_Y8A"/>
  </way>
  <!-- OSM link: https://osm.org/node/3564106997 -->
  <!-- Original coordinates: POINT (47.214359 16.621832) -->
  <!-- OSM <-> POI distance: 89.95813638 m-->
  <!-- Checker good: {not_in_water}; bad {}-->
  <!-- Original tags:  -->
  <!-- JOSM magic link: http://localhost:8111/load_object?new_layer=false&objects=n3564106997&addtags=%7Caddr%3Acity%3DSzombathely%7Caddr%3Acountry%3DHU%7Caddr%3Apostcode%3D9700%7Caddr%3Astreet%3D%C3%9Ajvil%C3%A1g%20utca%7Cbranch%3DInterspar%20hipermarket%20Szombathely%7Cbrand%3DSpar%7Cbrand%3Awikidata%3DQ610492%7Cbrand%3Awikipedia%3Dhu%3ASpar%7Cemail%3Dvevoszolgalat%40spar.hu%7Cfacebook%3Dhttps%3A//www.facebook.com/sparmagyarorszag%7Cimport%3Dosm_poi_matchmaker%7Cinstagram%3Dhttps%3A//www.instagram.com/sparmagyarorszag%7Cname%3DInterspar%7Coperator%3DSPAR%20Magyarorsz%C3%A1g%20Kereskedelmi%20Kft.%7Cpayment%3Aamerican_express%3Dyes%7Cpayment%3Acash%3Dyes%7Cpayment%3Acontactless%3Dyes%7Cpayment%3Aerzsebet%3Dyes%7Cpayment%3Aerzsebet_plus%3Dyes%7Cpayment%3Amaestro%3Dyes%7Cpayment%3Amastercard%3Dyes%7Cpayment%3Av_pay%3Dyes%7Cpayment%3Avisa%3Dyes%7Cpayment%3Avisa_electron%3Dyes%7Cphone%3D%2B36208237727%7Cshop%3Dsupermarket%7Csource%3Awww.spar.hu%3Adate%3D2018-11-03%7Cwebsite%3Dhttps%3A//www.spar.hu/content/aspiag_spar_hu/hu_HU/uzletek/97/interspar-hipermarket-szombathely.html%7Cyoutube%3Dhttps%3A//www.youtube.com/channel/UC9tu8COHiy4WkeTIN1k_Y8A -->
  <node action="modify" id="3564106997" lat="47.2140142949231" lon="16.6229094976861" timestamp="2017-09-11T08:43:04Z" uid="8635934" user="osm_poi_matchmaker" version="6">
    <tag k="addr:city" v="Szombathely"/>
    <tag k="addr:country" v="HU"/>
    <tag k="addr:postcode" v="9700"/>
    <tag k="addr:street" v="Újvilág utca"/>
    <tag k="branch" v="Interspar hipermarket Szombathely"/>
    <tag k="brand" v="Spar"/>
    <tag k="brand:wikidata" v="Q610492"/>
    <tag k="brand:wikipedia" v="hu:Spar"/>
    <tag k="email" v="vevoszolgalat@spar.hu"/>
    <tag k="facebook" v="https://www.facebook.com/sparmagyarorszag"/>
    <tag k="import" v="osm_poi_matchmaker"/>
    <tag k="instagram" v="https://www.instagram.com/sparmagyarorszag"/>
    <tag k="name" v="Interspar"/>
    <tag k="operator" v="SPAR Magyarország Kereskedelmi Kft."/>
    <tag k="payment:american_express" v="yes"/>
    <tag k="payment:cash" v="yes"/>
    <tag k="payment:contactless" v="yes"/>
    <tag k="payment:erzsebet" v="yes"/>
    <tag k="payment:erzsebet_plus" v="yes"/>
    <tag k="payment:maestro" v="yes"/>
    <tag k="payment:mastercard" v="yes"/>
    <tag k="payment:v_pay" v="yes"/>
    <tag k="payment:visa" v="yes"/>
    <tag k="payment:visa_electron" v="yes"/>
    <tag k="phone" v="+36208237727"/>
    <tag k="shop" v="supermarket"/>
    <tag k="source:www.spar.hu:date" v="2018-11-03"/>
    <tag k="website" v="https://www.spar.hu/content/aspiag_spar_hu/hu_HU/uzletek/97/interspar-hipermarket-szombathely.html"/>
    <tag k="youtube" v="https://www.youtube.com/channel/UC9tu8COHiy4WkeTIN1k_Y8A"/>
  </node>
</osm>
